{
  "type": "FeatureCollection",
  "comment": "Geolocations of the 14 partner organizations that participated in the AFCN Participatory Workshop on Information Sharing for Food Rescue & Redistribution (April 15, 2026). Coordinates anchored to each org's primary public-facing service address from the I2CE Lab participant matrix (03_12_2026). Coverage_area = workshop-self-reported service area.",
  "features": [
    {"type":"Feature","properties":{"org_id":1, "name":"Atlanta Community Food Bank","short":"ACFB",          "rep":"Michele Chivore",                                                   "role":"Core pilot partner; baseline metrics steward",            "coverage":"Citywide / metro",      "color":"#1c5c84"},"geometry":{"type":"Point","coordinates":[-84.4549,33.7888]}},
    {"type":"Feature","properties":{"org_id":2, "name":"Atlanta Braves Foundation",  "short":"Braves",        "rep":"Cameron Wilson",                                                     "role":"Strategic stakeholder; place-based investment",            "coverage":"North + Citywide",      "color":"#a4b1bc"},"geometry":{"type":"Point","coordinates":[-84.4677,33.8908]}},
    {"type":"Feature","properties":{"org_id":3, "name":"City of Atlanta (multi-office)","short":"CityATL",    "rep":"Khadejah Scott-Price; Jennifer Thompson (S&R); Christina Chu (Intl)","role":"Core city sponsor; policy, funding, resilience",           "coverage":"Citywide",              "color":"#5b7282"},"geometry":{"type":"Point","coordinates":[-84.3902,33.7490]}},
    {"type":"Feature","properties":{"org_id":4, "name":"Community Foundation for Greater Atlanta","short":"CommFdn","rep":"Amy Clarke",                                                  "role":"Strategic stakeholder; funding and convening",             "coverage":"Metro region",          "color":"#5b7282"},"geometry":{"type":"Point","coordinates":[-84.3863,33.7677]}},
    {"type":"Feature","properties":{"org_id":5, "name":"Concrete Jungle",            "short":"ConcreteJungle","rep":"Virginia Ruiz Lawley & Miriam Song",                                "role":"Core pilot partner; fresh produce / volunteer coordination","coverage":"Westside + Eastside",   "color":"#7a958c"},"geometry":{"type":"Point","coordinates":[-84.4495,33.6804]}},
    {"type":"Feature","properties":{"org_id":6, "name":"Goodr",                      "short":"Goodr",         "rep":"Grayson Stuart",                                                     "role":"Core pilot partner; recovery infrastructure & policy voice","coverage":"Citywide (commercial)", "color":"#3a4f5e"},"geometry":{"type":"Point","coordinates":[-84.4146,33.7895]}},
    {"type":"Feature","properties":{"org_id":7, "name":"The Grocery Spot ATL",       "short":"GrocerySpot",   "rep":"Heavonly Boykin",                                                    "role":"Secondary participant; volunteer demand & access points",  "coverage":"Westside",              "color":"#7d9caf"},"geometry":{"type":"Point","coordinates":[-84.4296,33.7813]}},
    {"type":"Feature","properties":{"org_id":8, "name":"Metro Atlanta Food Consortium","short":"MetroConsort","rep":"Enid Draluck",                                                      "role":"Secondary participant; coalition alignment",               "coverage":"Metro region",          "color":"#1c5c84"},"geometry":{"type":"Point","coordinates":[-84.3880,33.7700]}},
    {"type":"Feature","properties":{"org_id":9, "name":"North Fulton Community Charities","short":"NFCC",     "rep":"Sylvia Cardona & Riho Tokito",                                       "role":"Core pilot partner; inventory & service demand",            "coverage":"North Fulton (Roswell)","color":"#7d9caf"},"geometry":{"type":"Point","coordinates":[-84.3567,34.0532]}},
    {"type":"Feature","properties":{"org_id":10,"name":"Nourish + Bloom",            "short":"NourishBloom",  "rep":"Jilea Hemmings",                                                     "role":"Secondary participant; private-sector integration & APIs", "coverage":"Cascade Rd",            "color":"#7a958c"},"geometry":{"type":"Point","coordinates":[-84.4736,33.7244]}},
    {"type":"Feature","properties":{"org_id":11,"name":"Open Hand Atlanta",          "short":"OpenHand",      "rep":"Mike Gerber",                                                        "role":"Secondary participant; waste & meal operations",            "coverage":"Citywide (delivery)",   "color":"#7d9caf"},"geometry":{"type":"Point","coordinates":[-84.4146,33.7858]}},
    {"type":"Feature","properties":{"org_id":12,"name":"Retaaza",                    "short":"Retazza",       "rep":"Moriah Freed & Kashi Sehgal",                                        "role":"Core pilot partner; farm surplus & partner-mapping lens",  "coverage":"Piedmont Rd (Buckhead-area HQ)","color":"#6f8688"},"geometry":{"type":"Point","coordinates":[-84.3729,33.8366]}},
    {"type":"Feature","properties":{"org_id":13,"name":"Second Helpings Atlanta",    "short":"SecondHelpings","rep":"Paul Clements",                                                      "role":"Core pilot partner; food-flow logistics data lead",        "coverage":"Citywide",              "color":"#7a958c"},"geometry":{"type":"Point","coordinates":[-84.4128,33.7780]}},
    {"type":"Feature","properties":{"org_id":14,"name":"Umi Feeds",                  "short":"Umi",           "rep":"Erica Clahar",                                                       "role":"Secondary participant; food-as-medicine perspective",      "coverage":"Loganville HQ / metro ops","color":"#1c5c84"},"geometry":{"type":"Point","coordinates":[-83.9035,33.8389]}},
    {"type":"Feature","properties":{"org_id":99,"name":"Georgia Tech I2CE Lab (host)","short":"GT",            "rep":"Quan Duong + faculty PI",                                            "role":"Host - research, dashboard, framework",                    "coverage":"GT Campus",             "color":"#c62828"},"geometry":{"type":"Point","coordinates":[-84.3963,33.7756]}}
  ]
}
