{"type":"FeatureCollection","features":[{"type":"Feature","id":1,"geometry":{"type":"Polygon","coordinates":[[[-84.4342517453286,33.741185852385875],[-84.43424965376265,33.74108124861957],[-84.43424533839242,33.74098343012221],[-84.43423981686082,33.74089896505443],[-84.43423171721088,33.74080553860496],[-84.43421994495353,33.74069893880504],[-84.43420761860513,33.740607139981805],[-84.43417417723441,33.74040952889799],[-84.43413548094283,33.74022994697169],[-84.43410382053581,33.74010498202285],[-84.43397773961756,33.7398684089595],[-84.4338731678084,33.73970319675969],[-84.43380691318849,33.73961150104717],[-84.43375109493267,33.73953961464743],[-84.4336928246443,33.73946909863134],[-84.4335925510603,33.73935708000206],[-84.43354489536256,33.739307455780576],[-84.43347871936456,33.73924198979108],[-84.43340161295554,33.73917027635968],[-84.43333077486606,33.739108308867316],[-84.43326321321975,33.73885227802661],[-84.43323810683295,33.73882576493297],[-84.4330563533363,33.738725363747974],[-84.43287514177601,33.73861299704853],[-84.43267253680719,33.73847085749708],[-84.43251986670674,33.73835045543298],[-84.4323748010279,33.73822365849678],[-84.43223772286011,33.73809080491374],[-84.43210899481028,33.7379522428716],[-84.43200625477041,33.737830080076556],[-84.43191391431385,33.73770962332884],[-84.43180905100752,33.737557667886726],[-84.43171366878181,33.73740141273891],[-84.43162802032904,33.737241271225166],[-84.43155233029788,33.73707766395728],[-84.43150750337718,33.736966881614144],[-84.43146724547259,33.73685488123473],[-84.43143160229926,33.73674179436721],[-84.4314006163393,33.736627754369756],[-84.43013649234187,33.735870244369664],[-84.42974404597071,33.735635079675106],[-84.42931033441438,33.735375173475006],[-84.42923942682218,33.73533268131827],[-84.42908164513697,33.73523812816815],[-84.4287627679527,33.73504703472646],[-84.42737802378457,33.73421721562692],[-84.42641164132411,33.73363805123784],[-84.42544183361734,33.732987348893026],[-84.42484314571527,33.73285558685264],[-84.42479709727876,33.732900149246554],[-84.42462689852553,33.732846057428716],[-84.42435743375529,33.73273522028184],[-84.42425584264541,33.73268445073233],[-84.42415716035252,33.73262982405491],[-84.42419063938348,33.73256411719698],[-84.42391315935302,33.7323814463207],[-84.42298985264328,33.73181629139204],[-84.42305956782096,33.73174433506064],[-84.42239774719829,33.731338085160495],[-84.42227345566437,33.73126361762067],[-84.42189984036987,33.7310115782262],[-84.42187553329832,33.73103366948203],[-84.42145665807304,33.73079233026058],[-84.42123886243935,33.730630769584074],[-84.42109751055003,33.730525912281514],[-84.42106862208553,33.73055628552864],[-84.42045912281644,33.73005122816896],[-84.42036665423657,33.72994747866716],[-84.42025612078022,33.72986374692784],[-84.42010315595692,33.729701006946904],[-84.41999023037938,33.72958633317332],[-84.41967172719023,33.72929099888209],[-84.41960667273419,33.72934890046397],[-84.4190587112583,33.72902822798506],[-84.41901295358562,33.72907144148256],[-84.41856578403188,33.72880973119939],[-84.41705668813294,33.727926541487584],[-84.41652189905884,33.72766904798493],[-84.41540395689653,33.72699849631322],[-84.41540339925932,33.726930505183184],[-84.41510112468517,33.726747342121335],[-84.41491211028918,33.726622242914395],[-84.41469999524334,33.726467853452434],[-84.41449744034055,33.72630474703834],[-84.41434533170636,33.72617074564777],[-84.41421264706487,33.72604465235147],[-84.41407306048197,33.72590145024015],[-84.41397585330057,33.72579446568596],[-84.41408911354333,33.72579525590046],[-84.41396864969326,33.72568810153123],[-84.41388659411571,33.72560856460669],[-84.41380030931201,33.725518318073455],[-84.41374024699803,33.72545094639596],[-84.41368250508634,33.72538217247634],[-84.41361366540839,33.725294324491436],[-84.4134778679532,33.725123759587014],[-84.41341342860902,33.725015363808566],[-84.41334178001262,33.7248948406576],[-84.41326747295949,33.72476984603489],[-84.41317270355034,33.72461040736765],[-84.41307948617424,33.72445360828794],[-84.41301578516568,33.72434646141536],[-84.41290185454965,33.724154827344705],[-84.41280356135117,33.72396783709911],[-84.41267537191989,33.72372397197382],[-84.41255775374773,33.72350021789825],[-84.41243592882428,33.72326845722584],[-84.41231769132357,33.723043522059534],[-84.41187087299366,33.72219346560895],[-84.41176042247064,33.7220387284057],[-84.4116994791945,33.72195723925648],[-84.41158144632168,33.721806461687606],[-84.41145857675818,33.7216584066803],[-84.41139110018027,33.721580595566216],[-84.41135210910258,33.72126401459203],[-84.41002660164384,33.72069477496574],[-84.40993223788342,33.72066662531379],[-84.40959684592208,33.72058135189913],[-84.40928762855464,33.72052227346317],[-84.40897436900626,33.72048064027582],[-84.40864180390476,33.7204558690831],[-84.40834136774463,33.72045038284182],[-84.40807443421399,33.720458896279],[-84.40795791481159,33.72046657889025],[-84.40795852414642,33.72028288982113],[-84.40776124245306,33.72028181168522],[-84.40713360358772,33.72026084632106],[-84.40709483008973,33.720259558495734],[-84.4019561802057,33.72009603936426],[-84.40201479777068,33.71993092124994],[-84.40105946804749,33.71989701056468],[-84.40100241600973,33.720057589912095],[-84.40083460662815,33.720052439616694],[-84.39928171632138,33.72000089035087],[-84.39915482533594,33.719985766788625],[-84.39881251282573,33.71994496587005],[-84.3984186351513,33.71989741356347],[-84.39812116138401,33.719857010775414],[-84.39787704342493,33.71981614132605],[-84.39763467831352,33.719768539929646],[-84.39737618246379,33.719708874224956],[-84.3974161911751,33.71965375134621],[-84.39715957501511,33.71959150382854],[-84.39633236356573,33.71945575353091],[-84.39579886310747,33.71932472696426],[-84.39558301371547,33.719279588871686],[-84.39531764905068,33.71923718574325],[-84.39503383669303,33.71920728701362],[-84.39474986018492,33.71919235729386],[-84.39448842419982,33.71918934316134],[-84.39422724068073,33.71919940208062],[-84.39399774030129,33.71921910670373],[-84.39375467935864,33.71925125169237],[-84.39348431627454,33.719301013386186],[-84.39331902282763,33.71933896834161],[-84.39285581937888,33.71946609226691],[-84.39266929927048,33.719523415913315],[-84.39240596909545,33.71961207531975],[-84.39218525011758,33.71969361891185],[-84.39127511017277,33.72008698733973],[-84.39053235832155,33.720402380390524],[-84.3899401643147,33.720653818963555],[-84.38911918923172,33.72100239343276],[-84.38820722091009,33.72138959771405],[-84.3873098778905,33.72177542114714],[-84.38714073754392,33.72172718324285],[-84.3856581609455,33.72248333620306],[-84.38490626568051,33.72286719806681],[-84.38445634035533,33.72307018767268],[-84.38401591724237,33.72326935391156],[-84.38346251924558,33.72350178260555],[-84.38310668390102,33.723620497081626],[-84.38284686374772,33.72370597684307],[-84.38269999649314,33.72374498175262],[-84.38222396604962,33.72395597323851],[-84.38187175361912,33.72407243991316],[-84.38153656588872,33.72415566062862],[-84.38122291940323,33.72421093664936],[-84.38097759632838,33.72423966298524],[-84.37957670780824,33.72416829504129],[-84.37867318840436,33.72423366339942],[-84.37867718916429,33.72412246205903],[-84.37851119435567,33.72414841534887],[-84.37686721396972,33.72415512761191],[-84.3767026646443,33.72414791927955],[-84.37670358481982,33.72420806202352],[-84.37539676614486,33.724191534770135],[-84.37523235946098,33.72419554539305],[-84.37494414035736,33.72421565641168],[-84.3747482068681,33.72423896728408],[-84.37455380900127,33.72426998084506],[-84.37434667091787,33.72431191478749],[-84.37394280647395,33.7244148261452],[-84.37385875994292,33.72443483614707],[-84.37362459781212,33.72449417206385],[-84.37342969711483,33.72454765315747],[-84.37321111333942,33.72461215035872],[-84.37303124484349,33.724668894937544],[-84.37280429820005,33.72474534066191],[-84.37264361997048,33.724802818153066],[-84.3725009242651,33.72485625308012],[-84.37250087700077,33.72472615087641],[-84.37076564979718,33.725272653063236],[-84.37067351737831,33.72530046460012],[-84.36911933740171,33.725769566979835],[-84.36908213224112,33.725780786002396],[-84.36897429520586,33.725813337690205],[-84.36852601871223,33.72594862587405],[-84.36832952127118,33.72599761847783],[-84.36832777106511,33.726124069178084],[-84.3676337251578,33.7263262363577],[-84.36728456472053,33.72642815959884],[-84.3670425965618,33.72650250834936],[-84.36687546848982,33.72655463925261],[-84.3668087491106,33.72657588139484],[-84.3667323364972,33.726600959535844],[-84.36637757483633,33.726727733613835],[-84.36624438560256,33.726778489647245],[-84.36609131960564,33.72683870358438],[-84.36555421148223,33.72706646695136],[-84.36545718599947,33.72711203344697],[-84.3653932334838,33.727142067862275],[-84.36477763059062,33.72745601753201],[-84.3645207296599,33.72760445030725],[-84.36439374834231,33.727680670784714],[-84.36417881384408,33.727814141135035],[-84.3639274876444,33.72798474277436],[-84.36377195324332,33.72808887490049],[-84.36365418820954,33.72819811399981],[-84.36348833830284,33.728322765053164],[-84.36332152191876,33.72845632130754],[-84.3632327511364,33.72852984147734],[-84.36259745149988,33.72912293646208],[-84.36211019698735,33.72964675838966],[-84.36204954159732,33.72973544869898],[-84.36154465547028,33.73033166702014],[-84.3612970020457,33.73082303440758],[-84.36125777160677,33.73090033685452],[-84.36091857315392,33.73144983605786],[-84.36074640431869,33.73180361387867],[-84.36069772857552,33.73190363385141],[-84.36067547029535,33.731949371207975],[-84.36065255769093,33.732087040024545],[-84.36049040698767,33.73284947136343],[-84.36046871513099,33.73295146498329],[-84.36013739569076,33.73295426571107],[-84.35992224255047,33.733600718635245],[-84.3598696210384,33.733765524098445],[-84.35958952461864,33.73459946154233],[-84.35974580655639,33.734630300155075],[-84.35950721051579,33.735313918241005],[-84.35942596926748,33.73555223709569],[-84.35936774397533,33.73572305608948],[-84.35927593140883,33.735992412883554],[-84.35912691382497,33.73642959065995],[-84.35908004835078,33.73656660935958],[-84.35875150086139,33.73752747342968],[-84.3587292854227,33.73759596637987],[-84.35865204201409,33.73785187157991],[-84.35849938368305,33.73835762252828],[-84.35843598349835,33.73856699763611],[-84.35839865008691,33.73869055931261],[-84.3583684785493,33.738794281496546],[-84.35832968679881,33.73893284900026],[-84.3583015870595,33.739036971890975],[-84.3582224473254,33.739350308104655],[-84.35821526856797,33.7394903431021],[-84.35814780224099,33.73969916079814],[-84.35813010523525,33.73983643047958],[-84.35812450178558,33.740519007619554],[-84.35812344516557,33.740647736223295],[-84.35811313165456,33.741904046178995],[-84.35810356409878,33.7420858748379],[-84.35811114283585,33.74215048848532],[-84.3581313517644,33.74311780299979],[-84.35813503837512,33.743296433631116],[-84.35814657115657,33.74391154436328],[-84.358169398009,33.74543329336252],[-84.35816866543631,33.745513551888926],[-84.35816690326361,33.74562055605861],[-84.35816568595385,33.74567405325431],[-84.35816343903126,33.74575429158498],[-84.35816166044157,33.745807777928505],[-84.35815857159007,33.74588799682512],[-84.35815497865228,33.74596820117423],[-84.35815230307014,33.74602166185726],[-84.35814940404336,33.74607511386976],[-84.35814627941281,33.7461285572151],[-84.35814293133478,33.74618199098816],[-84.35813748930558,33.74626212246152],[-84.35813154316148,33.746342229469015],[-84.35812729911659,33.74639561864479],[-84.35812283053677,33.74644899554498],[-84.35811570881734,33.74652903584639],[-84.35784961708795,33.746525706300545],[-84.35779697836186,33.74652504573683],[-84.35782258166003,33.74666284418149],[-84.35782311645674,33.74674918781339],[-84.35782351324154,33.74681321745533],[-84.35782390183779,33.746875988396376],[-84.35782430225328,33.74694068074914],[-84.35782481867042,33.74702408951278],[-84.35782255849405,33.74710580745964],[-84.35781660824881,33.74717254648512],[-84.35781095498066,33.74723595432981],[-84.35779998749872,33.74735895097545],[-84.3577838648166,33.747535874668614],[-84.3577964182174,33.747978378406856],[-84.35771847628797,33.74828484859867],[-84.3575135825108,33.749090485438344],[-84.35748494679716,33.74920307085448],[-84.35719460509009,33.750168000371794],[-84.35689550167646,33.75016692789122],[-84.35675107958738,33.7501668059073],[-84.3566190629302,33.7501667070457],[-84.35657659694454,33.75024909720659],[-84.3565607334287,33.75129121712647],[-84.35643182566608,33.751393430522675],[-84.356705624433,33.75163416991269],[-84.35674690636795,33.7516841212231],[-84.35678684070733,33.75175778995326],[-84.35680700040892,33.75183000229658],[-84.3568110597454,33.751897344343796],[-84.35678717455932,33.752463658088026],[-84.3567813960452,33.75257351573579],[-84.35674448234339,33.75344870898827],[-84.35653919797932,33.7535162721911],[-84.35633585206325,33.75358781017982],[-84.3560809053827,33.75368466706858],[-84.35593541662163,33.75374265208669],[-84.35573854491325,33.75382587183739],[-84.35554404513037,33.753912898943796],[-84.35535202509094,33.75400368456289],[-84.35523451709236,33.75407233855639],[-84.35502930713263,33.754169225487395],[-84.35477787358236,33.75429947165133],[-84.35460244346369,33.75439548747427],[-84.35443047707814,33.75449555703308],[-84.35422742019291,33.754621389715545],[-84.3540811476043,33.754718309934866],[-84.35395272724632,33.754807118652266],[-84.35377730445325,33.754928275956395],[-84.35358339635233,33.75506219869013],[-84.35340362776583,33.75518635553707],[-84.35321200783174,33.75531869722702],[-84.35268263049012,33.755635705779056],[-84.35258152734924,33.75570755142711],[-84.35250918581202,33.755614147847545],[-84.35211480978462,33.75581687318115],[-84.352103933272,33.75585401789403],[-84.35216801298282,33.755939172253036],[-84.35224033052572,33.75603501053388],[-84.35231046714566,33.756128078557886],[-84.35238060932839,33.75622115284358],[-84.35245076026949,33.756314213549736],[-84.35252090812607,33.756407275120615],[-84.3525735413313,33.756477110234485],[-84.35262610541967,33.75654689132978],[-84.35282124842905,33.75680578528495],[-84.35289956845541,33.756744486225514],[-84.35299886811701,33.75666685802812],[-84.3532017171963,33.756508314747514],[-84.35329787496394,33.75643312732834],[-84.35307304275331,33.756139726605454],[-84.3535488697207,33.755771396802636],[-84.3533788815366,33.75554295178826],[-84.35350406840506,33.755473523345145],[-84.35367186821733,33.755357691441766],[-84.35386897044907,33.75522155918271],[-84.35401780044151,33.75511876646268],[-84.35415589816185,33.75502338524234],[-84.35428263602562,33.75493568250009],[-84.35445040506296,33.754826995200496],[-84.35462116012617,33.7547216013821],[-84.3547948074387,33.754619558881544],[-84.35501294215315,33.75450012836443],[-84.35515040369167,33.75442574926378],[-84.35537329996335,33.75431373777643],[-84.35551641979825,33.75424598580406],[-84.35570325785324,33.75415865309403],[-84.35588320555331,33.754071345990205],[-84.3560835746867,33.753994343873295],[-84.35627687232261,33.75391744426128],[-84.35647213877337,33.753844099253065],[-84.35666928022336,33.75377434324664],[-84.35686820393562,33.753708209737304],[-84.35717759899366,33.75361310749057],[-84.35734879250515,33.75356793801878],[-84.35760642688204,33.75350009144403],[-84.35787856980868,33.753432903512184],[-84.35816332687601,33.753366864861796],[-84.35840692211,33.753316487237065],[-84.35868711596304,33.753259785702355],[-84.35892008046365,33.75321716611901],[-84.35918533245906,33.753163444153394],[-84.3593784245958,33.75312462324211],[-84.35964584232146,33.753070858135324],[-84.35996189242626,33.75301345026375],[-84.36024029904253,33.75296978143867],[-84.36053763903755,33.75292927050914],[-84.3607474045192,33.752904647598115],[-84.36105452346251,33.75287412572511],[-84.36131389792584,33.75285342798106],[-84.3614716715034,33.75283921878068],[-84.36164902207352,33.75281244454218],[-84.36185513070183,33.75276579626969],[-84.36216321950991,33.75269215382508],[-84.362321336025,33.75265423666058],[-84.36308884907179,33.75247017919928],[-84.3636912766369,33.75232570716818],[-84.36403294644579,33.75224376712897],[-84.36444349156699,33.75214530839054],[-84.3648560444941,33.7520463662846],[-84.36530387898955,33.75193896080097],[-84.36551847359571,33.752527530045114],[-84.36588334161743,33.75353510109116],[-84.36580952303231,33.75364772698048],[-84.365696959842,33.75384379589826],[-84.36557601202645,33.75407999918662],[-84.36549841149085,33.754241334802046],[-84.3654554423203,33.75424459315776],[-84.36541925050575,33.75424860338784],[-84.3653832653382,33.75425375657392],[-84.36533140417666,33.75426328127919],[-84.36535300824126,33.75442903030838],[-84.36535049885705,33.75468186306108],[-84.36532399304743,33.75468790082519],[-84.36532441842573,33.755300098042404],[-84.36486086968705,33.75750271141174],[-84.36482415613739,33.75763948200007],[-84.36473224472083,33.757915844319136],[-84.36466403091679,33.75810967162641],[-84.36457464884315,33.75833296555365],[-84.36448300822384,33.758545071687195],[-84.36436615802,33.7587831587356],[-84.36421557732706,33.75904246780233],[-84.36404077041003,33.75929554079887],[-84.36336127046414,33.759995024682674],[-84.36327273844874,33.76007522364805],[-84.36276317006889,33.76050575924091],[-84.36247838872566,33.76072421880105],[-84.36231450474882,33.760843394291165],[-84.36165073563885,33.761282200606],[-84.36145276645723,33.76141704183358],[-84.36133931134508,33.76141747688603],[-84.36123528600028,33.76142273524931],[-84.3611277142139,33.761436039166085],[-84.36112524288261,33.76168018677412],[-84.36093144019361,33.76185529299651],[-84.3607432098492,33.76204358676549],[-84.36049108509685,33.76233206513936],[-84.36028891079988,33.76257522954318],[-84.36016445164648,33.76274100092345],[-84.36005215891188,33.76291272747616],[-84.35993618134597,33.76312153752368],[-84.35981919079666,33.76312012832735],[-84.35970641617853,33.76333505717782],[-84.35958490663427,33.76362624977151],[-84.35950660677754,33.76387796703257],[-84.3594496148864,33.7641581540501],[-84.35941560980494,33.764505857968864],[-84.3594154508932,33.764829344679086],[-84.359419109353,33.76500237450674],[-84.35945980016768,33.765298700884],[-84.3595000128719,33.76552266122794],[-84.35956415146411,33.765755777424886],[-84.35962012065058,33.76591687592],[-84.35968817275813,33.76608904673522],[-84.35982256459326,33.76636125590018],[-84.35993899693212,33.7665568867131],[-84.36001825019144,33.76668112049072],[-84.3600974681762,33.76678955188472],[-84.3606383397155,33.76742842010806],[-84.36079491876822,33.767582127700614],[-84.36108618757659,33.76784853258083],[-84.36099685786031,33.76789646360922],[-84.36129695200766,33.768164294020316],[-84.36200631536278,33.76881775762239],[-84.36226135820999,33.76908718883894],[-84.36234632120576,33.769186894250694],[-84.36245735298196,33.76932075525993],[-84.36256218550406,33.76947200357111],[-84.36263388128033,33.76957011497301],[-84.36280424681094,33.76978385989192],[-84.36294018639373,33.76997134276278],[-84.36314905808462,33.77026853076156],[-84.3632205993469,33.77037971422208],[-84.36338097290952,33.77065027837505],[-84.36359458969534,33.77103010174188],[-84.36383429161393,33.7710403549427],[-84.36388947014889,33.771260380143055],[-84.36399704190875,33.77159182537895],[-84.36407297555199,33.77184107592987],[-84.36415608774489,33.772131964992184],[-84.36421336668356,33.7723454045783],[-84.36425906443664,33.772540078537055],[-84.36442524503035,33.7732729246605],[-84.364484835502,33.77351765674166],[-84.36465137061086,33.774177648334174],[-84.36478926227822,33.77470978619571],[-84.36488191610627,33.77505668619029],[-84.36496328965514,33.775358934552806],[-84.36510642058037,33.77590132884443],[-84.36516762713691,33.77613213907798],[-84.36530681014801,33.776676012713885],[-84.36533996089277,33.77681312320161],[-84.36539655516087,33.777098673704806],[-84.365463675365,33.77739560589924],[-84.36552337888985,33.77761383035206],[-84.3655563868066,33.777723403632145],[-84.36565823496015,33.7780242740331],[-84.3657772115325,33.7783255278526],[-84.36592313452736,33.7786456988748],[-84.36596397831913,33.77872791226925],[-84.3661624665412,33.77908841643223],[-84.36631417101341,33.779340132305826],[-84.3664400836292,33.77952180253618],[-84.36617953301499,33.77952384522241],[-84.36646610158984,33.779885556183],[-84.3674961979923,33.781196487852476],[-84.36758643484842,33.78135236455336],[-84.36823786911079,33.78217266790554],[-84.36838805261047,33.78235885424758],[-84.36854442399604,33.78255379703299],[-84.3689259575202,33.7830259837865],[-84.36944382199755,33.783592301354595],[-84.36980379833433,33.78407193499482],[-84.36990421684567,33.7842275415912],[-84.37011007269945,33.784612203759195],[-84.37030758835824,33.78511575839122],[-84.3703750683524,33.78532767292888],[-84.3704197283247,33.78549111809099],[-84.37046000604087,33.78566347968205],[-84.37053507009983,33.786131311560396],[-84.37053167302062,33.786270788121676],[-84.37053611163563,33.78657538095089],[-84.37051316274511,33.78687794341291],[-84.37047935934694,33.787204788105825],[-84.37025381698236,33.787080428796116],[-84.37017094108913,33.78762970679857],[-84.37041949717218,33.78763123966914],[-84.37036384280069,33.787951504962315],[-84.37031563340194,33.78824838985176],[-84.37025412605071,33.788662020708834],[-84.3701907914751,33.78914843393631],[-84.3701410548123,33.78960184230377],[-84.37013218522938,33.789707992889475],[-84.3699894682103,33.79069941041293],[-84.36992805952025,33.7911598265077],[-84.36985582368186,33.791733878186584],[-84.36981100182858,33.79212604980243],[-84.36979907382133,33.792302846922794],[-84.3697880730566,33.792588324680544],[-84.36978673900822,33.792864373286385],[-84.36979392141959,33.79311809202713],[-84.36981103401433,33.79339110053168],[-84.36982592517087,33.793558443841825],[-84.36983929869758,33.79368310915474],[-84.36999652396563,33.7936626504897],[-84.37002556031379,33.79380753650992],[-84.37009617639188,33.79410491038389],[-84.37018573182114,33.7944136696492],[-84.37027238330369,33.794668337357585],[-84.37039734695776,33.79498614466045],[-84.37055996203497,33.795341363053815],[-84.37064953292555,33.79526427274076],[-84.37076158423415,33.795453536601116],[-84.37119920199648,33.79622869379071],[-84.37106190582766,33.796229416330334],[-84.37238458931942,33.79855421739976],[-84.37387878139734,33.80118536417439],[-84.37392493954314,33.80128887162324],[-84.374173302469,33.80172250137522],[-84.37411460052165,33.80174441909091],[-84.37454983454008,33.802482962365715],[-84.37460600645095,33.80246198281697],[-84.37469192779442,33.80261051525666],[-84.37466752573894,33.80261962698447],[-84.37484475502715,33.802914733252],[-84.37478884399934,33.80293560877873],[-84.37496910211821,33.80322953218784],[-84.3750181385073,33.803211222560385],[-84.37510751117095,33.80335848655298],[-84.37505843478829,33.803376809807936],[-84.37514815095135,33.80354180680199],[-84.37518531652645,33.80352792081922],[-84.37526708223423,33.8036601923171],[-84.37522310544786,33.80367661355262],[-84.37531093588395,33.80382446155524],[-84.37537937761824,33.803798898565326],[-84.37546531465895,33.80394745294316],[-84.3753993838504,33.80397207582109],[-84.37556715485556,33.804270703487596],[-84.37563718312792,33.804244550696346],[-84.3757037245603,33.80440037527821],[-84.37579372433052,33.804547362674874],[-84.37573465508052,33.80456942423763],[-84.37582610122662,33.80471593939633],[-84.37587264122742,33.8046985461326],[-84.3760452755489,33.80499536426854],[-84.37600377259201,33.80501086280185],[-84.37608790725743,33.805170111511096],[-84.37615757029972,33.80514409970418],[-84.37636074772004,33.80549530970161],[-84.3765102124258,33.80577409750334],[-84.37667386087737,33.80609406716669],[-84.37680461901964,33.80639258201757],[-84.37697061096576,33.80685232788645],[-84.37706181979739,33.80715862433938],[-84.37714108789162,33.80749016286876],[-84.37723162938647,33.8079917751728],[-84.3772679613217,33.80824360548866],[-84.37732267697005,33.80874881959074],[-84.37735339200393,33.8092554460268],[-84.37735029391483,33.80957745929963],[-84.37719111152823,33.80984679792925],[-84.37706584614325,33.81005372148172],[-84.3768286579382,33.81047298960101],[-84.37671681045664,33.81068520242427],[-84.376396992092,33.81133393796085],[-84.37619348489314,33.81170128388063],[-84.37594185538728,33.81217358615717],[-84.37571735050619,33.81254819357263],[-84.37547124936617,33.8129132282721],[-84.37526367696718,33.81317583065365],[-84.37507224878429,33.813435331687316],[-84.37478401736793,33.81377940163653],[-84.37356064104182,33.81522269491638],[-84.37336475870113,33.815476591563],[-84.37320054948083,33.81567582574192],[-84.37308034531762,33.81569166962799],[-84.37276604488508,33.81569123947016],[-84.37248557348963,33.815670134116864],[-84.37222650557837,33.815663530603395],[-84.37221270437635,33.81575726802815],[-84.37213129263596,33.81636867483321],[-84.37211167011483,33.816695630044364],[-84.37210652870496,33.81687564236806],[-84.37211334915145,33.816994888150056],[-84.37211285691592,33.81699548495814],[-84.37139540889395,33.81782751514272],[-84.37098442374379,33.81832353758367],[-84.37074222367067,33.81861584738321],[-84.37052791293416,33.81892047216801],[-84.37033540975244,33.81923551874996],[-84.37017688380604,33.819515556654395],[-84.37006585838053,33.819791649759395],[-84.36991819751697,33.82017378168279],[-84.36973810632155,33.82077557345352],[-84.3696555181058,33.82111286089128],[-84.36992495939243,33.82108771925053],[-84.3701910898578,33.82017118574084],[-84.37044462220105,33.819540700582834],[-84.37086155880056,33.818858345926856],[-84.37134073095092,33.818290214357546],[-84.37213931274597,33.8173261944736],[-84.37214953622691,33.817434241539864],[-84.3721801501631,33.817950130484945],[-84.37238380733577,33.818408661189444],[-84.37232662972922,33.81893744568729],[-84.37228923254963,33.81947684647792],[-84.37227542119939,33.81989700400669],[-84.37227560343365,33.8203171381776],[-84.37228462508128,33.820647253506635],[-84.37229590006763,33.82088701655857],[-84.3723301115407,33.821025690320766],[-84.37233468610262,33.82138428789289],[-84.37230901662011,33.82166235491266],[-84.37225591358894,33.8225604480894],[-84.3722144734829,33.82280426076885],[-84.37217009428485,33.822997758396944],[-84.37213031199028,33.82314174260623],[-84.37207231918416,33.82332154343371],[-84.37195808340552,33.82361262064589],[-84.37180206486197,33.82393179488865],[-84.37169127887654,33.82412415217049],[-84.37154043131467,33.82435467943137],[-84.37139568220633,33.82455020803714],[-84.37127384386092,33.82469945488405],[-84.37185621328285,33.824906472489126],[-84.37199314162118,33.82475167647273],[-84.37202734076801,33.82471301469214],[-84.37209698786673,33.82457562683329],[-84.37225636257877,33.824261237998236],[-84.37290026760728,33.822764609301906],[-84.37311761208228,33.82107455298183],[-84.37313733073206,33.820950193859595],[-84.37285084180107,33.820898297445815],[-84.3728585546276,33.81991640678381],[-84.37285968944916,33.81949889958976],[-84.37286233570353,33.8192979805144],[-84.37287703136897,33.81894730043972],[-84.3728843134319,33.81884427160847],[-84.37290533508475,33.81863861158735],[-84.3729349420169,33.818433690072645],[-84.37297309911514,33.81822975506975],[-84.3730197604675,33.818027055502114],[-84.37304626285375,33.81792624679971],[-84.37310556816766,33.817725864000984],[-84.3731732170321,33.817527329999294],[-84.37324912464106,33.81733088836765],[-84.3733331996969,33.81713677727877],[-84.37342533901835,33.81694523312047],[-84.37352543077914,33.816756489588954],[-84.37369020922752,33.81647912820784],[-84.37380502513834,33.816305080000035],[-84.37416944418817,33.815752497598744],[-84.37444399113095,33.81581150349501],[-84.37450357378702,33.81570584917193],[-84.37455862927933,33.81561007096892],[-84.37455919638771,33.815610070914715],[-84.37483903521232,33.815601354272324],[-84.37511884839152,33.815581644165846],[-84.37539864033286,33.815553688806204],[-84.37581334347666,33.81549252460109],[-84.37615559204231,33.81542323833088],[-84.37649122723772,33.815342969489244],[-84.37675772830383,33.81526556572993],[-84.376955120196,33.81520202033105],[-84.37721828083143,33.81510538374413],[-84.37741235261716,33.815030849506236],[-84.37764586684659,33.814928766220945],[-84.37791224289741,33.81480189225093],[-84.37796814654615,33.814774314310284],[-84.37971807029112,33.8141062334098],[-84.37976083057542,33.814089670231596],[-84.38138902532786,33.813468496471465],[-84.38478677548018,33.81217086926226],[-84.38518165262595,33.8120904720008],[-84.38575427907145,33.81199601679353],[-84.38588594365626,33.81198478998694],[-84.38624474983276,33.81196216602517],[-84.38655090097521,33.81194787955311],[-84.38700191378166,33.81193333364077],[-84.38756813616232,33.81191033424788],[-84.38864133968902,33.81187268074981],[-84.38977709608392,33.8118349047867],[-84.39032357745995,33.811817425792626],[-84.39062314989707,33.81180588936261],[-84.39084700528251,33.81179723806022],[-84.3917621823422,33.81176259273899],[-84.39212431429505,33.81175368670286],[-84.39239101372239,33.81176144359235],[-84.3931285056124,33.81176558822867],[-84.39362235970856,33.81176742876214],[-84.39378696043727,33.811761629355765],[-84.39378324692592,33.81160223951456],[-84.39401687762968,33.811555089400784],[-84.3946321154269,33.81139455630442],[-84.39499064034233,33.811267475120175],[-84.39501385427425,33.811330641177676],[-84.39545458301285,33.811164931378116],[-84.39560255267855,33.81109595136703],[-84.39557931642076,33.811024540803956],[-84.39606257060677,33.81075706490553],[-84.39629596170785,33.81062196791844],[-84.39658188221092,33.81043180730843],[-84.39684148448113,33.810249940704594],[-84.39709450225106,33.81006808495042],[-84.39749862843001,33.80976227703145],[-84.39774830682157,33.80956393686189],[-84.39788628433891,33.80945374953315],[-84.39801439226554,33.809346328779114],[-84.39823446804017,33.80915903601149],[-84.3983789842336,33.809032346535616],[-84.3986876879596,33.808748699656945],[-84.39880919461937,33.80863579314561],[-84.39909815624715,33.808357678819],[-84.39935095537086,33.80809886866311],[-84.39961685347828,33.807815299266665],[-84.3997973862921,33.80761708637179],[-84.39987323982362,33.80766641095088],[-84.40007340409304,33.80742418901369],[-84.40028013763273,33.80717645696212],[-84.4004343594319,33.80698928582729],[-84.40072640034847,33.80663695895182],[-84.40116280478486,33.80610572269509],[-84.40144825666003,33.80575340659944],[-84.40167792041872,33.80546715342228],[-84.40181573598412,33.80530199754415],[-84.40206835240772,33.804982721218714],[-84.40232753487422,33.80465793537845],[-84.40246204187982,33.80448728864074],[-84.40261952351247,33.80429186382033],[-84.40277370487154,33.80409369598803],[-84.40292789307628,33.803898277068264],[-84.40314770231912,33.803623032850886],[-84.40330850305777,33.80343859365463],[-84.40354806175128,33.80316331082294],[-84.40348869160134,33.80312220148587],[-84.40418743897955,33.802235928876414],[-84.4041940000777,33.80222767157769],[-84.40473201453106,33.801553319179774],[-84.40482716023638,33.80143770929673],[-84.40499446854126,33.80122852129104],[-84.40507983691967,33.80114865789044],[-84.40534254121182,33.80091455010658],[-84.4058712362971,33.80044632737353],[-84.40616678491554,33.80018742102686],[-84.40648204560019,33.79991473363293],[-84.4077661781846,33.798848666619776],[-84.40796334836227,33.79872735841243],[-84.4084069701545,33.79845166761707],[-84.40883416006793,33.79818699946871],[-84.41000399991671,33.79746466216204],[-84.41020780065352,33.79736257484393],[-84.41074030853623,33.797094944809196],[-84.41144382653995,33.79677200792345],[-84.4118186457237,33.79661736316569],[-84.41206851847672,33.796512432989935],[-84.41254525270259,33.79631361168095],[-84.41355132637895,33.79589661980701],[-84.41446532626118,33.79551553160228],[-84.41477109551478,33.79539124700271],[-84.41480068885426,33.79538019459137],[-84.4152248788266,33.795228188400905],[-84.41542874860042,33.79515357455379],[-84.41553067883905,33.79511489385196],[-84.41559313292063,33.7950845373925],[-84.4157147254171,33.795015586398605],[-84.41583301810033,33.79494389372439],[-84.41600715024775,33.79483086473405],[-84.41617467364141,33.79470960328717],[-84.41633230568321,33.79458286608067],[-84.41653256993018,33.79440107784903],[-84.41671635013952,33.794211077122625],[-84.41684428391942,33.79405966541929],[-84.41699839127267,33.79385323598338],[-84.4171032507595,33.79369087701892],[-84.41710294322365,33.79369059001728],[-84.4171035802587,33.79369017667083],[-84.4171519752769,33.793607527092334],[-84.41718309906824,33.79355199538204],[-84.41722809369159,33.79346801733493],[-84.41757539806045,33.79231111843188],[-84.417575529809,33.79231111816396],[-84.4183084969449,33.792308586730584],[-84.42047872329901,33.79230106587057],[-84.42047156009117,33.792328828843935],[-84.42043214126599,33.79242660806617],[-84.42039559190127,33.792493709991454],[-84.4202055034744,33.79273195476276],[-84.4202082012809,33.79273604270368],[-84.41994261696793,33.79305726130818],[-84.42019751095008,33.793031248193195],[-84.42102053812447,33.79300549915624],[-84.4220207363393,33.79297419990937],[-84.42629207101027,33.79267565021644],[-84.42686632045243,33.79263149950721],[-84.42730488217276,33.79267322812573],[-84.42741921710876,33.79234117720691],[-84.42746853984646,33.79225851261407],[-84.42756620646591,33.79210914641851],[-84.42762842460505,33.792025217428844],[-84.4277519599458,33.791876948672275],[-84.42792299693531,33.791702110421625],[-84.42815094046092,33.79150938165251],[-84.4283581742526,33.79136438818639],[-84.42848938253405,33.791284689013914],[-84.42910176095936,33.79095582718869],[-84.42916686846985,33.79092418418456],[-84.42933727809339,33.79085064552009],[-84.42963315781616,33.7907300545275],[-84.42891003038193,33.78956927817064],[-84.428807755931,33.789394486357324],[-84.42869510796953,33.789180835578925],[-84.42859365458445,33.788963309081275],[-84.42851065393555,33.78876085406891],[-84.42846946090216,33.78864931102243],[-84.42844995209889,33.788593266239964],[-84.42858455675065,33.78858632912229],[-84.42851003634493,33.788351487796184],[-84.42849508918822,33.78829836910698],[-84.42845211035399,33.78812935511705],[-84.42841405653654,33.787950277272344],[-84.42836017482078,33.787665213468486],[-84.42822806611964,33.787598655232316],[-84.4280886412464,33.786855390354376],[-84.42807773323287,33.78654747408404],[-84.42801816976726,33.78608022220328],[-84.42810890761835,33.78575844500258],[-84.42827878246639,33.78576138319388],[-84.42827853418044,33.78567973395484],[-84.42792713394805,33.78567366200235],[-84.42792522205201,33.785637195231935],[-84.42792397710578,33.78552770606605],[-84.4279368224651,33.785345566411905],[-84.42796822499895,33.785165005014925],[-84.42801795642832,33.784987337851625],[-84.42808565344275,33.784813860438824],[-84.42818990185265,33.78461299455743],[-84.42827479205101,33.78448175984376],[-84.42841646114367,33.78430133957456],[-84.42846923261442,33.784243138846],[-84.42852435404212,33.78418647583025],[-84.42918338880342,33.783534437022254],[-84.429333652445,33.78337297171429],[-84.42936169501499,33.78333942655102],[-84.42944165069,33.78323645922374],[-84.42949140088845,33.78316597319567],[-84.42958211101327,33.78302095336618],[-84.42964224597057,33.78290897917656],[-84.42970979890201,33.78276025683185],[-84.42974153966495,33.782678057885065],[-84.42977817026151,33.7825671012012],[-84.42981202559494,33.782439866626405],[-84.42983622271744,33.78231882352981],[-84.42985296549527,33.78219690459337],[-84.42986419344338,33.781992629891334],[-84.42986546974419,33.78158456203825],[-84.42985345279423,33.781400958530895],[-84.42982254567785,33.781218901057386],[-84.42977297616247,33.781039742494485],[-84.42970511338969,33.78086481376998],[-84.4296178830795,33.780692697044],[-84.42955979067973,33.78059695827566],[-84.42947089977844,33.7804699374008],[-84.42938902875362,33.78036840559063],[-84.42923405665886,33.780204831649954],[-84.42908209028802,33.78007176205939],[-84.42891614238282,33.77993932519499],[-84.42862278408154,33.77970516665397],[-84.42767398828545,33.778943829933674],[-84.42754912806302,33.77883282758466],[-84.42742887563462,33.7787183322943],[-84.4273133706865,33.778600477225105],[-84.42720274752001,33.77847940096092],[-84.42709713611774,33.77835524299621],[-84.42704624802533,33.77829205450914],[-84.426948380742,33.77816354764143],[-84.42685582215414,33.77803232725319],[-84.42676867636321,33.77789854641747],[-84.42668704747932,33.777762361813444],[-84.4266110298929,33.77762393014033],[-84.42654071153035,33.77748341352043],[-84.42647617492021,33.77734097498836],[-84.42641749504483,33.77719678210238],[-84.42636473932136,33.77705100063263],[-84.42631486052763,33.77690391290313],[-84.42625443607928,33.776707709167354],[-84.42621632765251,33.77656384527762],[-84.42617565638004,33.77638282973035],[-84.42613991300908,33.77618245257184],[-84.42611172983166,33.77596270556579],[-84.42609689678883,33.775778949633505],[-84.42609070889556,33.77563169779501],[-84.42608954633208,33.77556301607488],[-84.42621666967817,33.775560962613405],[-84.42622352899056,33.77516176655318],[-84.4262254344195,33.77505177825105],[-84.42623853747224,33.774289554364024],[-84.42625172990863,33.77417921230163],[-84.425986956476,33.77420747126427],[-84.42591229554675,33.77420795722366],[-84.42578059711569,33.7742088388095],[-84.42546191372169,33.77421090865615],[-84.42542903792665,33.77421111554395],[-84.4251463235885,33.774212972103065],[-84.42496335591534,33.774214811343846],[-84.42463719994753,33.77421615354302],[-84.42460395956881,33.774215398009595],[-84.42427181041379,33.77421823588677],[-84.42414013364672,33.77422348507866],[-84.4238011383021,33.77422311978199],[-84.42376826175476,33.774223078274844],[-84.42344795904962,33.77422272806598],[-84.42344731075998,33.77396453616742],[-84.42344691185015,33.77380549292344],[-84.4237704681857,33.773364139017644],[-84.42380356851967,33.77327403836565],[-84.42390907087936,33.7730207637338],[-84.42398760642432,33.772849325917576],[-84.42399738952302,33.77278548031992],[-84.42401449748401,33.77267916338568],[-84.42404121538759,33.77251503685959],[-84.4240510080132,33.77239627164262],[-84.42405134485399,33.77228975343895],[-84.42404608475462,33.77216879794003],[-84.42403775165512,33.77205821062631],[-84.42402370408243,33.771948027444644],[-84.42400396966411,33.771838453912],[-84.42388364225933,33.77131643747585],[-84.42344698811758,33.7698318682255],[-84.42315905821441,33.76888250987255],[-84.42314382704633,33.76884086716746],[-84.42310330242384,33.76871471377446],[-84.4230614752529,33.76854411703374],[-84.4230337798274,33.768371524417915],[-84.42301921869912,33.768154219533535],[-84.42302368483097,33.76798012376864],[-84.42304245446208,33.76780669526587],[-84.4230754414152,33.76763475199651],[-84.4231364228963,33.767423149980274],[-84.42320072582599,33.76725750184662],[-84.42327849783604,33.76709593360114],[-84.42336937083188,33.76693920697894],[-84.4234388195036,33.76677396457156],[-84.42352860122607,33.7666157036802],[-84.42365367764548,33.76644697138369],[-84.42379251145084,33.76630052799828],[-84.4238494992172,33.766249092623845],[-84.42391352421771,33.76620073792881],[-84.42408334921144,33.76610246351322],[-84.42422617460147,33.76602802719084],[-84.42434580520782,33.76597099774077],[-84.42443062203567,33.7659708206413],[-84.42443067422522,33.76593344253124],[-84.424804805918,33.76579248344332],[-84.4251214828041,33.76570239214837],[-84.42505781028609,33.765345891253304],[-84.42474340992878,33.76358384248435],[-84.42471739835239,33.76344631727818],[-84.4245697273226,33.76262440688336],[-84.42454503236159,33.76248690862162],[-84.42450488002723,33.762264110205784],[-84.42448736629794,33.76216625973584],[-84.4244675882776,33.76205163873706],[-84.4244388946448,33.76187108584399],[-84.42441724383202,33.76173484439754],[-84.42439558677937,33.761598658859654],[-84.42437394151214,33.76146242009263],[-84.42435272761777,33.761328898000535],[-84.42433961597658,33.76124636821023],[-84.42433649689171,33.76119358112817],[-84.42433300967487,33.76111769806751],[-84.42433086934906,33.761050354456145],[-84.42432947340069,33.76096552803895],[-84.4243294368799,33.76089054663871],[-84.42433033010299,33.76082503877003],[-84.4243318552255,33.760766513787146],[-84.42447923016037,33.76076375988211],[-84.42447091315346,33.76043657091311],[-84.42443730864873,33.76043320579368],[-84.42454182896098,33.7602856816907],[-84.42468355457184,33.75966197433419],[-84.42472508908203,33.75947918459208],[-84.42476071447192,33.75932240455807],[-84.42480409826692,33.75913147529492],[-84.42486597775812,33.75913851943228],[-84.4248677959826,33.758944571782465],[-84.42486950299455,33.75876249913525],[-84.42487092695922,33.7586105982035],[-84.4248723599997,33.75845776493931],[-84.42490393184326,33.758337185691005],[-84.42493757730325,33.758208691887525],[-84.42497333903196,33.758072113926666],[-84.4250072788442,33.75794249331796],[-84.4250402185316,33.757816688785496],[-84.42507705251951,33.75767601323175],[-84.42511213824548,33.75754201536452],[-84.42514282517409,33.75741778529277],[-84.42517860475861,33.75727298594113],[-84.42521206669313,33.757137566825214],[-84.42524392555775,33.757008634847296],[-84.4252813077648,33.75685734740659],[-84.42531131069671,33.75673592195489],[-84.42534123944169,33.75662576461619],[-84.42528179800294,33.756626247115776],[-84.42533646121905,33.75642539830779],[-84.42537292992601,33.75629140465696],[-84.42540939318047,33.756157429938945],[-84.42544586166048,33.7560234353602],[-84.42548233108883,33.755889434454495],[-84.4255188078853,33.75575540827367],[-84.42555527816877,33.755621407339405],[-84.42559174620023,33.75548741270804],[-84.42562295378605,33.75537274613219],[-84.42565942266984,33.75523874516263],[-84.42569589891893,33.75510471801629],[-84.42573236866058,33.754970717919825],[-84.42575461728751,33.754888967850704],[-84.42581876002684,33.7546532842175],[-84.42591277436684,33.75429194551797],[-84.42591883096918,33.754268239132806],[-84.42608720348267,33.753609153147224],[-84.42613035466341,33.75344037468414],[-84.42620276845575,33.75313318846638],[-84.42625759723981,33.75290059786491],[-84.4262861870806,33.75277931303016],[-84.42631820762882,33.75264348089361],[-84.42634878712207,33.75251375597715],[-84.42638172615949,33.752374020428384],[-84.42641489339145,33.75224126679927],[-84.4264523499786,33.75210740231087],[-84.42649793200353,33.75194662615958],[-84.42654646699755,33.751775436876095],[-84.42660206897293,33.75157931637053],[-84.42665784479114,33.75138258324484],[-84.42671165520314,33.75119278524654],[-84.42671867105847,33.75116803988812],[-84.42693869985166,33.751165646670266],[-84.42714626093309,33.75116338846696],[-84.42736310774218,33.751161029157686],[-84.4276431003684,33.75115798147946],[-84.42764676440964,33.75102028658318],[-84.42765071247854,33.75087195516645],[-84.42765411395983,33.75074415467409],[-84.4276585241698,33.75057842665189],[-84.4276626242624,33.75042435046145],[-84.42766620791043,33.75028970872089],[-84.4276840064856,33.75029346615583],[-84.42790500474347,33.75017726503058],[-84.42796104578267,33.749476366893155],[-84.42811630799252,33.749317219821116],[-84.42841576520686,33.74903665034105],[-84.42866674161532,33.74880499049725],[-84.4287855376063,33.74869637295194],[-84.42892696907802,33.74856591601552],[-84.42905767533259,33.7484463637828],[-84.42919209433414,33.748325430295225],[-84.42936026436405,33.74817117091683],[-84.42949462045254,33.74805183045481],[-84.42962727208977,33.74793397759963],[-84.42967423895229,33.74789182978009],[-84.42978984011613,33.747787946343365],[-84.42995299134661,33.74763938538688],[-84.43020839391495,33.74740573380682],[-84.43134813317738,33.74631290079425],[-84.43157439863367,33.746107558576064],[-84.43176683528394,33.74593259230829],[-84.43180444952158,33.7458987797173],[-84.43192368780943,33.74579056662248],[-84.43265001706793,33.74512462028118],[-84.43278494824897,33.74500892757102],[-84.43282840594851,33.74496979402556],[-84.43288040176789,33.74492217100415],[-84.43294602351763,33.744860799889445],[-84.43301564903939,33.74479406246678],[-84.43308147621457,33.7447293781547],[-84.4331432990787,33.744667151345425],[-84.43321300531315,33.74459520387169],[-84.43327967708893,33.74452452432654],[-84.43334052904324,33.74445835837843],[-84.43339976456737,33.7443923446651],[-84.43346397103855,33.74431892480437],[-84.43351853164883,33.744254926416374],[-84.43357423039595,33.74418799426196],[-84.43363688858413,33.744110659964186],[-84.43368088462955,33.744055004821725],[-84.43372974557374,33.743918030563904],[-84.43425430574182,33.74392272131079],[-84.43421930174496,33.74247599178676],[-84.43421600132811,33.74233556788451],[-84.43417425764704,33.74232891124352],[-84.43420528273244,33.74184602907038],[-84.4342130240145,33.741791674017264],[-84.43422438229119,33.74170093022011],[-84.43423989692356,33.74153721904049],[-84.43425023646691,33.741336690941466],[-84.4342517453286,33.741185852385875]],[[-84.43371642708202,33.740599407660994],[-84.43367467868119,33.7422549270725],[-84.43354366680991,33.74222889009008],[-84.43354691772171,33.74239480663174],[-84.43355159492984,33.74321255482241],[-84.43355426325314,33.74368134587203],[-84.43342372706371,33.743915291967305],[-84.4332878214257,33.74405148482501],[-84.43279392228077,33.744047059305345],[-84.43256238511142,33.74404498392829],[-84.43247695619807,33.744042310530126],[-84.43248418931533,33.74409886030882],[-84.43248900575442,33.744236889770775],[-84.4324895042873,33.74432396967046],[-84.4324845606328,33.74441095218554],[-84.43247706409954,33.74447964560867],[-84.43246934825683,33.74452868161337],[-84.43245603692979,33.74459546071472],[-84.43201108128513,33.74523863527979],[-84.4303852550071,33.74669344090886],[-84.42866450364387,33.748268549384434],[-84.42816600210223,33.74885628873325],[-84.4280335942523,33.748990160997835],[-84.4279665926006,33.74905997098592],[-84.42785614021038,33.74917587890297],[-84.4277649457346,33.74927434946624],[-84.42769973085755,33.749347645834185],[-84.4276083338357,33.74945562465746],[-84.42751097320861,33.74957150458925],[-84.42742509485569,33.7496767242722],[-84.42738478186651,33.749727239861684],[-84.4273032433572,33.74983137822561],[-84.42726110269702,33.74988684410991],[-84.42721801854181,33.749946215233834],[-84.42717277891006,33.750010262363446],[-84.42700922764922,33.750236678335895],[-84.4265034219148,33.75023537979537],[-84.42642702196115,33.750691777810545],[-84.42642798920052,33.750957778301085],[-84.42633406721123,33.750959693538164],[-84.42632889481179,33.75115379998408],[-84.4264293209098,33.75115957930978],[-84.4263222343716,33.7515027624004],[-84.42625554012504,33.75171652173134],[-84.42617244580734,33.75198284227432],[-84.42611346486642,33.752185685199926],[-84.42606997633672,33.75235730731487],[-84.4260255063961,33.752531779798105],[-84.42595226634711,33.75281912316816],[-84.42588765207071,33.75307259215496],[-84.42578217244287,33.75348640329254],[-84.4257358973551,33.75366760396834],[-84.42566511041429,33.75394466581995],[-84.42560523178821,33.754178997893085],[-84.42553068745174,33.75447074465299],[-84.42544183125987,33.754818499645374],[-84.42539772675163,33.7549555506294],[-84.42529903629078,33.755312109116595],[-84.42518871418226,33.75571550753962],[-84.42515895576196,33.755825191132345],[-84.42505276297477,33.756219436183954],[-84.42494051705323,33.75664152693635],[-84.42491200156624,33.7567512159691],[-84.42436565724869,33.75890912395532],[-84.42429613059902,33.759163976258215],[-84.423773057758,33.759157272948954],[-84.42376435657098,33.759427954802376],[-84.4237486320908,33.75994706217394],[-84.42374258473146,33.76012571122228],[-84.42373270209238,33.76045234668255],[-84.42372372289451,33.76074027137014],[-84.42385839505536,33.760743995987696],[-84.42413054225479,33.76226332089673],[-84.42418014714069,33.76250272529548],[-84.424127043318,33.76249722778977],[-84.42418823797686,33.76278020382027],[-84.42436439173899,33.763444828593265],[-84.42437577374858,33.763619867929286],[-84.42438845090187,33.76374356805457],[-84.42439185410456,33.76555133926962],[-84.42429741388997,33.76558924714169],[-84.42419086443766,33.76563489113889],[-84.42408586705533,33.76568297889192],[-84.42396969871712,33.765739952185406],[-84.42388084650266,33.76578633534419],[-84.42379336410212,33.76583449995552],[-84.42370730217172,33.7658844188672],[-84.42363470369018,33.76592857968842],[-84.42357514499885,33.765972604226064],[-84.42352092594076,33.76601918823427],[-84.42346852153919,33.7660671984637],[-84.42343042308502,33.766104134570746],[-84.42338000439612,33.76615591945666],[-84.42329767873301,33.76624870478438],[-84.42322635760105,33.766339115673034],[-84.42318473561586,33.766397223513806],[-84.42312455402686,33.76649000688079],[-84.42308675556906,33.76655492233313],[-84.42305852583776,33.76660763837679],[-84.42301048445343,33.76670819846439],[-84.42298197744192,33.766776598406196],[-84.42291940721448,33.76689256270043],[-84.42287096958091,33.766982696845304],[-84.42282624637298,33.76707416041156],[-84.42278529126351,33.76716684689688],[-84.42274815144314,33.76726064800872],[-84.42271486977955,33.767355453659974],[-84.4226895155389,33.76743754939698],[-84.42266003403772,33.76754763646525],[-84.42263854301274,33.767644788982196],[-84.42262103949237,33.76774249765924],[-84.4226075425849,33.76784064885016],[-84.42258556241335,33.767964691439204],[-84.4225914229145,33.76808721021026],[-84.42259204481489,33.76818600565184],[-84.42260055169454,33.768334020357635],[-84.42261126462635,33.76843241076601],[-84.4226259948289,33.768530438491524],[-84.42264472794028,33.76862798905266],[-84.42266743987913,33.76872494708613],[-84.42269410441523,33.76882120083924],[-84.42272469855672,33.76891663855228],[-84.42277799768331,33.769055066797755],[-84.42346576288554,33.77139347649542],[-84.42355710469467,33.7717925629891],[-84.42358681765967,33.77192126149299],[-84.42360418793217,33.77202676815561],[-84.42361544153924,33.77213285108079],[-84.42362069179093,33.77224745628922],[-84.42362434568811,33.77234666100453],[-84.42361781507441,33.77245995178412],[-84.42361101525206,33.77251163778444],[-84.4235906347835,33.77263075681541],[-84.42354239631763,33.77294908789117],[-84.42352083696551,33.77309399929149],[-84.42344519349358,33.773108268444176],[-84.42330944435324,33.773140897552594],[-84.42331083757287,33.77358352613165],[-84.4232452271589,33.77366627455234],[-84.42318380785379,33.77373776522441],[-84.4231051175475,33.77382218987524],[-84.42302216343833,33.77390371911313],[-84.42292766438966,33.773988600262236],[-84.4228440871613,33.7740574958336],[-84.42278923799145,33.77409988900476],[-84.42267035825542,33.77409841981738],[-84.42266908070468,33.77423698823426],[-84.42258650189329,33.77429576863802],[-84.42247925758228,33.77436510615586],[-84.42241287864324,33.774404428589996],[-84.42234505627641,33.77444199305387],[-84.42229907251419,33.77446603977424],[-84.42223684220092,33.774496844637476],[-84.42214160659438,33.77454030484829],[-84.42214158789392,33.774475806167764],[-84.42207581259392,33.77450760018644],[-84.42197172935523,33.77454504743148],[-84.42190155518952,33.77456843624781],[-84.4217713938276,33.774607997527184],[-84.42163945417873,33.774643213679425],[-84.42150594555656,33.77467402926594],[-84.42135631709503,33.7747026734387],[-84.42120768820044,33.77472652850223],[-84.4210934398747,33.77474198756731],[-84.42093454980935,33.77475938869848],[-84.42093385797078,33.7747704353514],[-84.42044145291891,33.774763672126966],[-84.42044229890006,33.774682212508814],[-84.41979798264443,33.77468600897004],[-84.41966639395646,33.77468520132674],[-84.41966536754701,33.77478964259856],[-84.41858858201827,33.774778444087],[-84.41744272232444,33.77476650375948],[-84.41727821535203,33.77476589209691],[-84.41727788094228,33.77482457945712],[-84.41642467288256,33.774810850281845],[-84.4164292135238,33.775067008347975],[-84.41727613198415,33.77507158136524],[-84.41744023368423,33.77516486917665],[-84.41754222393607,33.775213716227086],[-84.41765965683946,33.7752898247696],[-84.41778144151735,33.77538604469117],[-84.41785799333402,33.77545706795389],[-84.41793030259004,33.77553641302982],[-84.41795050875963,33.77567382139861],[-84.41807657333966,33.77567399744069],[-84.41828015881144,33.775674280412716],[-84.41839682764426,33.77580212293888],[-84.41850722519618,33.77593378852659],[-84.4186111726848,33.77606906657111],[-84.4187044104869,33.77620163890237],[-84.41881771927062,33.776380618706185],[-84.4189341901766,33.776591727679666],[-84.41900879735009,33.77691059279375],[-84.41902523892855,33.778005869340426],[-84.41888187904772,33.77800533830846],[-84.4188967653025,33.77849012370092],[-84.4189085170042,33.77887279179988],[-84.4189345602096,33.77974231837103],[-84.4191444348488,33.77974286384257],[-84.41914486239669,33.779944519814535],[-84.41938062692357,33.77994397952108],[-84.41938082921992,33.77997021353007],[-84.41943911931705,33.781904879845115],[-84.4199435400801,33.78473834735148],[-84.41983961307828,33.784880737271486],[-84.41966988868704,33.78481739464491],[-84.41955727272548,33.78477163684746],[-84.41935125729606,33.78511422776988],[-84.4189792748709,33.78576561938336],[-84.41907285644504,33.78583673044973],[-84.4191648750285,33.78592087257797],[-84.41926310672076,33.78603024359871],[-84.4193473792787,33.78614721427636],[-84.41941768413355,33.78627108497666],[-84.4194856650576,33.786444084066936],[-84.41952125923244,33.78660077192313],[-84.4195343849404,33.78678270421043],[-84.41952408893225,33.786919106108044],[-84.41949116293247,33.787076215669586],[-84.41944512064303,33.78720748917654],[-84.41939439755954,33.787313201473225],[-84.4191101669416,33.787749233083545],[-84.41903748407618,33.78785856879799],[-84.41857996609943,33.78853524751053],[-84.41868510655473,33.78855530639242],[-84.41860304839703,33.788696436009694],[-84.41832047153865,33.78918242814005],[-84.41819945441955,33.78909858799717],[-84.4181625617575,33.78927886590571],[-84.41807109799446,33.789470813241024],[-84.41804743393529,33.78956147088288],[-84.41801771556405,33.789675253726124],[-84.41786900546276,33.789674924517854],[-84.41788479283447,33.78971617708567],[-84.41788661271752,33.79026017974898],[-84.41788669289996,33.790287633897414],[-84.41719661346147,33.79244057235559],[-84.41686702214507,33.793468749172874],[-84.4168666567537,33.793469733612504],[-84.41686560637142,33.793468752945564],[-84.41674111693172,33.79367237397462],[-84.41659686124777,33.793870539367084],[-84.41643941446652,33.79406048571566],[-84.41621951267896,33.79428078867119],[-84.41612759415176,33.794366170421746],[-84.41597982118306,33.794487390999734],[-84.41576958510579,33.794636219774794],[-84.41549358795257,33.79480991575542],[-84.41527662393159,33.79490928921594],[-84.4150826147747,33.794978385609376],[-84.41460581462968,33.79514973462194],[-84.41419484598656,33.7953209506347],[-84.41312960270545,33.795762800003516],[-84.41269232714157,33.79594505555343],[-84.41217614194461,33.79616044619447],[-84.41092018331824,33.79668235434109],[-84.41024299794498,33.79700523536129],[-84.40894822751751,33.797780037523545],[-84.40800835374195,33.79834251820398],[-84.40776516876348,33.79848865043249],[-84.40664199625726,33.799430734455385],[-84.40559105218833,33.80031220740494],[-84.404507570507,33.801339389851066],[-84.4043369916808,33.801556829065476],[-84.4038613237845,33.802159606115005],[-84.40300510415423,33.80324405064329],[-84.40297213151429,33.80322487625608],[-84.4026079806342,33.803684527171406],[-84.40264094582727,33.80370095344704],[-84.40232599808235,33.80409730028377],[-84.40206341239232,33.80438086932197],[-84.40135111350182,33.80514073730479],[-84.40043891832327,33.80624450766579],[-84.39996313760058,33.806825283803605],[-84.39970391625549,33.807141820011296],[-84.39978628012094,33.807163650148],[-84.39959593139706,33.80738386733529],[-84.39942525379202,33.807573817588974],[-84.39925784527343,33.807755515877005],[-84.39909369740379,33.80792621581256],[-84.39895252826537,33.80807213737782],[-84.39879493491574,33.808231830786255],[-84.39865701878033,33.80836400568991],[-84.39847312396606,33.808537489242696],[-84.39835490177569,33.80864764013523],[-84.39821697057118,33.80877431813027],[-84.39794107628062,33.809016679031295],[-84.39764544303866,33.809264573612765],[-84.39744175299522,33.80942435158051],[-84.3970705209925,33.80971910591393],[-84.39680107981852,33.809914732463156],[-84.39640018283443,33.81019854723161],[-84.39616685174826,33.810355630062645],[-84.39588745645364,33.81052379093559],[-84.39565734991423,33.81065613373797],[-84.39551173749685,33.810737935367726],[-84.39526867265484,33.810855766038436],[-84.39494991421829,33.810982766329936],[-84.39462574655371,33.81110977579403],[-84.39432853566963,33.81120513194274],[-84.39402047170752,33.8112869637468],[-84.39369072626033,33.811350776511055],[-84.39342040125412,33.81138739100692],[-84.3931338500239,33.81142403380134],[-84.39277156932101,33.811456301127414],[-84.3924092527676,33.81147502382215],[-84.39217955517849,33.81147601562672],[-84.39051050177402,33.811534020175245],[-84.38742916727482,33.81164125758326],[-84.3866259208491,33.81167292298956],[-84.38603004095941,33.8116849770237],[-84.38588522165624,33.81170172380165],[-84.38568116773813,33.81172956847645],[-84.38546066722556,33.81176293842614],[-84.38515461435325,33.81181569708585],[-84.38508879611311,33.81182680652978],[-84.38490451751018,33.81186285955852],[-84.38472353803581,33.81190165469896],[-84.3846445713323,33.811921031806875],[-84.3845327361092,33.81196245357832],[-84.38427947142549,33.81205908832367],[-84.38386503409886,33.81221646727777],[-84.38347691309446,33.81236555392745],[-84.38306905856355,33.81252291953639],[-84.38281578948892,33.81261955128246],[-84.38208887006785,33.81289564577218],[-84.38092233257252,33.813341074943544],[-84.38062292073319,33.813455400501866],[-84.37971731404733,33.81380118245332],[-84.37797068890475,33.814469256810355],[-84.37769773588396,33.8145988903824],[-84.37740830537022,33.81472305596857],[-84.37718134368505,33.81481138653172],[-84.37695107457301,33.81489422587909],[-84.37676355395783,33.814955006240865],[-84.37652666563025,33.81502411497876],[-84.37631279153176,33.81507944305477],[-84.3759244904781,33.81516529811303],[-84.37563816856057,33.81521525147423],[-84.37536169585961,33.81525419463336],[-84.37496340354828,33.81529334295932],[-84.37473954952759,33.81530746188728],[-84.37473924796012,33.815307383051106],[-84.37505915755122,33.81480935321653],[-84.37544671199248,33.81425997107009],[-84.37586182346497,33.81372480047472],[-84.37622825530084,33.81329035927809],[-84.37635747523572,33.81323299780872],[-84.37649961108876,33.813113873072325],[-84.37663954985506,33.81291532224364],[-84.37684043724273,33.81263753528696],[-84.37697665164741,33.812551762980505],[-84.37690694956414,33.812427277824895],[-84.37720296640676,33.8118855296519],[-84.37746919484064,33.81143603856524],[-84.37775068715892,33.81099307933764],[-84.37787527915748,33.810806309889045],[-84.37813258723348,33.81043663826411],[-84.37826370572365,33.81025591448607],[-84.37840009732065,33.8100771182513],[-84.37869385271452,33.80972123035107],[-84.37896883526459,33.80941346610575],[-84.37921031896344,33.809160717966705],[-84.37942277127885,33.80895049332096],[-84.37967327183236,33.80871581214788],[-84.3802319252418,33.808237721494805],[-84.38064676478359,33.80791802679339],[-84.38107313795715,33.80760227157772],[-84.38145749471418,33.80729839421798],[-84.38173826128988,33.807098730194],[-84.38158986527552,33.80696046332004],[-84.38125127977163,33.806674145823436],[-84.38092874094566,33.8067673056749],[-84.38070719224979,33.806810871093006],[-84.3804091434752,33.80684580467626],[-84.37941211267169,33.806916811722154],[-84.37913818035774,33.80690755327194],[-84.37886610567604,33.80687940240284],[-84.37859775460944,33.806832553381504],[-84.37827817006972,33.80674995839528],[-84.37793281468247,33.806636431515095],[-84.37773273451234,33.80653202961197],[-84.37756550527926,33.80639307508393],[-84.37743951372033,33.80622653699403],[-84.37738164529239,33.806104267835956],[-84.37733750150028,33.80599558918895],[-84.37726702735023,33.80584539673035],[-84.37698846597976,33.805316439721125],[-84.37451499157625,33.80104491439505],[-84.37446881645312,33.800941324241],[-84.37293925618877,33.79826294407399],[-84.37178741900483,33.79624586473328],[-84.37111762844117,33.79507728748862],[-84.37105782172485,33.795152166682385],[-84.37094692303836,33.79494768583882],[-84.37085312485718,33.79466183968597],[-84.37077603200464,33.79441839203124],[-84.37068328386643,33.794113539014646],[-84.37060684146601,33.79385160092714],[-84.3706854879978,33.793840835945645],[-84.37067452923212,33.79378682541547],[-84.37070838417551,33.79377459265308],[-84.37066114422896,33.793681515028744],[-84.3705730450753,33.793280904411986],[-84.37052140860334,33.79293243448004],[-84.37049241343459,33.79257274394174],[-84.37048702938382,33.79226030140204],[-84.37049808123442,33.791975501527986],[-84.37051484038147,33.79177730200171],[-84.37055677042419,33.791425807424204],[-84.37060663652244,33.791036600805135],[-84.37068588213818,33.790460432591296],[-84.37071953518962,33.7901333051438],[-84.37076204389015,33.789721431341725],[-84.37081279106414,33.7893461671004],[-84.37090485915783,33.78881218994486],[-84.37109159764314,33.78744930739804],[-84.37115246733023,33.78684486889566],[-84.37117139795711,33.786376016124386],[-84.37116513757685,33.786234959633774],[-84.37109202698322,33.78567592293565],[-84.37100647958962,33.785323595781996],[-84.37088847754407,33.78493159372062],[-84.37065768677726,33.78437074099989],[-84.37047530977205,33.78403176909473],[-84.37033886847794,33.78382068972945],[-84.37018028365868,33.7836002100458],[-84.36990481087744,33.783242501157204],[-84.36935855679862,33.782592824873035],[-84.36875272468949,33.78186428424719],[-84.36868600786198,33.78207618058957],[-84.36853360086207,33.78188581818317],[-84.36787201458688,33.78105563006916],[-84.36810707087044,33.78095484768516],[-84.36691834984612,33.77951815290412],[-84.366819836848,33.779518823058865],[-84.36671883907027,33.77938050753119],[-84.36647037491187,33.77898835427714],[-84.36621720710889,33.77852292362924],[-84.36607663937534,33.77820815781575],[-84.36600155690502,33.77801996277312],[-84.3658848101698,33.77767323704302],[-84.36580934734069,33.777428070686256],[-84.36576116317767,33.77721654148503],[-84.3656828988898,33.77684423035545],[-84.36556469059784,33.77636279704745],[-84.3653386469318,33.77550446438369],[-84.36504871740459,33.774414430726054],[-84.36480898004598,33.773459617622144],[-84.36474265022281,33.77319179977532],[-84.36474063133826,33.77319231515428],[-84.36466933874179,33.7728353443768],[-84.36451835106016,33.77222089186706],[-84.36439756331184,33.771792482895265],[-84.36423105664097,33.771260053822594],[-84.36416535701765,33.77103997077597],[-84.3643125444585,33.77103253725925],[-84.36406689782383,33.77073550297208],[-84.36393006541648,33.770490745279645],[-84.36378564330218,33.77024995239406],[-84.3636297206051,33.770016215987816],[-84.36364099574408,33.770011251523854],[-84.36349744427905,33.76977703715555],[-84.36320133427803,33.76929633630037],[-84.36304433070572,33.76911170668246],[-84.36261170353515,33.76864756215211],[-84.36160079402578,33.76766628203669],[-84.36151697660956,33.767707251182856],[-84.36124433287438,33.76744207846624],[-84.36109011829689,33.767286288503385],[-84.36083536761153,33.76701363270164],[-84.36066627432437,33.766814651136826],[-84.360471254329,33.76655811329829],[-84.36038542865006,33.7664380115855],[-84.36028415007488,33.76628242511768],[-84.36018190100451,33.76608827364009],[-84.36007808271573,33.7658518459752],[-84.35999710176115,33.765620893353535],[-84.35995050164186,33.76541167169895],[-84.35989115279175,33.76510131070158],[-84.35984503088294,33.764821097404294],[-84.35985579199841,33.764321176444504],[-84.35994792838709,33.763878728425546],[-84.36004663249157,33.763630767673185],[-84.36015573219497,33.76340013926871],[-84.36030866262126,33.763126071530365],[-84.36018590492495,33.76312457795691],[-84.36031026250942,33.762916296424045],[-84.3604532315778,33.76271650888151],[-84.36059419699131,33.76254815959673],[-84.36071064925197,33.76240445663896],[-84.36092388649197,33.76216289169906],[-84.36111928788067,33.76196831174813],[-84.36111821058262,33.762073516690066],[-84.36174237227652,33.76141947609574],[-84.36202154016414,33.76122823907021],[-84.36212267094065,33.761223897102575],[-84.36239137064193,33.76103993232923],[-84.36262416718033,33.760872381787884],[-84.36280382300446,33.76073681940276],[-84.36313307081522,33.760472872883234],[-84.36336155621916,33.76027751446021],[-84.36351519291897,33.760159671233396],[-84.36366491040401,33.76003372909426],[-84.36380603171347,33.759903238127556],[-84.36397930646727,33.759724561667106],[-84.36411614158445,33.75956035440114],[-84.3642382898918,33.75939487751487],[-84.36435711855631,33.759228584413066],[-84.36450609447883,33.75899065779427],[-84.36463384169944,33.75874865799698],[-84.3647367925101,33.75852363904407],[-84.3647564491295,33.75847443935628],[-84.36488097249935,33.758165786007496],[-84.3649582519312,33.75795579718266],[-84.36506098401904,33.757642697405814],[-84.36509738261879,33.7575024531771],[-84.36573609357151,33.75439306194607],[-84.36582504269431,33.75422272738864],[-84.36585590942944,33.75422096895094],[-84.36590109947431,33.754218393933165],[-84.36590376689884,33.75408218734263],[-84.36590360230393,33.75401102895025],[-84.36593714683343,33.753855208394654],[-84.36602144460913,33.75365446473987],[-84.36612000610077,33.753512700520055],[-84.36622705929,33.753378002292585],[-84.36633983950061,33.75327633587954],[-84.36649495140655,33.75315336054504],[-84.36670087577372,33.75301142202036],[-84.36685041821622,33.752923856067184],[-84.36699436999358,33.75286226037778],[-84.36714972600639,33.752814743388],[-84.36714998887521,33.75276397253012],[-84.3662618656335,33.7530049770472],[-84.36613035714325,33.75301783261492],[-84.36595904707208,33.75241529109192],[-84.36569918620786,33.75170258077153],[-84.36562467090015,33.75157747169337],[-84.36548199326883,33.751611634468865],[-84.36531916013848,33.7516506200118],[-84.36520841391493,33.75167712651945],[-84.36477232960418,33.75178154725759],[-84.36462281378249,33.75181734840399],[-84.36447011317163,33.7518539091582],[-84.3643250321031,33.751888647900934],[-84.36419300886098,33.7519202440485],[-84.36403829698087,33.75195729077433],[-84.36388306063624,33.75199445175276],[-84.36352135768227,33.75208105062275],[-84.36335450307989,33.75212099574259],[-84.36322218679086,33.75215267427141],[-84.3630257797312,33.75219969440313],[-84.36280571818324,33.75225238354908],[-84.36267592161097,33.75228345337982],[-84.362533326853,33.75231759278021],[-84.36239703230105,33.75235021265538],[-84.36223403132826,33.75238924669206],[-84.36206905912663,33.752428725445064],[-84.36166933543917,33.7525243514415],[-84.36162823085714,33.75253369079489],[-84.36153316097966,33.75255213549458],[-84.36144043759765,33.75256575616663],[-84.36130919573372,33.75257816707248],[-84.36121543604601,33.75258175017286],[-84.361146390892,33.75258208978566],[-84.3605729648985,33.75254359754702],[-84.36039725731301,33.75266919636179],[-84.36016028763213,33.7527024180339],[-84.35991680873238,33.75274134880781],[-84.3596872213707,33.752781565685424],[-84.35947753727261,33.75282085029809],[-84.35919554442003,33.75287878629129],[-84.3589303065362,33.75293214849693],[-84.35870180683011,33.75297407499479],[-84.35844688600343,33.75302380447293],[-84.35819389516182,33.7530765699126],[-84.35789594700756,33.75314338285303],[-84.357616781105,33.75321052939157],[-84.35738216953796,33.75327007224018],[-84.35707773884903,33.753352836299676],[-84.35711069121312,33.75257151865223],[-84.35727734298658,33.75257771099958],[-84.35728849010829,33.752474299093926],[-84.35728870168482,33.75247430417718],[-84.35730530270155,33.752036631844646],[-84.35712963493528,33.75203157239775],[-84.35713797099044,33.75185817197738],[-84.35717271438388,33.751858895595994],[-84.3571822666923,33.751610761328166],[-84.35718332325669,33.75158286426081],[-84.35719611005642,33.75125011357554],[-84.35724424404823,33.75125075339209],[-84.35725037603864,33.75113655187691],[-84.35726070664941,33.75094419372787],[-84.35732756044521,33.750944841578566],[-84.35732951289302,33.7508759962099],[-84.35754812873732,33.750875313055076],[-84.35757646394681,33.75025333921533],[-84.35754002541348,33.75017074162533],[-84.3577841953012,33.74937955444068],[-84.35784378439594,33.749175747334526],[-84.35787590766118,33.74906293643003],[-84.3578939150406,33.74899738696678],[-84.35792035591327,33.7488989554503],[-84.35794611644586,33.74880039874888],[-84.357971197726,33.748701719566185],[-84.35799559868452,33.74860292151096],[-84.35801931825038,33.748504007290165],[-84.35804235535645,33.748404981414154],[-84.35806470892963,33.74830584568828],[-84.35810044487522,33.74814038679123],[-84.35812946414408,33.74799692158615],[-84.35814610190063,33.74790876876621],[-84.35817020553277,33.74777642769505],[-84.35818570524351,33.747688129661995],[-84.35820253550926,33.74758903492787],[-84.3582224581352,33.74746714782238],[-84.35824314017235,33.7473344035862],[-84.35826279328649,33.74720155093842],[-84.35828739667758,33.74702425335021],[-84.35831557493465,33.74680239393124],[-84.35833110710125,33.74666915002773],[-84.35836880774741,33.74651502719774],[-84.358369745794,33.74645443440184],[-84.35838913233172,33.74632807135413],[-84.35840163562204,33.7462011040605],[-84.35840722713505,33.74607379404785],[-84.35840840533146,33.74590723905575],[-84.35841449284142,33.745711333812835],[-84.35841647064761,33.74549087381006],[-84.35841363928793,33.74520168254393],[-84.35840652351649,33.744331145481084],[-84.35841288180588,33.74380831599776],[-84.35830010430413,33.74382105658512],[-84.35828439362929,33.7435195198982],[-84.35829094738835,33.74308475852681],[-84.35832042054925,33.74281142314197],[-84.35944101711985,33.742847374220354],[-84.35944003094986,33.74275053685872],[-84.35943866954925,33.74073024008977],[-84.35943813042735,33.73993049758915],[-84.35943792218697,33.739787703272896],[-84.35943988272957,33.737714161043876],[-84.35943693284649,33.737645486351596],[-84.3592755193997,33.73764612324607],[-84.35926295186812,33.737097994203445],[-84.35943871391638,33.73657393765671],[-84.35948433812328,33.73643806045658],[-84.35978227628469,33.73555110331693],[-84.35982384101233,33.73542747593923],[-84.35996886067423,33.73499574593012],[-84.36038197024574,33.733765882762995],[-84.3604816920641,33.733765955308016],[-84.36053281160787,33.73360130071797],[-84.36073556358338,33.733073658868356],[-84.36075658920453,33.733018592179775],[-84.36093625131939,33.73259796175253],[-84.3610587092906,33.73217044316289],[-84.36110608873445,33.732033121662255],[-84.3610075461748,33.732033000875425],[-84.3612324112945,33.73157052675446],[-84.36164321704202,33.73090600804024],[-84.361927916461,33.730446015038],[-84.3622088739694,33.73003897180074],[-84.36256393511935,33.72960074821434],[-84.36289446318611,33.72922371129618],[-84.36332404358737,33.728855996728846],[-84.3638128539354,33.7284561699925],[-84.36392935177977,33.72833918300795],[-84.36421772314931,33.728141933084686],[-84.36447122259271,33.72797417121222],[-84.36478243538733,33.72778644727795],[-84.3651547476801,33.72757992305166],[-84.36582871764747,33.7272534444129],[-84.36628868475186,33.727049394690795],[-84.36706996611062,33.72678737663685],[-84.36726493409131,33.72672739458784],[-84.36774687778899,33.726584251408916],[-84.36777823462253,33.726575268510324],[-84.36832371878755,33.72641646325912],[-84.36852534575452,33.72634935154784],[-84.36954316925306,33.7260234153862],[-84.36961940065146,33.72617360670514],[-84.37250095961986,33.72528424020853],[-84.3725006619493,33.725159538470834],[-84.37299768575677,33.72497594900181],[-84.37341424946567,33.72484299240715],[-84.3736957605794,33.72476366707791],[-84.37440866132764,33.72458265017358],[-84.37469792403652,33.72452580953739],[-84.37496473102438,33.72449040068096],[-84.37523384711842,33.724470660899364],[-84.37669606389154,33.72448279158349],[-84.37682759497415,33.724484436970684],[-84.37711565341799,33.72448806884043],[-84.37711465020053,33.72457529980881],[-84.37784091830812,33.72457233433393],[-84.37789025265589,33.72457213275235],[-84.37850203306768,33.72456963054257],[-84.37866620229207,33.72457107642422],[-84.37866752720876,33.72447268956157],[-84.37934914816314,33.72446361638467],[-84.37970618921774,33.72449835057501],[-84.37985365701533,33.724507832227474],[-84.38097100872633,33.724579661388645],[-84.38098203957898,33.72441276850548],[-84.38149800682469,33.724382639358105],[-84.38190951466666,33.72434714314439],[-84.38229324523195,33.72430010142339],[-84.38266303419543,33.72422603310736],[-84.38311364599595,33.72410931332343],[-84.38348331574834,33.723988869507714],[-84.3838806457348,33.72383359712684],[-84.384328795102,33.72365891134831],[-84.38501239723293,33.72332537007802],[-84.38516198126995,33.72323628033849],[-84.38699505338793,33.72235220147847],[-84.39142742545495,33.72033056328389],[-84.39232981478033,33.71994056117944],[-84.39272945851043,33.71979863671357],[-84.39302239313152,33.7197085888125],[-84.39331274483361,33.71962829911425],[-84.39347757005318,33.71958687273496],[-84.39381710329434,33.71952108669674],[-84.39416217172048,33.71948000944063],[-84.39448114112096,33.71946431961506],[-84.39488510347527,33.719476036595935],[-84.39525953368114,33.71951624887818],[-84.39559105149519,33.71957037013048],[-84.39585969436324,33.71962743388528],[-84.39599037535967,33.71965900368299],[-84.3962811622842,33.719729520545556],[-84.39698529152449,33.71990025072646],[-84.39765443862719,33.72005558154933],[-84.39802289854302,33.720121282922825],[-84.39841307869102,33.720174244367726],[-84.39878975633195,33.72021708898831],[-84.39925278307452,33.72027228491887],[-84.40090691475865,33.72032638722045],[-84.40083912395342,33.72051721769413],[-84.40179093640722,33.72056141838488],[-84.40185745163875,33.72037405129553],[-84.40204014624688,33.72039446668601],[-84.40514788842496,33.72048948468533],[-84.4055692269094,33.7205035550097],[-84.4077602573063,33.72057670225176],[-84.40775975370246,33.72072772849183],[-84.40795705809782,33.72072498625208],[-84.40814038056851,33.72070142466754],[-84.40837148847673,33.72068681565433],[-84.40860110069715,33.7206887131132],[-84.40878784087842,33.72070230757064],[-84.40906160891801,33.72074231911106],[-84.40932896864963,33.72080562348063],[-84.40958710866553,33.720891564431355],[-84.41046199462441,33.72125303437323],[-84.41073953608038,33.72146260979901],[-84.41087246547066,33.721586832818716],[-84.41095761137075,33.721675941322815],[-84.41105191427155,33.72178720074312],[-84.41112354191146,33.721882203875275],[-84.41119849384083,33.721994202969626],[-84.41124563295075,33.722073149975095],[-84.41128147908081,33.7221388171509],[-84.4112775039989,33.72227617566489],[-84.41138596450399,33.72227701213955],[-84.4115183391826,33.72220623011326],[-84.41165976534249,33.72247528154715],[-84.41174822725488,33.72264357202227],[-84.41257805389547,33.72422255682101],[-84.41264374249157,33.724331424837814],[-84.41272032410365,33.724458345767765],[-84.41279188070648,33.72457693721945],[-84.41286596043018,33.724699709998724],[-84.41294004579191,33.72482249353925],[-84.41301076816964,33.72493970247303],[-84.41308819871396,33.7250680280539],[-84.41323633731429,33.7253135407677],[-84.4133250660477,33.72546058911607],[-84.4134939109736,33.72570031567795],[-84.41363108252303,33.725888406041044],[-84.41369379423325,33.725961061595996],[-84.41374508783692,33.726018498326184],[-84.41382387778691,33.72610347797352],[-84.41387761977616,33.72615933004128],[-84.41397397069909,33.72625548836353],[-84.41403032549923,33.726309512878956],[-84.41409622393634,33.72637072700725],[-84.41413576615807,33.72640651034221],[-84.41420490762894,33.72646742757865],[-84.41428003808701,33.726531333487124],[-84.41435653689167,33.72659409510501],[-84.41443970769637,33.72665981785996],[-84.41449760410147,33.726704118284935],[-84.41454556796158,33.72673993417669],[-84.41459399353673,33.72677531362155],[-84.41463923577197,33.72680767076849],[-84.41470875002798,33.72685614678789],[-84.41476561038007,33.726894684863986],[-84.41482591469583,33.7269345306111],[-84.41488285819655,33.726971178589466],[-84.41499732138722,33.72704215965241],[-84.4151532049308,33.72713566365177],[-84.41528740570124,33.72721616050256],[-84.41542870868872,33.727300918563614],[-84.41556451846039,33.72738238115139],[-84.4156984151644,33.7274626951266],[-84.41636484540692,33.72786243139382],[-84.4168947800632,33.72811314681862],[-84.41760622247773,33.72855529918453],[-84.417797927272,33.72868432537618],[-84.41818642085593,33.72898478860649],[-84.41736383747936,33.73003087414087],[-84.41642322964142,33.729531803586504],[-84.416313746511,33.729690040514896],[-84.41593681534358,33.73019298750894],[-84.41550854445438,33.72995956264536],[-84.41522770921213,33.730380268337335],[-84.41516507664959,33.73034413060913],[-84.41480868956816,33.73099077327047],[-84.41487576072409,33.73093124537948],[-84.41501271263927,33.73082110934755],[-84.41513827433806,33.73073359883903],[-84.41527800102467,33.73064961402138],[-84.4153742527416,33.73059874253292],[-84.41551635937172,33.730533012124454],[-84.41570330381144,33.73046163151695],[-84.41593000069736,33.73039568583495],[-84.4161316057304,33.73034186723259],[-84.41629602311025,33.73030430823718],[-84.41646042880595,33.73027431215264],[-84.41662488791104,33.73025161105486],[-84.41679289023313,33.730235779505975],[-84.41695377369136,33.73022746755687],[-84.41712234067946,33.73022588511765],[-84.41727607675412,33.73021526818032],[-84.41794849213812,33.73058193233761],[-84.41894266779126,33.73103097045673],[-84.4193085184041,33.73122030007256],[-84.4194217456579,33.73108519572088],[-84.42010550241781,33.73029768138455],[-84.4209237826923,33.730774135786284],[-84.42094142314022,33.73075538375699],[-84.4220178864569,33.731440989342495],[-84.42245894384435,33.73172189499822],[-84.42388989823891,33.73263323569503],[-84.42404691196846,33.73273323594378],[-84.42453004479978,33.733034520335686],[-84.42455479216929,33.733005254060394],[-84.42525652849685,33.7331618326515],[-84.4256867788262,33.733257731036986],[-84.42719905620729,33.73421935248132],[-84.42719845280602,33.734346062706365],[-84.43071136246152,33.736450978072874],[-84.43080117383458,33.73650746863115],[-84.43088752339058,33.736567538894015],[-84.43097013786341,33.73663146626211],[-84.431048468192,33.73669863067699],[-84.43114646209062,33.736793272383494],[-84.43121474854377,33.73686785719584],[-84.4312985058619,33.736971667566486],[-84.43137364980892,33.73707994150938],[-84.43142395885756,33.73716395639221],[-84.43145467592613,33.73722095906676],[-84.43149627845918,33.73730829445339],[-84.43153248975457,33.73739719043474],[-84.43155357786664,33.737457264941284],[-84.4316792258264,33.73768692131657],[-84.43180064201914,33.73782370612153],[-84.4315165315232,33.738167462786315],[-84.43278711239228,33.738930649115574],[-84.4330270325609,33.73916362015609],[-84.43318271929638,33.73930640408207],[-84.43322690021319,33.739362854268464],[-84.43330632886286,33.739475971345605],[-84.43334919761769,33.73953906050814],[-84.43336776725015,33.73956732518593],[-84.43339055872178,33.739602847186866],[-84.43358722985948,33.739916547417735],[-84.43364990122785,33.74003990542696],[-84.43368058311594,33.74012967917716],[-84.43370043188118,33.74026347354925],[-84.43371107214885,33.740386024345824],[-84.43371651867946,33.74049731477201],[-84.43371642708202,33.740599407660994]],[[-84.42963327047259,33.782030229608715],[-84.42963193490058,33.78206842634565],[-84.42962688471934,33.782144732018516],[-84.42961337644027,33.78225880238482],[-84.4296004309959,33.78233445585351],[-84.4295751411048,33.782447120397116],[-84.42955439795325,33.78252155431005],[-84.42953605583895,33.782579252089356],[-84.42953057430961,33.782595341986294],[-84.42951751706995,33.782631965964],[-84.42948913102136,33.78270462005736],[-84.42942349247582,33.782847060019506],[-84.42937812005688,33.78293103890921],[-84.429345880418,33.78298579079925],[-84.42928036374458,33.783086585020506],[-84.42920877307913,33.78318420209201],[-84.4291311989573,33.78327859131843],[-84.42907625775244,33.7833398562481],[-84.42901854637515,33.78339921734834],[-84.42834370103965,33.784066945966465],[-84.42826597708181,33.78414814202007],[-84.42817134407198,33.78425806615433],[-84.42804792797999,33.78442542675961],[-84.42794184652618,33.784600886119726],[-84.42787703360646,33.78473062644852],[-84.4278197128394,33.784868734422574],[-84.42775962760052,33.785057029522044],[-84.42771140270918,33.78529686934042],[-84.42769362589766,33.78552404597735],[-84.42769625382164,33.785670195992495],[-84.42771029870323,33.785864710671284],[-84.42772628858914,33.786081695739924],[-84.42770805750108,33.78615350109242],[-84.42765299852898,33.786204645503915],[-84.42757229113904,33.78622727897148],[-84.42748870937028,33.7862204119863],[-84.42749807000618,33.78638801152136],[-84.42750494355784,33.78641805437427],[-84.42756037275724,33.78643586288103],[-84.42759922472227,33.78646342529728],[-84.42763420447426,33.78651984325931],[-84.42774568967128,33.78688895633734],[-84.42784687892826,33.78741758741781],[-84.42786689039094,33.78752345998422],[-84.42790428194532,33.78772136494823],[-84.42795708998548,33.7880007724763],[-84.42799665159495,33.788189143271524],[-84.42803486771292,33.78834334259574],[-84.42807689341583,33.78849210770919],[-84.42799762340039,33.788509035476594],[-84.42810146767158,33.78877735542234],[-84.42817991179136,33.78897567639069],[-84.42829493985018,33.78923459169108],[-84.42835790622435,33.789362028858875],[-84.42848243340272,33.789593798614305],[-84.42857699704538,33.78976822205653],[-84.42872119887659,33.789963177845195],[-84.42876827091997,33.790002854098276],[-84.42885408835546,33.790075188678024],[-84.42895312978817,33.79023415164692],[-84.42840069876804,33.79046906545407],[-84.42784491886682,33.79083474097034],[-84.42707802558773,33.791726402755465],[-84.42704735947189,33.791762058249766],[-84.42684993977248,33.791762767751436],[-84.42685054687243,33.79188778004604],[-84.42685607534075,33.79227310772613],[-84.42685691311587,33.792278741262606],[-84.42685806019261,33.79234913595213],[-84.42533018253124,33.79237404579533],[-84.42522623943684,33.79237572072672],[-84.42216888342435,33.79268420524985],[-84.42217472433711,33.792400900574954],[-84.42217690479657,33.792295154315326],[-84.42218287340866,33.79229513293837],[-84.42218607699724,33.79213974248816],[-84.42219127806526,33.791887908455536],[-84.42205963845265,33.79188790871188],[-84.42176665633305,33.791887894480496],[-84.42150185007328,33.79188788087092],[-84.42137022016692,33.7918878776667],[-84.4210259553818,33.791887855726024],[-84.4206724746591,33.791887831961496],[-84.42054081234996,33.79188782793912],[-84.4199492159043,33.791887642635935],[-84.41922276423146,33.79190523612006],[-84.41860965653203,33.791903796361574],[-84.4186082845048,33.79147889535507],[-84.4185753759943,33.79148088576485],[-84.41813125412459,33.79148192966925],[-84.41812914124274,33.79108574855199],[-84.41795939223972,33.79108650644478],[-84.41795919964231,33.79102945409956],[-84.418280156233,33.790117788289116],[-84.41828985090262,33.790090286255726],[-84.41844999982088,33.789635347185374],[-84.41837127539281,33.789615363160785],[-84.41840216806126,33.789526999834216],[-84.41844935935167,33.78939513924361],[-84.41847954861598,33.789316651290285],[-84.4185090394048,33.789247472478834],[-84.418540953431,33.78917904790168],[-84.4185752638646,33.789111436218974],[-84.4186119395565,33.78904469609956],[-84.41869226102712,33.78891406071943],[-84.41878843169695,33.788772445075885],[-84.41892083417153,33.788581634338335],[-84.419070532188,33.78837608668421],[-84.41921251636172,33.788190141159944],[-84.41931860336945,33.78805644111164],[-84.41942704478626,33.78792406427667],[-84.41952384292402,33.78780934205652],[-84.41970854877805,33.7876620297272],[-84.41990494648502,33.78752566890246],[-84.42011210604659,33.78740090251018],[-84.4203290454981,33.7872883212925],[-84.42055474061034,33.7871884583773],[-84.42078812380045,33.787101786576685],[-84.42102808951857,33.78702871477024],[-84.42127350289017,33.786969589691616],[-84.4215232029342,33.78692468961106],[-84.42173267028033,33.786898501177156],[-84.42196693259108,33.78688094757957],[-84.42222229046736,33.78687605859694],[-84.422477446807,33.786885838438074],[-84.4226679547659,33.78690277394038],[-84.42283298680303,33.786924324386064],[-84.423068773732,33.78614665430637],[-84.42273638072065,33.786059842167774],[-84.42169999104765,33.78578900694647],[-84.42125157023331,33.78567458941366],[-84.42082090145912,33.785563678969936],[-84.42090812221262,33.78514121166248],[-84.42069225273603,33.78510647477905],[-84.42055320975895,33.785079506774075],[-84.4205163737805,33.78490127410895],[-84.4201454766011,33.7848038973971],[-84.41964823069692,33.78189817223358],[-84.41974747114234,33.779969270101184],[-84.41982620240744,33.77913308108279],[-84.41995797907335,33.779133813314914],[-84.42000325644449,33.77867289664623],[-84.42000980896182,33.77590139502041],[-84.42006598488508,33.77590134911452],[-84.42006614612322,33.775676679870394],[-84.4220596438704,33.77567944111982],[-84.42205955416281,33.77564921074852],[-84.42238864988755,33.7756495598521],[-84.42238873971074,33.77567979022261],[-84.42505558006505,33.7756942114959],[-84.42576587964679,33.7756713170887],[-84.42590350431938,33.7761535159084],[-84.42591268154517,33.77621506495933],[-84.42592271579258,33.77627652024016],[-84.42594738561316,33.776409314945006],[-84.42596012030029,33.776470421018175],[-84.42596680710146,33.77650092604611],[-84.42603075500732,33.77675375791822],[-84.42607613524588,33.77690411198642],[-84.4261304903201,33.77706629575736],[-84.42663775589565,33.778341099928504],[-84.4267837214047,33.77830686504129],[-84.42689075018984,33.77844394274311],[-84.42695771350203,33.778524651621574],[-84.42705014062787,33.77863039606381],[-84.42713390722653,33.77872111016754],[-84.42723035910333,33.778820118761224],[-84.42727086799498,33.77886010797891],[-84.42738764732792,33.77897047669112],[-84.42748133126996,33.77905415385733],[-84.42760535528943,33.77915886722365],[-84.42830147125997,33.77971489005119],[-84.42828910050224,33.77982462547972],[-84.42869406614025,33.780028180301095],[-84.42892302541614,33.780210923683725],[-84.42897978231098,33.78025815321178],[-84.42906118607485,33.78033199480978],[-84.4291624084353,33.78043572898325],[-84.4292631714595,33.78055586957335],[-84.42929760012514,33.78060162628104],[-84.42937601156378,33.780718323153124],[-84.42942839587482,33.78080865524368],[-84.42950305752107,33.78096384334211],[-84.4295400722133,33.78105933219344],[-84.4295711257372,33.781156290798734],[-84.42958847429651,33.78122161895735],[-84.42960941509195,33.781320450183664],[-84.42962421005136,33.781420052788825],[-84.42963281730972,33.781520160877456],[-84.42963327047259,33.782030229608715]],[[-84.42576452677531,33.77484212197455],[-84.42576101842384,33.7749804209753],[-84.42575671005383,33.77515029747195],[-84.425750603487,33.775391029475216],[-84.42574697153631,33.775534192228285],[-84.42539874238972,33.77553978718809],[-84.4250671960657,33.7755451541842],[-84.42493552779692,33.775545978907886],[-84.4245936311848,33.77554551277352],[-84.42457727463216,33.77554546400531],[-84.42425150351254,33.77554504527258],[-84.42411989813284,33.77554487988364],[-84.42380877216162,33.775544484430284],[-84.42377240653035,33.77554442224426],[-84.42344331202126,33.775543981252184],[-84.42344506970598,33.77457843638262],[-84.4249598206009,33.77438376383062],[-84.4250915886646,33.774378651525254],[-84.42509010119082,33.77444960286523],[-84.42542849166561,33.774442051193375],[-84.42545482784084,33.774441473013674],[-84.42544686890928,33.77473502944138],[-84.42576742315417,33.77472792629107],[-84.42576452677531,33.77484212197455]],[[-84.3592752468804,33.74219001180982],[-84.35832526297781,33.74216343050299],[-84.35833608518423,33.74151232410648],[-84.35829390657854,33.74150969632324],[-84.35829496872532,33.74044875740679],[-84.35835301145345,33.74036671383854],[-84.35840054586312,33.73996718040148],[-84.35862016890631,33.73984094430085],[-84.35862944962697,33.73984103176007],[-84.35878042475333,33.73984301593143],[-84.3588870550359,33.73984774147388],[-84.3590030179485,33.73985694805291],[-84.359156679211,33.73987576874409],[-84.3592736721487,33.7398952721982],[-84.3592752468804,33.74219001180982]],[[-84.35927395852612,33.739284555463335],[-84.35927350791077,33.739754659823554],[-84.35919588123605,33.73974202874131],[-84.3591276358385,33.739732463050984],[-84.3590198859683,33.73972024668369],[-84.35898793561296,33.739717302948776],[-84.35894121057625,33.739713532851766],[-84.35887220946623,33.739709162647614],[-84.35876357889894,33.739705137185354],[-84.35867818061506,33.73970412490889],[-84.35863681624473,33.73970374110209],[-84.35856915636806,33.73970311232655],[-84.35847748258071,33.73970226114285],[-84.35861833027515,33.73911283499803],[-84.3587628893164,33.738607961253756],[-84.35895735689029,33.73801646754872],[-84.35905652240635,33.737714839192286],[-84.35927545420701,33.73771450329507],[-84.35927395852612,33.739284555463335]],[[-84.42266644920116,33.77554292900635],[-84.42214193748312,33.77554220269615],[-84.42214169740346,33.77487352879707],[-84.42267330103216,33.77460463858878],[-84.42266644920116,33.77554292900635]]]},"properties":{"OBJECTID":1,"ID":0,"CREATED_USER":null,"CREATED_DATE":null,"LAST_EDITED_USER":null,"LAST_EDITED_DATE":null,"GLOBALID":"{58E24928-681A-490C-84E9-108A027256C4}","SHAPE.AREA":18424785.1108268,"SHAPE.LEN":259484.52049973301}}],"_source":"https://gis.atlantaga.gov/dpcd/rest/services/LandUsePlanning/LandUsePlanning/MapServer/4 \u00b7 2026-05-05"}