{"type":"FeatureCollection","features":[{"type":"Feature","id":1,"geometry":{"type":"Polygon","coordinates":[[[-84.40987252933795,33.75698705627114],[-84.40986833500217,33.75724946661457],[-84.40972153495322,33.7572879777615],[-84.4097162487806,33.75753699436386],[-84.40970204714408,33.757577910532056],[-84.40968785513313,33.75761879962983],[-84.4096862694895,33.757817000729965],[-84.40968590861475,33.75786202553267],[-84.40962125425715,33.75786090040186],[-84.40960647609297,33.75803269637347],[-84.4095545774595,33.75808118846614],[-84.4094969294683,33.75813505217953],[-84.40949103912963,33.75823971603556],[-84.40948481984758,33.75835023407386],[-84.40947950825664,33.758444620637704],[-84.40947584261374,33.75850981562226],[-84.40947261366553,33.75856717798133],[-84.40946632858949,33.75867888001394],[-84.40946023776738,33.75878712201631],[-84.40942111470461,33.75882461669384],[-84.40937984382434,33.75886417135275],[-84.40937744754635,33.75900672753691],[-84.40937540814996,33.75912806620021],[-84.40937350381755,33.75924140782802],[-84.40937181470248,33.759282498610936],[-84.4093701164829,33.75932380671002],[-84.40936821641066,33.7594455580505],[-84.40936618096305,33.75957596553074],[-84.40936504428463,33.759648756469076],[-84.40936309206384,33.759773841319465],[-84.40936128885424,33.759889365640085],[-84.40935893971749,33.760039856260114],[-84.40942923273218,33.76009529867536],[-84.4094991569054,33.76015045054127],[-84.40949944102836,33.760251207975],[-84.40935093319406,33.76024983828756],[-84.40935123219664,33.760359767311975],[-84.40935153012137,33.76046969633654],[-84.40935184284159,33.76058487475731],[-84.40935215656988,33.760700410228814],[-84.40935244350204,33.76080643691223],[-84.40935273345156,33.760913150647944],[-84.40935300434407,33.76101271881497],[-84.40935330870758,33.761124928998655],[-84.40935365552798,33.76125296942743],[-84.40935393618858,33.761356384925186],[-84.40935408577677,33.76141137737887],[-84.40945510128734,33.76149140334991],[-84.40955640262014,33.76157165589103],[-84.40955804024007,33.76157203046143],[-84.40954614545097,33.761788842911095],[-84.40941588512679,33.76178810733102],[-84.40941824550337,33.76184649917453],[-84.40942069063166,33.76190699891647],[-84.40943565555321,33.761907160635445],[-84.40943608869269,33.76201982227744],[-84.40944222653728,33.76213149260019],[-84.4094482688067,33.76224142111424],[-84.40944671425086,33.762241412450365],[-84.40944768694968,33.762267078804946],[-84.40945283378349,33.76240285947869],[-84.40945524679961,33.762466504244344],[-84.40945806046919,33.76254053616905],[-84.40946340187854,33.76268137292521],[-84.40946872116847,33.7628216326633],[-84.40946876429194,33.76282276054672],[-84.40946943686384,33.76282276643696],[-84.4094714105454,33.76289254150097],[-84.40947394359108,33.76295930935192],[-84.40957456051035,33.76295743701694],[-84.4096600289689,33.762955845983576],[-84.4099047556044,33.76295023536585],[-84.40990479528365,33.762951288418655],[-84.40999513177867,33.76315879446808],[-84.41008507535783,33.76336539595843],[-84.41040370520773,33.763366038519074],[-84.41040378633843,33.763289822517635],[-84.41034416850971,33.76328991227608],[-84.41034379519046,33.76315799754449],[-84.41007723974808,33.7631583314266],[-84.4100761698665,33.763130054085096],[-84.41054294385502,33.763131798017106],[-84.41054291703925,33.763129953287645],[-84.41054077229194,33.76298064916325],[-84.41053900675334,33.762856981894295],[-84.41053732969085,33.76274015709457],[-84.41053565055402,33.76262336024797],[-84.41053397018747,33.76250650840066],[-84.41053229105924,33.7623897106479],[-84.41053061078297,33.76227288674722],[-84.4105545940098,33.76227297641385],[-84.41086922925048,33.76227416847081],[-84.41087128705713,33.762204964310506],[-84.41087331427475,33.762136775471554],[-84.41087431652144,33.76210305255545],[-84.41087739925415,33.761999370747716],[-84.41063788731216,33.76199848197864],[-84.41058718109386,33.76199828013546],[-84.41058811726153,33.761805901520646],[-84.41058841281618,33.761805817984474],[-84.410589233878,33.76159033562382],[-84.41059029997878,33.761310443156475],[-84.41059176003472,33.761049962497935],[-84.41059279988572,33.760833975654236],[-84.4105933445495,33.76072404497801],[-84.41059408045322,33.760574538543445],[-84.41059472217987,33.76044399586972],[-84.41048670314059,33.76044371427238],[-84.41048903640802,33.760291744063316],[-84.41081389556882,33.76029392052643],[-84.41081789336612,33.760131848496],[-84.41081864372762,33.760101424316595],[-84.41082107687025,33.76000278490706],[-84.41082483836163,33.7598502771767],[-84.41082831904629,33.75970914796592],[-84.41083169220869,33.759572361328786],[-84.41083519128023,33.75943049001408],[-84.4108382304121,33.759307252280614],[-84.41084201896251,33.759153646264906],[-84.41074000887443,33.75910534895162],[-84.41061669346557,33.75904696448112],[-84.41062268507416,33.758804365386766],[-84.41062476912434,33.75871998991199],[-84.41062895361898,33.758550551866236],[-84.41063201360116,33.7584269570235],[-84.41063333820716,33.75837325370329],[-84.41063493570687,33.7583088048337],[-84.41063784708743,33.7581906797124],[-84.41064119217663,33.75805494262689],[-84.41006592646306,33.7580456019363],[-84.41000202274162,33.75800913609996],[-84.40999182461829,33.758003316189765],[-84.40994445180746,33.75797628330043],[-84.409947767511,33.75794287228954],[-84.40995178576102,33.757898310942394],[-84.40995534731029,33.757853722543565],[-84.40995761454731,33.757821740014805],[-84.40995771833022,33.75782026560599],[-84.40995983239797,33.75778679655146],[-84.4099616884369,33.757753316283726],[-84.40996797410921,33.75762564321207],[-84.4099700133966,33.75758442999731],[-84.40997205059708,33.75754324293428],[-84.40998434009283,33.757292852824804],[-84.40998632974824,33.75725165323018],[-84.40999283115802,33.75711898185324],[-84.40999828714105,33.756988814624016],[-84.40987252933795,33.75698705627114]]]},"properties":{"OBJECTID_1":1,"OBJECTID":null,"ID":null,"SPI":null,"SUBAREA":null,"TSA":null,"ACRES":16.5962917,"ZONING":"HC20P","DIST_1":"Sunset Avenue","DIST_2":null,"DIST_3":null,"NO_":null,"CREATED_USER":null,"CREATED_DATE":null,"LAST_EDITED_USER":null,"LAST_EDITED_DATE":null,"GLOBALID":"{B76FB4B4-14CD-4F9B-8C7F-6C3D180C6DF5}","SHAPE.AREA":722931.5746548781,"SHAPE.LEN":5929.6771697618}},{"type":"Feature","id":2,"geometry":{"type":"Polygon","coordinates":[[[-84.36714958569557,33.75855823834338],[-84.36790654627156,33.75857722624767],[-84.36788934604759,33.759288872729606],[-84.36997227924314,33.75931652624376],[-84.37136340658945,33.75934529374149],[-84.37180052706718,33.759351855280165],[-84.37180752032106,33.75935195997202],[-84.37208267974475,33.75935609000772],[-84.37431675861272,33.758794502854194],[-84.3743285314831,33.75768779377531],[-84.37489060145897,33.75768112144891],[-84.37505515502544,33.75769802029567],[-84.37504922853701,33.75808164024333],[-84.37541250088908,33.75806957545624],[-84.3756317678576,33.75803485142655],[-84.37583739587237,33.758028777658474],[-84.37583749321374,33.75806885604831],[-84.37600877714321,33.758034212646066],[-84.3759879904052,33.75794263977005],[-84.37617305303189,33.75793660031413],[-84.37617248197823,33.7577018545541],[-84.37634467231724,33.75770156219576],[-84.37635299291256,33.75770154806233],[-84.37658376313207,33.75770115585023],[-84.3779205097021,33.75773322940612],[-84.37794367260072,33.75599835704487],[-84.37843601655175,33.75593328673184],[-84.37887774215665,33.75587490430175],[-84.37913368137141,33.756810020339316],[-84.37940121276863,33.75750148769865],[-84.38222537935992,33.75709898752757],[-84.38257578256315,33.757099462551686],[-84.38258413446479,33.757099473189946],[-84.38334718882969,33.75710050391346],[-84.3842328898808,33.7571431082221],[-84.38427903843731,33.75448226938326],[-84.38404106997865,33.75446060710403],[-84.38372940118913,33.75446094181796],[-84.38199514704027,33.75442962594445],[-84.38103367572917,33.75368698105912],[-84.38050708395583,33.75416883816654],[-84.3794976621963,33.75343198981412],[-84.37865082489782,33.75367258210175],[-84.37664242716762,33.753647386943946],[-84.3755321182281,33.75368934994882],[-84.37553933355683,33.753838201048914],[-84.37321553594403,33.7537734048012],[-84.37205707919011,33.753746710056376],[-84.37203466548557,33.75368949131971],[-84.3715240357103,33.75369892890007],[-84.37144698496935,33.753724821542356],[-84.37104943245582,33.75372548036465],[-84.37109758958408,33.75379983228898],[-84.37043702540421,33.75381903054536],[-84.3697713295849,33.75382644636784],[-84.3693113786879,33.75376504661354],[-84.36884393047714,33.75375274986255],[-84.36884372811458,33.753894176669505],[-84.3685163986048,33.753876072385296],[-84.36851666068887,33.753987911506165],[-84.36821580584079,33.75400704298467],[-84.36821559015729,33.753914867091076],[-84.36782487768612,33.75390977885069],[-84.36782495386808,33.75391420495363],[-84.36755465914278,33.754016270692155],[-84.36750431039076,33.75403447859497],[-84.36749759092338,33.75437568408948],[-84.36748864615852,33.75461712681257],[-84.36749055746166,33.75462668305452],[-84.36747606117834,33.75463759592882],[-84.36746716830896,33.75463787457924],[-84.36746409820333,33.75483134687943],[-84.36745412453375,33.75486809654388],[-84.36744831871991,33.75498825247235],[-84.36744792558297,33.75499603079129],[-84.3674414114399,33.75513045836878],[-84.36743447412567,33.7552736813777],[-84.36743104992584,33.755343066621435],[-84.36742830834,33.755401048420644],[-84.36738981772581,33.75575234272664],[-84.36703639196139,33.75575042290826],[-84.36700837056206,33.75649904331226],[-84.36731545237822,33.756268739700715],[-84.36758312351841,33.756067990809356],[-84.36758917694257,33.75613361875333],[-84.36757379822403,33.75659328866974],[-84.36754602301933,33.75667543768808],[-84.36754398254007,33.756778987085774],[-84.36754236536251,33.756870569026006],[-84.36754091976258,33.756956110498066],[-84.36753877259264,33.75709352713168],[-84.36746904322582,33.757105199795774],[-84.36747017791501,33.75759186716997],[-84.367333124675,33.757609266564145],[-84.36717476519483,33.7575963101329],[-84.36717147039302,33.757668079109614],[-84.36716578022269,33.757939696592196],[-84.36716276908766,33.75808324315066],[-84.36716118612584,33.758158636698965],[-84.36715389406449,33.7585054286322],[-84.36714958569557,33.75855823834338]],[[-84.37042090534375,33.75772593195355],[-84.37043601209847,33.757999891095],[-84.37044148905667,33.75809920384875],[-84.37044510051535,33.75816468868766],[-84.3704498511614,33.75825083937797],[-84.37045614259314,33.75836496406988],[-84.37046102452724,33.758453668928325],[-84.3704650469221,33.75852674772299],[-84.37045392534677,33.758526465832766],[-84.37041463760806,33.757638208567485],[-84.37042090534375,33.75772593195355]]]},"properties":{"OBJECTID_1":2,"OBJECTID":239,"ID":0,"SPI":" ","SUBAREA":"3C","TSA":" ","ACRES":179.89584549,"ZONING":"LD20CSA3C","DIST_1":"Martin Luther King Jr. Landmark District","DIST_2":"Sub Area 3 Cond*","DIST_3":"3","NO_":"11","CREATED_USER":null,"CREATED_DATE":null,"LAST_EDITED_USER":null,"LAST_EDITED_DATE":null,"GLOBALID":"{C3BBBE8C-C77C-45B5-8DB4-5B1C2700D70E}","SHAPE.AREA":7836231.68454953,"SHAPE.LEN":16800.337399347503}},{"type":"Feature","id":3,"geometry":{"type":"Polygon","coordinates":[[[-84.36969026432683,33.74911508876534],[-84.36975837054354,33.7490541852826],[-84.37089478081342,33.74977877950257],[-84.37097745800311,33.74971637433714],[-84.37155818385935,33.75011669936224],[-84.37248580743736,33.75010823706582],[-84.37248665046496,33.75046109241794],[-84.37508532205173,33.74961264566061],[-84.37513044786465,33.748117068183454],[-84.37515047727632,33.74745324942769],[-84.37516966403334,33.746817328369346],[-84.3713922330599,33.74675740157383],[-84.37014415842386,33.74673757530235],[-84.3696798348749,33.74673019681444],[-84.3689164338975,33.74671806103579],[-84.36809333247596,33.74670497112725],[-84.36808091705865,33.747612791805004],[-84.36807897577997,33.74775473914163],[-84.36807651100926,33.747935008628694],[-84.36814315550012,33.74798374442045],[-84.36878742009654,33.74845487707536],[-84.36969026432683,33.74911508876534]]]},"properties":{"OBJECTID_1":3,"OBJECTID":264,"ID":0,"SPI":" ","SUBAREA":" ","TSA":" ","ACRES":50.37243946,"ZONING":"LD20E","DIST_1":"Oakland Cemetery Landmark District","DIST_2":" ","DIST_3":" ","NO_":"12","CREATED_USER":null,"CREATED_DATE":null,"LAST_EDITED_USER":null,"LAST_EDITED_DATE":null,"GLOBALID":"{B86D3D1E-D305-467D-B8B2-A79D26B4E5E0}","SHAPE.AREA":2194214.68584101,"SHAPE.LEN":6254.34713821026}},{"type":"Feature","id":4,"geometry":{"type":"Polygon","coordinates":[[[-84.42492866581487,33.756695953912484],[-84.42448990406656,33.7566739690706],[-84.42130929540019,33.75665194350384],[-84.42127548020666,33.75912543414371],[-84.42429857214191,33.75916496568623],[-84.42492866581487,33.756695953912484]]]},"properties":{"OBJECTID_1":4,"OBJECTID":1151,"ID":0,"SPI":" ","SUBAREA":" ","TSA":" ","ACRES":20.94924599,"ZONING":"LD20D","DIST_1":"Washington Park Landmark District","DIST_2":" ","DIST_3":" ","NO_":"14","CREATED_USER":null,"CREATED_DATE":null,"LAST_EDITED_USER":null,"LAST_EDITED_DATE":null,"GLOBALID":"{A818EC32-8FF6-4A1F-8000-C7D17C2DB726}","SHAPE.AREA":912545.504994256,"SHAPE.LEN":3837.8864259394404}},{"type":"Feature","id":5,"geometry":{"type":"Polygon","coordinates":[[[-84.34374962925035,33.77927972813331],[-84.34390596083863,33.77910139941518],[-84.34571960663756,33.777032487751484],[-84.34547249614722,33.776895433270354],[-84.34562729168833,33.77667643099047],[-84.34589745100743,33.77683183639247],[-84.34658919545399,33.77605301641969],[-84.34788803226851,33.774927515041355],[-84.34867832123429,33.775468073175766],[-84.3489734454063,33.775111391834315],[-84.3489850421171,33.774162181244655],[-84.34899052366386,33.77385941520122],[-84.34899630288014,33.77313959357196],[-84.34899846937928,33.772438078051586],[-84.34898091520341,33.77182388785597],[-84.34757688998458,33.77179729935739],[-84.34726854599248,33.77187790793384],[-84.34692586347326,33.77192993840447],[-84.3466035793452,33.77190178120336],[-84.34615768790681,33.77177646950619],[-84.3451430589825,33.77176099346065],[-84.3419517052647,33.77174486707461],[-84.3418032262476,33.7718641051351],[-84.34172861348804,33.771740009129246],[-84.3393427514245,33.77168126888372],[-84.33832810626225,33.77166737242966],[-84.33769734927206,33.77165679712849],[-84.33599919839564,33.771657122602775],[-84.33756345286692,33.772580872673096],[-84.33746945058508,33.77321746459324],[-84.3369555861152,33.773086731665636],[-84.33612092632576,33.77200866172963],[-84.33598894913126,33.772295942867935],[-84.3356198420409,33.77205431597056],[-84.33524700193337,33.77202023567178],[-84.3352873962956,33.77165811248164],[-84.33507719044671,33.771656946932],[-84.334389232869,33.771653128442324],[-84.33437530096728,33.77224271700481],[-84.33377667537877,33.77224331260995],[-84.33377822302327,33.772281379228325],[-84.33336037815837,33.77228084698392],[-84.33336073760407,33.77229251209194],[-84.33290695239508,33.77225709047999],[-84.33289573869435,33.7722105234564],[-84.33269655488277,33.77202185006556],[-84.3321010323468,33.77250931817599],[-84.33177117084746,33.77228885838367],[-84.3323708300682,33.7716881854823],[-84.33142383861205,33.771676794980245],[-84.33046015742507,33.77265060396442],[-84.33008692855518,33.7736068234626],[-84.33003605207502,33.77491920483255],[-84.33007824584274,33.77924494324589],[-84.33190486910692,33.77917572553644],[-84.33211449799728,33.77819164517702],[-84.33226794112133,33.778292348727994],[-84.33308405134125,33.778827952395716],[-84.33292999022478,33.77924665487848],[-84.33715350892074,33.77916305533347],[-84.33835550659117,33.77915206671527],[-84.33752991249425,33.77863098535767],[-84.33779844052907,33.77841337812494],[-84.33877433921516,33.77914823464712],[-84.33936809340514,33.77914279949857],[-84.34374962925035,33.77927972813331]]]},"properties":{"OBJECTID_1":5,"OBJECTID":1550,"ID":0,"SPI":" ","SUBAREA":"PDL","TSA":" ","ACRES":312.54057026,"ZONING":"LD20B","DIST_1":"Druid Hills Landmark District","DIST_2":" ","DIST_3":" ","NO_":"7","CREATED_USER":null,"CREATED_DATE":null,"LAST_EDITED_USER":null,"LAST_EDITED_DATE":null,"GLOBALID":"{13333B69-5CE5-44C0-8522-DF0E5E3B8483}","SHAPE.AREA":13614212.78356,"SHAPE.LEN":20169.3482784097}},{"type":"Feature","id":6,"geometry":{"type":"Polygon","coordinates":[[[-84.36223353141482,33.74728256844166],[-84.36221043862149,33.74795543739757],[-84.36218798972898,33.74863394872441],[-84.36215631489492,33.751287781511216],[-84.36215070804093,33.75183744079884],[-84.3621624373478,33.752478310243426],[-84.36219350142485,33.75332744140017],[-84.36368718448561,33.753078868607126],[-84.36495885315186,33.75275456456089],[-84.36603683716243,33.75247964199429],[-84.36677651379861,33.75222652170259],[-84.36802309021874,33.75184088531536],[-84.36841504515343,33.75172049649041],[-84.37079618908592,33.75098909746056],[-84.36969026432683,33.74911508876534],[-84.36878742009654,33.74845487707536],[-84.36814315550012,33.74798374442045],[-84.36807651100926,33.747935008628694],[-84.36807897577997,33.74775473914163],[-84.36808091705865,33.747612791805004],[-84.36809333247596,33.74670497112725],[-84.36743145413602,33.74669809748156],[-84.36620038843606,33.74668530242174],[-84.36375926243453,33.74665989530903],[-84.36309404834326,33.7466529640612],[-84.36225543940851,33.74664421941055],[-84.36223353141482,33.74728256844166]]]},"properties":{"OBJECTID_1":6,"OBJECTID":1772,"ID":0,"SPI":" ","SUBAREA":" ","TSA":" ","ACRES":105.30102349,"ZONING":"Cabbage Landmark","DIST_1":"Cabbagetown Landmark District","DIST_2":null,"DIST_3":null,"NO_":null,"CREATED_USER":null,"CREATED_DATE":null,"LAST_EDITED_USER":"SHENDERSON","LAST_EDITED_DATE":1648046144000,"GLOBALID":"{7DFBCD57-BABD-4F03-8089-C6E4083BE16E}","SHAPE.AREA":4586894.2357676,"SHAPE.LEN":8821.43369670156}},{"type":"Feature","id":7,"geometry":{"type":"Polygon","coordinates":[[[-84.39791713712788,33.75204507030441],[-84.39785454735923,33.752322074095964],[-84.39914427486366,33.75233167477795],[-84.39949157611817,33.751797516365905],[-84.39964402177563,33.7518043743871],[-84.39986531796043,33.75179551977969],[-84.39991901763324,33.75180162893221],[-84.39998038984002,33.751791042039905],[-84.40041629821167,33.75168537209334],[-84.40140933259642,33.75143356169569],[-84.40144639945798,33.751393256651816],[-84.40144669360186,33.75139306133492],[-84.40124681481336,33.75083144953093],[-84.40124377791534,33.75082291752797],[-84.40186653917716,33.75065733475506],[-84.40218640537304,33.75057228584073],[-84.40226816075635,33.750483971406446],[-84.40233284786387,33.7501136309874],[-84.40286675059949,33.75005834273981],[-84.40292453748154,33.749697406835715],[-84.40284146154268,33.74962793635462],[-84.40300390189077,33.749177599371805],[-84.40284997238825,33.74915625150878],[-84.40274473572264,33.74914165391722],[-84.40294684942624,33.74876787551106],[-84.40294705303977,33.748767734463144],[-84.40311631883476,33.74865034125397],[-84.40324657284525,33.74829322818622],[-84.40342266956897,33.74833134351962],[-84.40340449083072,33.74837803905342],[-84.40353366547983,33.748394857825474],[-84.40366662514107,33.74805331341069],[-84.40384370676219,33.7480007683937],[-84.40420144562741,33.74709247045936],[-84.40425165097456,33.74704573571517],[-84.40445450756204,33.74683263107106],[-84.4040232304398,33.74658782287426],[-84.40378682787966,33.74645362745972],[-84.40388761392995,33.74601050624095],[-84.40405957425459,33.74585811866995],[-84.40412070256008,33.74581166592482],[-84.4041704270397,33.74575753945374],[-84.40427066161119,33.745648129917456],[-84.40446220088562,33.745469255826045],[-84.40454650477979,33.745384784989625],[-84.40472148420469,33.745227104261254],[-84.40474376638652,33.74520702559954],[-84.40485606206899,33.74510581001624],[-84.40494299193159,33.74502745518236],[-84.40500536684985,33.74497241221802],[-84.4049027411822,33.744880408744656],[-84.40471737669195,33.74476625596414],[-84.40454946934966,33.74448236226904],[-84.40447925220244,33.74450651314582],[-84.40419970127778,33.7445981050191],[-84.404071059817,33.74464155348837],[-84.40389809580222,33.74470840742641],[-84.40335409884675,33.7449205733428],[-84.4032078805402,33.744984750317684],[-84.40285059761676,33.74515994802111],[-84.40211606165964,33.74569150305878],[-84.401845276872,33.745888174406694],[-84.40151023957736,33.7461530920029],[-84.40123699655328,33.74638904371655],[-84.40105979079254,33.746362796745494],[-84.40081208530414,33.74657852718491],[-84.40061273350209,33.746763792329396],[-84.40050910419565,33.74686458098215],[-84.40040738226519,33.7469667166162],[-84.40013767788587,33.747254324056094],[-84.40000845133228,33.74727047266726],[-84.39993032441816,33.747430969862926],[-84.39985814694896,33.74754214511759],[-84.39961045729959,33.747844340971575],[-84.39954281588071,33.74794084114606],[-84.39940424859769,33.74817398116751],[-84.39929679567575,33.74840803979751],[-84.39916943357758,33.74863141152996],[-84.39894181077827,33.74906707995478],[-84.39875870078191,33.74949533380254],[-84.39860010984125,33.74993141003978],[-84.39842102426421,33.75002892496881],[-84.39826267171657,33.7500917411115],[-84.3982218583974,33.75010793024985],[-84.3980225668805,33.75017685944573],[-84.39730121688332,33.75042629331134],[-84.39713062305806,33.75069346761585],[-84.39718791486568,33.750673655875566],[-84.39803965816954,33.750379124622874],[-84.39841217745007,33.75024873540857],[-84.39862728402876,33.75014976427144],[-84.39830236861529,33.75088672288567],[-84.3982158622227,33.75097607239809],[-84.39815291902354,33.7511209133218],[-84.39809074696207,33.75126399002897],[-84.3979694178427,33.75154322379985],[-84.39797606474593,33.751629630489006],[-84.39806679470193,33.75172393138195],[-84.39791713712788,33.75204507030441]]]},"properties":{"OBJECTID_1":7,"OBJECTID":2033,"ID":0,"SPI":" ","SUBAREA":" ","TSA":" ","ACRES":63.01900094,"ZONING":"LD20NSA2","DIST_1":"Castleberry Hill Landmark District","DIST_2":"Sub Area 2","DIST_3":"2","NO_":"6","CREATED_USER":null,"CREATED_DATE":null,"LAST_EDITED_USER":null,"LAST_EDITED_DATE":null,"GLOBALID":"{DEF94591-DBF6-4AF2-B510-3B73F7BEC64D}","SHAPE.AREA":2745096.70057025,"SHAPE.LEN":9498.762991389889}},{"type":"Feature","id":8,"geometry":{"type":"Polygon","coordinates":[[[-84.38840114981163,33.76854885755121],[-84.38859648156087,33.76854850647838],[-84.38859654920181,33.768364093981134],[-84.38807086750715,33.76836503809139],[-84.38807106432428,33.76854945011644],[-84.3884002429389,33.768548859180434],[-84.38840114981163,33.76854885755121]]]},"properties":{"OBJECTID_1":8,"OBJECTID":0,"ID":0,"SPI":" ","SUBAREA":" ","TSA":" ","ACRES":0.24602535,"ZONING":"LD20F","DIST_1":"Baltimore Block Landmark District","DIST_2":" ","DIST_3":" ","NO_":"3","CREATED_USER":null,"CREATED_DATE":null,"LAST_EDITED_USER":null,"LAST_EDITED_DATE":null,"GLOBALID":"{2215D3CD-65BD-45B3-8B49-11F66D2145BD}","SHAPE.AREA":10716.8212408008,"SHAPE.LEN":453.623364401368}},{"type":"Feature","id":9,"geometry":{"type":"Polygon","coordinates":[[[-84.38976306199835,33.809571694012746],[-84.38996657246327,33.80949139837843],[-84.39016341848072,33.809413720242986],[-84.39036031809313,33.80933602095818],[-84.39056298253881,33.809256046859794],[-84.39077145387017,33.80917378251501],[-84.39097990860853,33.80909152145445],[-84.39117883419905,33.80901302012224],[-84.39119282465619,33.809007499119346],[-84.3914133041453,33.80892049441442],[-84.39165338660285,33.80882576341525],[-84.39181727243835,33.80876108679577],[-84.39187673853179,33.808737619272094],[-84.39210010620012,33.80864947379393],[-84.39215585172565,33.80862746819332],[-84.39219137679868,33.80862828325611],[-84.39237542163906,33.80863248101595],[-84.3926310551267,33.80865496081746],[-84.39275546063641,33.80832587244275],[-84.39267349027098,33.80809235721322],[-84.39278886014446,33.80748216888462],[-84.39277011310577,33.80747695476016],[-84.39270237669346,33.80745811545534],[-84.39257105026299,33.80742158956035],[-84.39243782373461,33.80738453503087],[-84.3924436118835,33.807257006277915],[-84.39244388654845,33.80725095932907],[-84.39244458397862,33.807235623738585],[-84.39245053906775,33.807104631449704],[-84.39245075966497,33.80709979461025],[-84.39246273509681,33.80683635554677],[-84.39247467273258,33.80657376769526],[-84.39240823568518,33.80657273518342],[-84.39237233115112,33.806327109201135],[-84.392505205369,33.80632854307532],[-84.39282412176345,33.80633202613319],[-84.39283501160527,33.8060665548774],[-84.39284621100721,33.805793556990906],[-84.39291068560345,33.8057919663687],[-84.39290906148858,33.805526559510014],[-84.39287421775441,33.80552723923433],[-84.39264625101654,33.80553143585883],[-84.39264334682949,33.805531491671196],[-84.3925813443693,33.80500973798087],[-84.39250062619055,33.80481032502841],[-84.39250058816327,33.804810239441515],[-84.39250032800966,33.80481029401663],[-84.39231840633526,33.80440003464344],[-84.39228172658919,33.804317444989486],[-84.3920222505384,33.80433132767462],[-84.39200307130209,33.80428620909742],[-84.39195324257986,33.80429116449561],[-84.39186306128933,33.804023872505546],[-84.39184329077855,33.80396531592136],[-84.3917856672346,33.803794479504134],[-84.39175717452783,33.80371002456271],[-84.39171718949378,33.803591510097775],[-84.3916622399186,33.803428642004555],[-84.39137418293521,33.80342603381659],[-84.39136642215551,33.80340101009531],[-84.3913381304952,33.80330979412908],[-84.39130507896063,33.80320322544853],[-84.39127209395433,33.803096872129835],[-84.39134527613493,33.80309737092159],[-84.39160663211307,33.803099148762456],[-84.391614940414,33.80268863227726],[-84.39136727108142,33.80268361063936],[-84.39142104682834,33.80208591214617],[-84.39129178213312,33.80207495091667],[-84.39122072161831,33.802068924733646],[-84.39102444319818,33.80205228127869],[-84.3908232928121,33.80203522349084],[-84.39063487173041,33.802013991979706],[-84.39044399873535,33.80199885976877],[-84.39027748885816,33.80198565861516],[-84.39009132374649,33.801970898721734],[-84.38990973574703,33.80195650174348],[-84.38974204098479,33.80194320463285],[-84.38953984288293,33.80192717091756],[-84.38931953328364,33.801909700775376],[-84.38908084970545,33.80189077294288],[-84.38887195534363,33.80187420741253],[-84.38885629285792,33.80188513654795],[-84.38863266970405,33.80204118430031],[-84.38845927427732,33.80216218085195],[-84.38829467026588,33.80227704278133],[-84.38814652951537,33.802380416791095],[-84.38797989567342,33.80249669392327],[-84.3878220673643,33.80260682564073],[-84.38767844383634,33.802707046039096],[-84.38743043807962,33.80288010249238],[-84.38730595129174,33.80296696816205],[-84.38715199601846,33.80307439616322],[-84.3869641959361,33.80320543906516],[-84.3869646617122,33.80323715910888],[-84.38696693055455,33.8033917155414],[-84.38696963648637,33.80357606433999],[-84.38697242863421,33.80376623491912],[-84.38697716598692,33.80408917055904],[-84.38698099338534,33.80434950279699],[-84.38698186670815,33.804407488909064],[-84.38698402409929,33.804555614959284],[-84.38698597624459,33.80468813114575],[-84.38698807119555,33.80483042995162],[-84.38699193048839,33.805093483273424],[-84.38699394446172,33.805230726676214],[-84.38699614700455,33.80538085788998],[-84.38699797977706,33.80550512960612],[-84.38700097048519,33.80570865858039],[-84.38700507791506,33.80598842075271],[-84.38699809957718,33.80633569914106],[-84.38700867237246,33.80651049527074],[-84.38702003366387,33.80669834674216],[-84.38703113443935,33.80688188158437],[-84.38753987745126,33.80686010849668],[-84.38770404282813,33.80690439098919],[-84.38770391036037,33.80693310418682],[-84.38770414699387,33.80694406148317],[-84.3877046093552,33.806955013866805],[-84.38770529851526,33.80696595772916],[-84.387706212307,33.806976890369214],[-84.38770735288136,33.80698780817656],[-84.38770871806906,33.80699870754841],[-84.38771030894327,33.80700958577792],[-84.38771212333691,33.80702044016406],[-84.38771416231862,33.80703126619662],[-84.38771642480138,33.807042061172595],[-84.38771890861818,33.80705282239094],[-84.38772161483989,33.80706354624313],[-84.38772454237721,33.807074229124495],[-84.38772769014551,33.807084869233705],[-84.38773105705084,33.80709546116277],[-84.38773464309098,33.80710600401006],[-84.38773844501411,33.80711649327314],[-84.38774246281567,33.80712692714871],[-84.3877466964818,33.80713730022688],[-84.38775114385011,33.807147611609835],[-84.38775580275113,33.80715785769494],[-84.38776067317569,33.80716803487546],[-84.38776575187661,33.80717814045236],[-84.3877710399271,33.80718817171873],[-84.38777653299753,33.80719812507566],[-84.3877822321611,33.807207997816285],[-84.38778813309055,33.80721778724343],[-84.38779423577661,33.80722748975049],[-84.38780053805455,33.80723710353792],[-84.38780703883732,33.8072466259028],[-84.38781373379298,33.80725605234464],[-84.38782062291698,33.80726538106005],[-84.38789515007603,33.8073518993365],[-84.38791345983716,33.80736695376222],[-84.38793737735513,33.807386148408796],[-84.38795888338818,33.80740213210251],[-84.38797979484717,33.80741707275155],[-84.38799809918837,33.80743001100805],[-84.3880179503993,33.807442590335384],[-84.3880397163252,33.807457144437514],[-84.38807450892871,33.8074807439234],[-84.38811210393075,33.80750541042716],[-84.38818957329461,33.807558202533734],[-84.3882284567633,33.80758489990227],[-84.38826677805677,33.80761096711524],[-84.38829187550739,33.80762776840382],[-84.38839451199271,33.807699565163944],[-84.3883985206497,33.807702225030944],[-84.38840411215772,33.807705495172634],[-84.38840847615812,33.807707731528005],[-84.38841146082606,33.8077091165028],[-84.38841450035369,33.80771041391909],[-84.38841915588763,33.80771219441815],[-84.38842552410223,33.807714250447106],[-84.38842876779592,33.80771513904984],[-84.38843369714907,33.80771629601784],[-84.38843869291273,33.80771723737255],[-84.38844205227602,33.80771774527185],[-84.38844712594981,33.807718323122316],[-84.38845052572667,33.80771858660231],[-84.38845734720182,33.80771881868399],[-84.38846076133709,33.80771878639758],[-84.38846587396343,33.80771855359642],[-84.3884709665779,33.807718099927385],[-84.3884743429776,33.80771767549195],[-84.38859775367763,33.80789373456889],[-84.38859362708352,33.80790271518604],[-84.38858968749796,33.80791175407364],[-84.38858593599409,33.807920848524844],[-84.3885823747252,33.80792999583092],[-84.38857900260423,33.80793919328882],[-84.38857582286464,33.80794843818786],[-84.38857283549942,33.80795772782307],[-84.38857004157948,33.80796705858598],[-84.38856744218263,33.80797642957299],[-84.38856503729498,33.80798583537432],[-84.38856282799668,33.807995275988],[-84.38856081535396,33.808004746002204],[-84.38855829892603,33.80801822474431],[-84.38855596162895,33.80803331260434],[-84.38855473878893,33.808042876772284],[-84.38854456771536,33.80813841286387],[-84.38854226742309,33.80816114391979],[-84.38853902764082,33.80819525455088],[-84.3885342985355,33.80825076755389],[-84.38853244904263,33.80827490797452],[-84.38853004970795,33.808309067585405],[-84.38852790314742,33.8083432384628],[-84.38852661289756,33.80836602540644],[-84.3885254349879,33.808388815754554],[-84.38852387822712,33.80842300991514],[-84.38852257422985,33.808457210834064],[-84.38852186189499,33.808480019279045],[-84.3883559018844,33.808697345010664],[-84.38784234748097,33.80889977329789],[-84.38794042010439,33.80907924247241],[-84.38792745441688,33.809084325773185],[-84.3880226665575,33.80925932964109],[-84.38786396823873,33.809317385552454],[-84.3877236480708,33.80936871720339],[-84.38768316471575,33.80938503652355],[-84.38748251513637,33.80946592287013],[-84.38741268795208,33.80949407103856],[-84.38750426472835,33.809629504909964],[-84.38750738943263,33.8096286193083],[-84.3876433873535,33.80982974597554],[-84.38758808763752,33.810003682556896],[-84.38758390979187,33.81043154132157],[-84.38798367003535,33.81027380652019],[-84.38816232055362,33.81020331608823],[-84.38835745418105,33.81012632104819],[-84.38851956567207,33.81006235438442],[-84.38875139449479,33.809970878990065],[-84.389038388369,33.80985763534485],[-84.3892319677228,33.809781262055566],[-84.38939822891786,33.80971565116141],[-84.3895220161044,33.809666800861315],[-84.38958354981894,33.809642529144185],[-84.38976306199835,33.809571694012746]]]},"properties":{"OBJECTID_1":9,"OBJECTID":0,"ID":0,"SPI":" ","SUBAREA":" ","TSA":" ","ACRES":90.28915243,"ZONING":"LD20CD1","DIST_1":"Brookwood Hills Conservation District","DIST_2":" ","DIST_3":" ","NO_":"4","CREATED_USER":null,"CREATED_DATE":null,"LAST_EDITED_USER":null,"LAST_EDITED_DATE":null,"GLOBALID":"{AD136A72-2FA7-46F2-BC6A-1CBE6E65A754}","SHAPE.AREA":3932979.74799357,"SHAPE.LEN":9567.73970284685}},{"type":"Feature","id":10,"geometry":{"type":"Polygon","coordinates":[[[-84.42574124964744,33.732321478368235],[-84.42580502327023,33.73236046385966],[-84.42711031451293,33.73315838490001],[-84.4271326716012,33.732717974697074],[-84.42777224342422,33.73271662402308],[-84.42778371250193,33.73259290142227],[-84.42810941927108,33.73259221227935],[-84.42811490650365,33.732448711836874],[-84.42777731051078,33.73243458214994],[-84.42779960515401,33.7319743796371],[-84.42717774506272,33.73195590169722],[-84.42721569915236,33.730798010581246],[-84.42809805114183,33.73079614578501],[-84.4281527809984,33.730222299837344],[-84.4287489642805,33.73022676154334],[-84.42876089379159,33.72964273172287],[-84.43050147918417,33.729661927439004],[-84.43051874224771,33.72858548897522],[-84.42783939054229,33.72856255683047],[-84.4278629492437,33.727291437191646],[-84.42730103116808,33.72728117331364],[-84.4272798168818,33.72706364800741],[-84.42773891576458,33.72706267833086],[-84.42774535189521,33.726925252043145],[-84.42728623643849,33.726920496248134],[-84.4273446866052,33.72585542178059],[-84.42796144697716,33.72587702052508],[-84.42802082287068,33.72285953475165],[-84.42742465699361,33.722843617386815],[-84.42742778669799,33.72161261940774],[-84.4267152012034,33.72161412183663],[-84.42671528752619,33.72164274932264],[-84.4260301088473,33.72164419009034],[-84.42538602252473,33.721639815450764],[-84.42538619428814,33.72169707042845],[-84.42507786414755,33.7216977159262],[-84.42507024037388,33.721440081949964],[-84.42373414373833,33.72144287011796],[-84.42350201935524,33.72172390511707],[-84.42381713312261,33.7217003472934],[-84.42382569219671,33.722272883746875],[-84.42351050813194,33.72227353960779],[-84.42350484994178,33.722674339609334],[-84.4231083093265,33.72296716669631],[-84.42270528809696,33.723385967657485],[-84.4230143232317,33.72362007343497],[-84.42224902552988,33.72433735286037],[-84.4220705345713,33.724223211472065],[-84.42190649369891,33.72436096336658],[-84.42174857603383,33.72425250452427],[-84.42155032429594,33.724407503196694],[-84.42168083397146,33.724516018886355],[-84.42105887112213,33.72504977692698],[-84.42086660865193,33.72491276005181],[-84.42056591021453,33.72518247948633],[-84.42063456572254,33.725228142572135],[-84.42042272460961,33.72542324608358],[-84.4205806259124,33.7255259811021],[-84.41985618644784,33.7261687296666],[-84.41971887481868,33.7260774026077],[-84.41909027104717,33.72669132168977],[-84.41867365910748,33.7271616668838],[-84.41923599492753,33.727315107409176],[-84.41919506600512,33.727378172834705],[-84.41915435498218,33.72751566878177],[-84.41962793375681,33.72777807399038],[-84.41941655300505,33.72813349048412],[-84.4195674882393,33.72819616229927],[-84.41937631187376,33.72843130122809],[-84.4206188435403,33.729195974917054],[-84.42324213833092,33.73080138293591],[-84.42475495893733,33.73171854146583],[-84.42574124964744,33.732321478368235]]]},"properties":{"OBJECTID_1":10,"OBJECTID":0,"ID":0,"SPI":" ","SUBAREA":" ","TSA":" ","ACRES":174.77729855,"ZONING":"HD20M","DIST_1":"Oakland City Historic District","DIST_2":" ","DIST_3":" ","NO_":"13","CREATED_USER":null,"CREATED_DATE":null,"LAST_EDITED_USER":null,"LAST_EDITED_DATE":null,"GLOBALID":"{0132EB6C-C2FA-4A63-9315-7EC6C041D649}","SHAPE.AREA":7613268.67183838,"SHAPE.LEN":15663.1052089483}},{"type":"Feature","id":11,"geometry":{"type":"Polygon","coordinates":[[[-84.48390031322208,33.81258227384755],[-84.48389496296964,33.812570222712004],[-84.48341863754521,33.81149731484823],[-84.48366493068798,33.81143120204153],[-84.48343877506156,33.810879882225265],[-84.48512939339696,33.810473296541794],[-84.48476758316744,33.80960428418366],[-84.48520180365034,33.80884546869771],[-84.48553690060919,33.808554620579216],[-84.48553624130064,33.80837689195238],[-84.48480828581887,33.80849102269572],[-84.48363285995717,33.808812092889745],[-84.48312402077303,33.807569283259895],[-84.48137759201245,33.80802275580764],[-84.48106629674498,33.80869705643102],[-84.48146929233775,33.808583777494874],[-84.48154845238594,33.80878001492288],[-84.48121265635298,33.80888376821651],[-84.48066494137191,33.80925933437656],[-84.48092376915363,33.809558011257494],[-84.48084587487776,33.809707877231126],[-84.48232758569202,33.81344579616111],[-84.48407405019503,33.812973601928626],[-84.48390031322208,33.81258227384755]]]},"properties":{"OBJECTID_1":11,"OBJECTID":0,"ID":0,"SPI":" ","SUBAREA":" ","TSA":" ","ACRES":38.22261103,"ZONING":"HD20J","DIST_1":"Whittier Mill Historic District","DIST_2":" ","DIST_3":" ","NO_":"16","CREATED_USER":null,"CREATED_DATE":null,"LAST_EDITED_USER":null,"LAST_EDITED_DATE":null,"GLOBALID":"{D27E718B-FD61-40BE-8A53-86FFB2263851}","SHAPE.AREA":1664970.27664313,"SHAPE.LEN":6859.636423654951}},{"type":"Feature","id":12,"geometry":{"type":"MultiPolygon","coordinates":[[[[-84.43036062624861,33.74613787289814],[-84.43060737882148,33.74614307114674],[-84.43059263663017,33.74580529755373],[-84.43096280745345,33.745827407736435],[-84.43124944955304,33.74543173267046],[-84.43212416300868,33.7445996541908],[-84.43221294217199,33.74449640407603],[-84.43236374251042,33.74228030184728],[-84.43237846160754,33.741624290401845],[-84.43242399563609,33.73959490039377],[-84.43126580268712,33.73959738775635],[-84.43125854518843,33.73946571553515],[-84.4306691522208,33.739461251605114],[-84.43066301811214,33.739696011787004],[-84.42999140257221,33.73969744591129],[-84.42999194488806,33.7398749357553],[-84.42945734001312,33.73985889816137],[-84.42949003466138,33.73934353119475],[-84.42897601012884,33.739333173215215],[-84.42896938348443,33.739407619009874],[-84.42852375130688,33.739351309707374],[-84.4285112800267,33.739757848736836],[-84.4280589320391,33.73974735613788],[-84.42807154438196,33.739386620984185],[-84.4272217309702,33.73938269164646],[-84.42722789175042,33.739153657961324],[-84.42667276683072,33.739149102630485],[-84.42666624184562,33.739257901198336],[-84.42650174728162,33.73925252194312],[-84.42650844509656,33.73920097819293],[-84.42593272592588,33.73918501183753],[-84.42593317375189,33.73933387434833],[-84.42556992068128,33.73932318551531],[-84.42558348943751,33.73927735292467],[-84.42489126480858,33.73926162596003],[-84.42474044347546,33.739244764727424],[-84.42421958390396,33.73924012674668],[-84.42406842073115,33.73910875505049],[-84.42343098995606,33.73908145462162],[-84.42328008289441,33.73903596419137],[-84.42277980111659,33.73903700288419],[-84.42278622890295,33.73889385069569],[-84.42239553144432,33.73887175840363],[-84.42224452341614,33.738791913802494],[-84.42121655001954,33.73879403727142],[-84.42121634709443,33.7387253314662],[-84.4205101693898,33.7386237259062],[-84.42050151194589,33.73801111135013],[-84.41998049166126,33.73794920060125],[-84.4195966847461,33.73793853634017],[-84.41959186473456,33.73863133585772],[-84.41928345710356,33.738626241683114],[-84.41929061231686,33.73872928638697],[-84.41886575019213,33.73874160592908],[-84.41881176261617,33.73902799213216],[-84.41885314964753,33.739119516812266],[-84.41939448391099,33.73909550793493],[-84.41940256276725,33.739513455146515],[-84.41966985545558,33.73951863326678],[-84.41967042693587,33.73971329971125],[-84.41971156304203,33.73971894093336],[-84.41971151260886,33.73970176448272],[-84.4198074576174,33.73970156781961],[-84.41980723899131,33.739627136533386],[-84.42049257780387,33.73963145511374],[-84.420504861268,33.74147504997164],[-84.42252874719941,33.742192289367416],[-84.42253660363465,33.74253007847548],[-84.42329829121168,33.74284912738342],[-84.4261544339444,33.744358712936894],[-84.42732031699379,33.74478738007054],[-84.42810288096763,33.74519796323169],[-84.42872670325985,33.74524244481032],[-84.4287686959899,33.74552863213223],[-84.43036062624861,33.74613787289814]]],[[[-84.426017440888,33.7377305496329],[-84.42601802666648,33.73792521603706],[-84.42717625062903,33.737939954447285],[-84.42717663135808,33.73806591504661],[-84.42767692358515,33.73807058404998],[-84.42784160680944,33.73813894294793],[-84.42937677105883,33.73815858836227],[-84.42936362332658,33.73834183290041],[-84.42998040352768,33.738340519166435],[-84.43003221909245,33.73735561777112],[-84.4277529005357,33.736003507426126],[-84.42638666527695,33.73517618629927],[-84.42338652374775,33.73335601474602],[-84.42112165971304,33.73218696731322],[-84.41924076823157,33.73107434938436],[-84.41755259332919,33.730236136420814],[-84.41712770623487,33.73022554783543],[-84.41679195107827,33.73023195387067],[-84.41647001800196,33.73027840972536],[-84.4161891651798,33.73031333068842],[-84.41592211747258,33.730382576313524],[-84.41570305216436,33.730457450135404],[-84.4152650370518,33.73064727597285],[-84.41505302202867,33.73079084077362],[-84.41480005597154,33.730991743670806],[-84.41475915393843,33.731066257699325],[-84.41492486883263,33.731501065591914],[-84.41492551186603,33.73172435982573],[-84.41475417972862,33.73171897862127],[-84.41474861231306,33.73216558173919],[-84.4147695337648,33.732291501274375],[-84.41476401476599,33.73275528083012],[-84.41523681671634,33.73274287897291],[-84.41525138059126,33.73304057786204],[-84.41488813867933,33.73302413197506],[-84.41488929274506,33.73342491729526],[-84.41539642801408,33.73343534789832],[-84.41539799748227,33.73397927044727],[-84.41595994160484,33.73398386279132],[-84.4169604470058,33.733981838907475],[-84.41696031400842,33.7339360349866],[-84.41771408508447,33.733923053812354],[-84.41772790848539,33.73631629866307],[-84.41865992810195,33.73632012568852],[-84.4186615685567,33.736881225208734],[-84.41931947355337,33.73688560634154],[-84.4193268971922,33.737080258852174],[-84.4198819749764,33.737073396301874],[-84.41988246277879,33.737239435391544],[-84.4204923825341,33.73723818313999],[-84.42052018246552,33.73736981385493],[-84.42092452914183,33.73737470744069],[-84.42126716476446,33.73736827591924],[-84.42126599778267,33.73697321653719],[-84.42144419263113,33.736978574514524],[-84.42144326179277,33.736663671912105],[-84.4212171126206,33.736664138317465],[-84.4212162502611,33.73637213853907],[-84.42202486648755,33.73635901792977],[-84.42199909991602,33.73691444759893],[-84.42280091804996,33.73691851251298],[-84.42278947491893,33.73768003127247],[-84.42274157159802,33.737703033604646],[-84.42282414858174,33.7378173727112],[-84.42337952063937,33.73790782764132],[-84.42337907724809,33.737758965066135],[-84.42403785104584,33.73776322906819],[-84.42408141602534,33.73776351064041],[-84.4253870790544,33.737771950649744],[-84.42553083851298,33.7377201196821],[-84.426017440888,33.7377305496329]]]]},"properties":{"OBJECTID_1":12,"OBJECTID":0,"ID":0,"SPI":" ","SUBAREA":" ","TSA":" ","ACRES":293.24083354,"ZONING":"HD20G","DIST_1":"West End Historic District","DIST_2":" ","DIST_3":" ","NO_":"15","CREATED_USER":null,"CREATED_DATE":null,"LAST_EDITED_USER":null,"LAST_EDITED_DATE":null,"GLOBALID":"{40709942-2953-40C9-94A4-5797B01193D5}","SHAPE.AREA":12773519.6149051,"SHAPE.LEN":27946.261258889503}},{"type":"Feature","id":13,"geometry":{"type":"Polygon","coordinates":[[[-84.41146425631894,33.73441836885433],[-84.41188134574999,33.73442286108371],[-84.41194585505676,33.73442355617788],[-84.41236200776504,33.73442803692268],[-84.41240216155329,33.73409015018803],[-84.41253066586667,33.733494438926904],[-84.41274813883001,33.732858471538506],[-84.41369588830578,33.731190447541394],[-84.41368716554486,33.73053775398503],[-84.41366270409956,33.729175124505815],[-84.41470303277383,33.72874362383213],[-84.41479221214122,33.728777797858825],[-84.41520966183336,33.728588015053596],[-84.41561919931203,33.72803181290771],[-84.41551610099577,33.727923235636084],[-84.41568668041606,33.727670967584],[-84.41558366509585,33.72759101784397],[-84.41570662531312,33.72745908275733],[-84.41458773180243,33.72677426854678],[-84.4141275166094,33.72638585454879],[-84.41355018003979,33.725774377247284],[-84.41324054053389,33.72532267789958],[-84.41277926171632,33.72455637479225],[-84.41247627046017,33.72403022823123],[-84.41224248811636,33.72374441571207],[-84.41194023582501,33.72347591623544],[-84.41163127988298,33.7232589582093],[-84.41143229816343,33.72316201862954],[-84.41104813611352,33.72300246440183],[-84.41066418715451,33.722917340507124],[-84.41028715444237,33.72285510301247],[-84.40979385022197,33.72286752616763],[-84.4085399696441,33.722875713678825],[-84.40853337469538,33.72296733606285],[-84.40836892824184,33.72296765799841],[-84.40836340826323,33.72344288912425],[-84.40787693626986,33.7234495657246],[-84.40791811689066,33.7259229204424],[-84.40800294537718,33.72930082530967],[-84.40804757034726,33.73055463165375],[-84.40807884428025,33.731934425423646],[-84.40809646203414,33.73333142215261],[-84.40811319844009,33.73441351552456],[-84.40870252426618,33.734406636297834],[-84.40907259261931,33.734411635915485],[-84.40923705981393,33.7344113129491],[-84.41146425631894,33.73441836885433]]]},"properties":{"OBJECTID_1":13,"OBJECTID":0,"ID":0,"SPI":" ","SUBAREA":" ","TSA":" ","ACRES":160.71760621,"ZONING":"HD20ISA1","DIST_1":"Adair Park Historic District","DIST_2":"Sub Area 1","DIST_3":"1","NO_":"1","CREATED_USER":null,"CREATED_DATE":null,"LAST_EDITED_USER":null,"LAST_EDITED_DATE":null,"GLOBALID":"{8E544006-114C-44EA-BC56-1B81F010CE4D}","SHAPE.AREA":7000830.92299493,"SHAPE.LEN":11670.530056483401}},{"type":"Feature","id":14,"geometry":{"type":"Polygon","coordinates":[[[-84.34906081063185,33.76962917139234],[-84.34991771760484,33.769605000074705],[-84.35028104137947,33.76959300909518],[-84.35061002683541,33.769552440725015],[-84.35104808871601,33.76922543264528],[-84.35184255067209,33.76885781029078],[-84.35184211962356,33.768657418400196],[-84.3522531574818,33.76851938809826],[-84.35252042569974,33.76847318192236],[-84.35253903572723,33.76843300235499],[-84.35256819189871,33.76837005096311],[-84.35276019616282,33.76839266362311],[-84.35345859155926,33.76799082264174],[-84.35406738579287,33.7673715446959],[-84.35528385664703,33.76601623610391],[-84.35513247520255,33.765758818793195],[-84.3548905488827,33.76484883103519],[-84.35534993908034,33.764506832773264],[-84.35638274896412,33.76382740488676],[-84.35735510657152,33.76333923770069],[-84.35710991768926,33.764061030785236],[-84.35793947210722,33.7640941020096],[-84.35897232831762,33.76386152849576],[-84.35950965783314,33.763874693769104],[-84.35958795767799,33.76362297650602],[-84.35982224181562,33.763116855957556],[-84.35993923236055,33.76311826515098],[-84.36022458234548,33.76265893904625],[-84.36074626079501,33.76204031437253],[-84.36112524288261,33.76168018677412],[-84.36112771313232,33.761436038266126],[-84.36165345651642,33.76127907297644],[-84.36275925007813,33.760508010588396],[-84.36336432123588,33.75999175132289],[-84.36404299983984,33.75929330022845],[-84.36430203775494,33.758901947148836],[-84.36448302675117,33.758545148298175],[-84.3648272067724,33.757636209504994],[-84.36486392031588,33.75749943891573],[-84.3649501422299,33.75708765341187],[-84.36532441842573,33.755300098042404],[-84.36532382902897,33.754687925433835],[-84.36535049885705,33.75468186306108],[-84.36535300824126,33.75442903030838],[-84.36627924330492,33.7533361902027],[-84.36686455177195,33.75269426258123],[-84.36386612781295,33.75349754354179],[-84.3626879534184,33.7537314204475],[-84.36040180522691,33.754145117690975],[-84.35876196881885,33.754441831008705],[-84.35746033779698,33.75476447922931],[-84.35670112913878,33.75504900277272],[-84.35631238981439,33.75523617025853],[-84.35554977713922,33.75560334400474],[-84.35474896117921,33.756137040292806],[-84.35473733505685,33.75614578693267],[-84.35368138931341,33.75694023573368],[-84.3533872851833,33.75723840754969],[-84.35268955765905,33.75790934758376],[-84.35262882948491,33.75795447856774],[-84.35212672543673,33.758327629289795],[-84.35207697370292,33.75836460246378],[-84.35172458144083,33.75862648773902],[-84.35040366434058,33.75959034934392],[-84.34964376153927,33.76005524527951],[-84.34961690160503,33.760318658519374],[-84.34961691464808,33.760324797868826],[-84.34961765576867,33.760673639861864],[-84.34983856085437,33.761400453635346],[-84.35003254472153,33.76192233104097],[-84.35003850116546,33.761938355417115],[-84.35006046854068,33.76259675702364],[-84.35065683609072,33.7625844185135],[-84.3514525666481,33.76283515304198],[-84.3515372122226,33.76277913272753],[-84.35193002299447,33.76320125837013],[-84.35199976338626,33.76326314873572],[-84.35144436414656,33.76368678072253],[-84.35065002627448,33.764305710568465],[-84.35063996530315,33.76431355012134],[-84.35093698212235,33.76456870804261],[-84.35106577384948,33.764679347954534],[-84.35070053938476,33.76494580713957],[-84.35069616530572,33.764948998304135],[-84.35047638154659,33.76475465863081],[-84.35018893633605,33.76497838194291],[-84.35044990162766,33.765195562828424],[-84.3494506337341,33.765952815031035],[-84.35020012438994,33.7670109227751],[-84.34948748790544,33.76716656897222],[-84.3495837437509,33.76729811382481],[-84.34974894405022,33.76761277152809],[-84.34979052747215,33.767824554325],[-84.34976323947986,33.76788757533236],[-84.34980518847024,33.76827112262775],[-84.34906477904659,33.76826649352958],[-84.34906081063185,33.76962917139234]]]},"properties":{"OBJECTID_1":14,"OBJECTID":0,"ID":0,"SPI":" ","SUBAREA":" ","TSA":" ","ACRES":336.34466065,"ZONING":"HD20LSA1","DIST_1":"Inman Park Historic District","DIST_2":"Sub Area 1","DIST_3":"1","NO_":"10","CREATED_USER":null,"CREATED_DATE":null,"LAST_EDITED_USER":null,"LAST_EDITED_DATE":null,"GLOBALID":"{A58505D7-D8AD-4E55-8F41-F878E4A12977}","SHAPE.AREA":14651114.8133641,"SHAPE.LEN":20873.408053778603}},{"type":"Feature","id":15,"geometry":{"type":"Polygon","coordinates":[[[-84.37644570756076,33.74647447772262],[-84.37701538141539,33.746473508463545],[-84.37702411138602,33.746223843851105],[-84.37809532972462,33.74621247002885],[-84.37809538622011,33.74623549282798],[-84.37860600610588,33.74624034286567],[-84.37861319788156,33.746377742959695],[-84.37929519918121,33.74639660961533],[-84.37929341679336,33.746135338802546],[-84.37929250142851,33.7460010296344],[-84.3792898295459,33.74560935826446],[-84.37928895507058,33.74408626696971],[-84.378834497599,33.744046668954624],[-84.37821869078235,33.74391312540173],[-84.37820766989694,33.744463516465004],[-84.37820715183291,33.74446351915595],[-84.37821863425889,33.74389010259413],[-84.37883444091071,33.74402364614842],[-84.37928889826077,33.74406324416435],[-84.37928527986355,33.74290430399056],[-84.38041524211643,33.74290235298856],[-84.3804887116131,33.74240292694617],[-84.38105835840085,33.7424019391368],[-84.38109290825174,33.74206305989475],[-84.38102103042907,33.742063184700584],[-84.38101311164623,33.74176896341876],[-84.38105622239199,33.741762884436866],[-84.38105552027017,33.74148066068516],[-84.38101919326047,33.74132459822372],[-84.38100456457457,33.7412225434107],[-84.38109083141222,33.74122839776337],[-84.38105416086795,33.74093422637193],[-84.38106103505943,33.74080811407449],[-84.38102511160821,33.74081418148218],[-84.38101713213109,33.740495941901166],[-84.38116077946454,33.740453658989544],[-84.3811818188359,33.74024345425095],[-84.38051342187492,33.74026262877774],[-84.38051780739008,33.739133720931996],[-84.38061123004536,33.73912755315584],[-84.3806376394179,33.738184755049275],[-84.38055139055707,33.738184904477016],[-84.3805578182264,33.737878648947884],[-84.3798677576617,33.73784981985786],[-84.37987954827666,33.736804965755745],[-84.37984316600865,33.736624884555766],[-84.3798763250414,33.735501931414014],[-84.37948817436259,33.735484585872115],[-84.37949472319225,33.73522636768275],[-84.37953037750967,33.73511221582818],[-84.3795372979995,33.73500411673772],[-84.37945105231518,33.73500426538462],[-84.37945792843048,33.73487815394954],[-84.3795226266163,33.73488404658375],[-84.37950780808416,33.734703928954815],[-84.37957249131246,33.73470381744783],[-84.37957161626149,33.73434953673981],[-84.37960732945129,33.73425940221494],[-84.37959880713282,33.73371898552346],[-84.37952692251444,33.7337131053141],[-84.3795267594066,33.73364705191495],[-84.37959142701112,33.73364093628437],[-84.37959778368145,33.73330465727734],[-84.37959727937785,33.733100494751625],[-84.3798991320613,33.73309997389321],[-84.37991677119932,33.731514677310834],[-84.37850090792,33.73149309491438],[-84.3785237380672,33.72908513091911],[-84.37781224767895,33.729080344399414],[-84.37781824340033,33.72859394502107],[-84.37667556283455,33.7285898893406],[-84.37662494977735,33.72846387477237],[-84.37508702397241,33.72846647987427],[-84.37363529390433,33.72845090624665],[-84.37323271608199,33.728397537535045],[-84.3732315651805,33.727917156176666],[-84.37294410415876,33.727917636661374],[-84.37295110421222,33.72783956111462],[-84.37054356314133,33.72781954072787],[-84.37052220253779,33.72790364309636],[-84.36900576097557,33.727870108475955],[-84.36900477455946,33.72744977362809],[-84.36840826809772,33.72743874030454],[-84.36840134825411,33.72755284308074],[-84.36722993536605,33.72754874600031],[-84.36628424228337,33.72757103802493],[-84.36582619716256,33.72757498565377],[-84.36582627825109,33.72763905563948],[-84.3658139411937,33.72816432910118],[-84.3653297927355,33.72816418197607],[-84.36532756120812,33.728440531532925],[-84.36488196711538,33.72842923833383],[-84.36488228462754,33.72856734768867],[-84.36408491701917,33.7287187448942],[-84.36442400919412,33.72929466378187],[-84.36450355835164,33.7295107091643],[-84.36460968457017,33.730620183014665],[-84.36352038850346,33.73032315498958],[-84.36350064319856,33.730369802238066],[-84.36325143160232,33.73106791469151],[-84.36161761617923,33.7308843924111],[-84.36100925853111,33.73200224530061],[-84.36106707762102,33.73214626823661],[-84.36050273014287,33.7336663701538],[-84.36165266532628,33.7336705647928],[-84.3616608985477,33.73413292052261],[-84.3619771015835,33.734120410712706],[-84.361977196824,33.73416244498275],[-84.36231498813808,33.73416191025252],[-84.36231603758807,33.73462427817811],[-84.36286946990546,33.73463540926553],[-84.3628785299068,33.73545805267919],[-84.36190827691382,33.735465595625215],[-84.36191067081907,33.7365224345459],[-84.3615944182229,33.73651693004685],[-84.36157486634097,33.73740567035914],[-84.36102145699125,33.73741254679884],[-84.36100047632065,33.73767078674563],[-84.36275420190643,33.737674018381774],[-84.36284030001221,33.73760782976476],[-84.36403341143233,33.737611933523006],[-84.36396725682394,33.74011003268537],[-84.36396258470391,33.741208917283615],[-84.36395572669528,33.74135304196032],[-84.36390323472156,33.74257043001254],[-84.36389749143878,33.74272021888822],[-84.36413034967664,33.74281246313163],[-84.36380327168821,33.74383326409389],[-84.36378396110597,33.74481808023571],[-84.36377949275845,33.74600703467461],[-84.36423235327199,33.746012315878005],[-84.36423300040701,33.74629453881936],[-84.36503809074843,33.74630525705598],[-84.3652322242486,33.746328965120256],[-84.36670581849992,33.74634459965268],[-84.367740927414,33.74635492826726],[-84.36774619120808,33.746252661008505],[-84.3677488206074,33.74610056347302],[-84.36774926426922,33.74610104964505],[-84.3677462449383,33.746275683822496],[-84.36812320294852,33.74627506931288],[-84.36812274778666,33.74608040147718],[-84.36855453490632,33.74607969617557],[-84.36855448096053,33.746056673362006],[-84.36968401224061,33.74604963937017],[-84.36967792819497,33.746003440371766],[-84.3701547188358,33.74600550019421],[-84.37017874749641,33.746022637148215],[-84.37131993153105,33.746035064602204],[-84.37139866113161,33.74599771819796],[-84.37181673345563,33.745994161470094],[-84.37181381098202,33.746206011448145],[-84.37329769224624,33.746220713474315],[-84.37338331719384,33.74620053082422],[-84.37349297038695,33.746197484422495],[-84.37414753940578,33.74621069995205],[-84.37414763591771,33.74625077842305],[-84.37448347802768,33.74625307634239],[-84.37448342969357,33.74623303710736],[-84.37489465505892,33.74623234423916],[-84.37489466358512,33.746229173098776],[-84.3748953896949,33.74645369786919],[-84.37531564149675,33.746452988372596],[-84.37531496136647,33.746172132538284],[-84.37585663601367,33.74617901707634],[-84.37585692013701,33.74629604078884],[-84.37644527067931,33.74629504251659],[-84.37644570756076,33.74647447772262]],[[-84.36967531808062,33.745983620839944],[-84.36967489495908,33.74598040442467],[-84.36968402211807,33.745490856546496],[-84.37139747725182,33.74549947730849],[-84.37256162606688,33.74550929902116],[-84.37266789659114,33.745510194726094],[-84.37338167539929,33.74551621046857],[-84.37489640735458,33.745539429928776],[-84.37489634534545,33.7455624520319],[-84.37420945744854,33.745551924925046],[-84.37416174293408,33.74555119363226],[-84.37338173063597,33.74553923417888],[-84.37139753195827,33.74552250102172],[-84.37091623585266,33.745520081964145],[-84.37091496115083,33.74552007505635],[-84.3696840763645,33.745513879360566],[-84.36967531808062,33.745983620839944]],[[-84.3754242835684,33.74367142197854],[-84.37584447186832,33.7436465905945],[-84.37584635606206,33.743646479203534],[-84.37660037255618,33.74363712420928],[-84.37710636529852,33.74366856649069],[-84.37719339500784,33.743679185712345],[-84.37719245368434,33.74370208759789],[-84.37710642152436,33.74369158930078],[-84.37660042864675,33.74366014702023],[-84.3758464119512,33.74366950201554],[-84.37542433934483,33.74369444479112],[-84.3754242835684,33.74367142197854]],[[-84.36671647452087,33.745438448911756],[-84.36671623058567,33.74543844570036],[-84.36672111252719,33.7448495224162],[-84.36672961596356,33.74382382333419],[-84.36775490791348,33.74411415935454],[-84.36815239715843,33.744104923953394],[-84.36816610249663,33.74276237477275],[-84.3681663917692,33.74276238421892],[-84.3681524509928,33.74412794677481],[-84.3677549616438,33.74413718307813],[-84.36672966941723,33.743846846158675],[-84.36671647452087,33.745438448911756]],[[-84.36741502510917,33.74090280922755],[-84.36737406748433,33.740928576655875],[-84.3673739114833,33.740905618005456],[-84.3674166442815,33.740126874396125],[-84.3681568066581,33.740128531554284],[-84.3681567460866,33.7401515554789],[-84.36741669791337,33.740149898135115],[-84.36741502510917,33.74090280922755]],[[-84.3788173873574,33.74494972466098],[-84.3788947378769,33.74495497551755],[-84.37889479458333,33.744977998320174],[-84.37881744404311,33.744972747463734],[-84.37881255550533,33.74557801628272],[-84.37881236933667,33.74560103679545],[-84.3780937986183,33.745588510123],[-84.3780937421246,33.74556548732148],[-84.37881231265317,33.74557801489671],[-84.3788173873574,33.74494972466098]],[[-84.368919684371,33.74250910692555],[-84.36891962704611,33.742512733484695],[-84.36891396009484,33.74153017167778],[-84.36815321992067,33.74152568990269],[-84.36815328049428,33.74150266688484],[-84.36891390606228,33.741507148847695],[-84.368919684371,33.74250910692555]],[[-84.36767432792873,33.74599589964212],[-84.3676736256435,33.74599512896734],[-84.36768881936175,33.745474191878266],[-84.36768954469179,33.74547420151718],[-84.36767432792873,33.74599589964212]],[[-84.36743611456333,33.74260039644079],[-84.3674249623916,33.7427148835634],[-84.3674226730367,33.74271480793996],[-84.36743429743849,33.74259547274051],[-84.36743611456333,33.74260039644079]],[[-84.3754852916006,33.743748181454556],[-84.37548569525899,33.743748180771846],[-84.37547771315785,33.74427703493955],[-84.37547730949044,33.744277032917275],[-84.3754852916006,33.743748181454556]],[[-84.37591188585446,33.74430200883135],[-84.37591239637561,33.744302011572785],[-84.37590711134686,33.74456972963558],[-84.3759066008438,33.74456973500901],[-84.37591188585446,33.74430200883135]],[[-84.36854885428637,33.74511781623671],[-84.36854911226453,33.74511782483144],[-84.36855294488969,33.745401102902136],[-84.36855299883374,33.74542412571815],[-84.36854885428637,33.74511781623671]]]},"properties":{"OBJECTID_1":15,"OBJECTID":0,"ID":0,"SPI":" ","SUBAREA":" ","TSA":" ","ACRES":763.10944278,"ZONING":"HD20KSA2","DIST_1":"Grant Park Historic District","DIST_2":"Sub Area 2","DIST_3":"2","NO_":"8","CREATED_USER":null,"CREATED_DATE":null,"LAST_EDITED_USER":null,"LAST_EDITED_DATE":null,"GLOBALID":"{08E7010D-BD76-4B38-84C1-CF9A47423F02}","SHAPE.AREA":33240914.3635154,"SHAPE.LEN":42043.777259488605}},{"type":"Feature","id":16,"geometry":{"type":"Polygon","coordinates":[[[-84.39523525945249,33.75254040383225],[-84.39523929374315,33.75253531102787],[-84.39539074282084,33.75234412398511],[-84.3952866330521,33.7522870058226],[-84.39525747563812,33.75227100854988],[-84.3950857710813,33.75217680044368],[-84.39494776106444,33.752101079547835],[-84.39465247766601,33.75193906669414],[-84.39465231166008,33.751939150854646],[-84.39435825000947,33.75177789062126],[-84.39434070220796,33.75180038502013],[-84.39417876546624,33.75200798311672],[-84.39447562477542,33.7521677824349],[-84.39446207486844,33.7521853058604],[-84.39438213716986,33.752288677527176],[-84.39432609998998,33.752361143214806],[-84.39462279409858,33.7525211750982],[-84.3947683569677,33.75259967121551],[-84.39485661262127,33.752482101795835],[-84.39501819719057,33.75257233099596],[-84.39504931658239,33.752533193893306],[-84.39518197234725,33.752607673082245],[-84.39523525945249,33.75254040383225]]]},"properties":{"OBJECTID_1":16,"OBJECTID":0,"ID":0,"SPI":" ","SUBAREA":" ","TSA":" ","ACRES":1.21986617,"ZONING":"LD20H","DIST_1":"Hotel Row Landmark District","DIST_2":" ","DIST_3":" ","NO_":"9","CREATED_USER":null,"CREATED_DATE":null,"LAST_EDITED_USER":null,"LAST_EDITED_DATE":null,"GLOBALID":"{8239D6FC-4257-4752-9EB1-8ECB7E21556C}","SHAPE.AREA":53137.1579748813,"SHAPE.LEN":1116.72519530825}},{"type":"Feature","id":17,"geometry":{"type":"Polygon","coordinates":[[[-84.35250023419654,33.77660226372122],[-84.35250035107249,33.774901253394845],[-84.35250807884273,33.77413687907454],[-84.35210016564957,33.77414134000232],[-84.35066474547699,33.7741511001668],[-84.34972890982502,33.77415821825069],[-84.34898504319679,33.77416218124304],[-84.34897344648218,33.77511139002944],[-84.34867832231208,33.775468072272496],[-84.34783188863418,33.77653222111694],[-84.34790911318927,33.776568103504744],[-84.34827523024155,33.776723708968944],[-84.34842365098872,33.77678679008506],[-84.34844805927905,33.77668820260233],[-84.34856597700755,33.77664199498009],[-84.35091027782785,33.776642007644945],[-84.35127202322765,33.77664199000933],[-84.35220482064375,33.77664199230797],[-84.3522044056329,33.776598736150625],[-84.3524241320996,33.77660208796183],[-84.35250023419654,33.77660226372122]]]},"properties":{"OBJECTID_1":17,"OBJECTID":0,"ID":0,"SPI":" ","SUBAREA":" ","TSA":" ","ACRES":24.69871222,"ZONING":"HD","DIST_1":"Atkins Park","DIST_2":" ","DIST_3":" ","NO_":"2","CREATED_USER":null,"CREATED_DATE":null,"LAST_EDITED_USER":null,"LAST_EDITED_DATE":null,"GLOBALID":"{E3AFDDB9-20A5-468C-9F34-9F552A51D644}","SHAPE.AREA":1075871.60100317,"SHAPE.LEN":4425.522285761411}},{"type":"Feature","id":18,"geometry":{"type":"Polygon","coordinates":[[[-84.4844544214538,33.78002890815152],[-84.48443173102837,33.78050773111711],[-84.48443159019975,33.78051111536646],[-84.48441865378562,33.780822289523016],[-84.48454072877777,33.78083248654454],[-84.48491517778729,33.78086375896044],[-84.48506499251144,33.781024638627926],[-84.48546685283586,33.78109593493839],[-84.48545114811743,33.78135488563065],[-84.48549024063817,33.781361703884954],[-84.48583329799648,33.78142153587059],[-84.48583356056899,33.78141925762788],[-84.4859080392979,33.781413509916675],[-84.48591766930285,33.781391840936074],[-84.48591838759103,33.78136251206548],[-84.48596061384626,33.78129110768012],[-84.48596172444024,33.781289229378025],[-84.4859637302325,33.78128707826514],[-84.48601663256701,33.78123034400459],[-84.48609048597336,33.78117690511454],[-84.48617590830418,33.78113752177657],[-84.48626383912715,33.781108094195005],[-84.48634516549299,33.781073874268145],[-84.48638677332605,33.7810573122934],[-84.4863877549606,33.78105734581604],[-84.48658310832035,33.7809819657417],[-84.48661160785706,33.78097096838438],[-84.48662730729558,33.780965928039265],[-84.48673133745275,33.780929622984836],[-84.486823373186,33.780898464914614],[-84.48691706148537,33.7808683357761],[-84.48704526844476,33.780828840795174],[-84.48714238195507,33.78080054466065],[-84.48719579562291,33.78078339363262],[-84.48723094604784,33.78076941153223],[-84.48789157638619,33.78050091482109],[-84.48808112696445,33.78042387582562],[-84.48814371136599,33.78039623146204],[-84.48822011170256,33.78036408249771],[-84.48829816009105,33.78033261714837],[-84.48837620924719,33.78030252766313],[-84.48841401993083,33.78028857796315],[-84.4886800987287,33.780180433593365],[-84.48869623923308,33.780173873458445],[-84.48874668989421,33.78016090773034],[-84.48882399159622,33.78013371600746],[-84.48890783387337,33.7801118575385],[-84.48899251836256,33.78009548785138],[-84.48900818866235,33.78009370223036],[-84.48901817543441,33.78009113529837],[-84.48903326718042,33.78009084341351],[-84.48924390706831,33.78008677564786],[-84.48925848631264,33.78008773836636],[-84.4893463041458,33.78009353538555],[-84.48943851713051,33.780110124396984],[-84.4895295719344,33.78009745697883],[-84.48952867405556,33.7801318301632],[-84.48963151425335,33.780145298571576],[-84.48973501544627,33.78015736941198],[-84.489879238126,33.78017418799062],[-84.48990151363468,33.78017306660202],[-84.4901923000465,33.78007803455207],[-84.49019783132036,33.78007622667208],[-84.49128280001041,33.78008745212488],[-84.49128282389748,33.78008748722634],[-84.49128294005953,33.78008765372571],[-84.4914145729922,33.78008903314523],[-84.49142311641117,33.78008913508953],[-84.49158766690451,33.780091112042854],[-84.4918198650887,33.78009390687264],[-84.49208625965997,33.78009711421249],[-84.49233432124848,33.78010008624273],[-84.49257020597791,33.780102937555],[-84.49278104459395,33.78010548042361],[-84.49304648463833,33.78010866567156],[-84.49325811259041,33.780111211047156],[-84.49349768269985,33.78011409321018],[-84.49375351146136,33.780117169849774],[-84.49400167252479,33.78012015178893],[-84.49424749582404,33.78012310607373],[-84.49449970511115,33.78012613667529],[-84.49488211636951,33.78013072481228],[-84.4949641201415,33.78013171759279],[-84.49504663246155,33.780132705358945],[-84.49552384542939,33.78013844216428],[-84.49552388860441,33.780132222480326],[-84.49552559611351,33.77988878915601],[-84.49552704130656,33.77968266762583],[-84.49552802145564,33.77954302765572],[-84.49552848434087,33.77947654699619],[-84.49552992315695,33.77927045342035],[-84.49553136078727,33.77906433279136],[-84.49553279949123,33.77885821125099],[-84.49553423721963,33.778652117657465],[-84.49553567592172,33.778445997005036],[-84.49553711353799,33.77823987544696],[-84.49553855233813,33.77803378182996],[-84.4955399942714,33.77782766114832],[-84.49554143187972,33.77762153956965],[-84.49554286851247,33.777415445937855],[-84.49554355715307,33.77731678301374],[-84.49554760546934,33.776736290858885],[-84.49553432648197,33.776394516647684],[-84.49553390319795,33.776035666095375],[-84.49553373992289,33.77589828231027],[-84.49553346730518,33.775678314997755],[-84.49553338487001,33.77561153279587],[-84.49553315093657,33.7754234440662],[-84.49553291115315,33.77522958479371],[-84.49553267340278,33.77503795168081],[-84.4955324412389,33.77485060498598],[-84.49553219878227,33.77465462953255],[-84.4955319646907,33.77446621077064],[-84.49553173080064,33.774276995846385],[-84.4955314991096,33.77408044329069],[-84.49553124446967,33.77387844843618],[-84.49553084964526,33.77356572873501],[-84.4955306863068,33.77342831694401],[-84.49553024060579,33.77306893250282],[-84.49553023984171,33.77306788478848],[-84.49552970782615,33.772638148473355],[-84.49552928287414,33.77259785309789],[-84.49552883555009,33.772577699724316],[-84.49552821981109,33.77255754950437],[-84.49552743566068,33.77253740333969],[-84.4955264820228,33.77251726213484],[-84.49552473635212,33.772487062437946],[-84.49552336063445,33.77246693858724],[-84.49552181759934,33.7724468223955],[-84.4955191867815,33.77241666743426],[-84.49551617709842,33.772386536925175],[-84.4955139605278,33.77236646490525],[-84.49551157666441,33.7723464068557],[-84.49550902334914,33.77232636278228],[-84.49550630382787,33.7723063344796],[-84.4955019083271,33.77227632307318],[-84.49549876898487,33.77225633736464],[-84.4954954623712,33.772236371036264],[-84.49549198956583,33.77221642408514],[-84.49548834841306,33.77219649741864],[-84.49548454107916,33.772176592834356],[-84.49548056756771,33.77215671123382],[-84.49547642680258,33.77213685352157],[-84.49547211986358,33.77211701969472],[-84.49546764784074,33.772097212455286],[-84.49546300965115,33.772077430904474],[-84.49545820530518,33.77205767774721],[-84.4954532358792,33.77203795207896],[-84.4954481013836,33.77201825660458],[-84.49544280290162,33.77199859222286],[-84.4954373382706,33.771978958037884],[-84.49543171073992,33.77195935674589],[-84.49542296144833,33.771930017841534],[-84.49541384322107,33.77190075746096],[-84.49540435930783,33.77187157830042],[-84.49539783210726,33.771852172355835],[-84.49539114418765,33.77183280470817],[-84.49538429231706,33.77181347716934],[-84.4953772797345,33.77179418973068],[-84.49531008346982,33.771613835033904],[-84.49456113225754,33.769604567007114],[-84.49455168815868,33.769579744434054],[-84.49454202836586,33.769554981040386],[-84.49453215395543,33.769530275921575],[-84.49452460606605,33.7695117878081],[-84.49451435528607,33.76948719008209],[-84.49450652593116,33.76946878296186],[-84.49449590095854,33.76944429713097],[-84.49448506247266,33.76941987588331],[-84.49446840631126,33.76938336904488],[-84.49445416298042,33.76935306365445],[-84.49443663560143,33.7693168431447],[-84.49441863489953,33.76928078438277],[-84.49440016520744,33.76924489096363],[-84.49438441569389,33.76921511071733],[-84.49436508893928,33.769179534243946],[-84.49434862792438,33.76915002277016],[-84.49433184783386,33.76912063747041],[-84.49369950411453,33.768026171624726],[-84.49363157785386,33.76790090322195],[-84.49364515711879,33.76789635809664],[-84.49224456599984,33.76608421290554],[-84.49219211718895,33.765485578769784],[-84.49159677409367,33.76474770842095],[-84.49158929891667,33.76473876749619],[-84.49158594034752,33.764734750467795],[-84.49021322914068,33.76430405201788],[-84.48956781731749,33.76397650709031],[-84.4892641776822,33.76382240827295],[-84.4892641214379,33.76382237956714],[-84.48751263724155,33.76292177655734],[-84.48720247206667,33.76276228688712],[-84.4867717869447,33.76254082208316],[-84.48650702469095,33.76240467655898],[-84.48648819111655,33.76239246741277],[-84.48557494603763,33.76180085948663],[-84.48515151128588,33.76152654609562],[-84.48512624386179,33.761510176890376],[-84.48484971269697,33.76141864117991],[-84.48482029670181,33.76131197321611],[-84.4844678084787,33.76108361566402],[-84.484466455849,33.76108274003647],[-84.48445643277682,33.761077544378736],[-84.48391123874094,33.76079493112054],[-84.48356313604533,33.760614481550526],[-84.48322845514637,33.76049771898054],[-84.48264315161701,33.76029351586535],[-84.4824601501861,33.760229669375306],[-84.48219928070856,33.76013865475615],[-84.48163680074516,33.7600581555021],[-84.48038736403394,33.75987933259701],[-84.4801521446492,33.7598443753558],[-84.47738938132183,33.759433758036415],[-84.47722648949187,33.75940954385031],[-84.47623529274153,33.7592570793272],[-84.47618172984551,33.75924884000238],[-84.47491358734737,33.75906746854286],[-84.47415048861555,33.7590734120444],[-84.4741459455915,33.75907266326814],[-84.47300465988559,33.75888462561816],[-84.47061330030664,33.758808474936004],[-84.46988142541254,33.75903788429922],[-84.46984786222978,33.75903739238565],[-84.46963072388904,33.75903421160148],[-84.46936087226163,33.75903025715347],[-84.46928257801811,33.75898734293388],[-84.46934688630755,33.759451021237226],[-84.46951743907904,33.760231790579034],[-84.46987293012732,33.76238778247402],[-84.4698207395824,33.76247168401503],[-84.46848734712174,33.76246099044201],[-84.46847179271384,33.76355455327145],[-84.46848259885299,33.76362688347683],[-84.47003693313046,33.76362596373805],[-84.47002029480429,33.765207271973075],[-84.47003603383695,33.76593860759648],[-84.47006428260735,33.766251837554734],[-84.47009203965189,33.76642456532762],[-84.47012966591697,33.7665962355326],[-84.47020629369398,33.7668646885981],[-84.47030760936596,33.76713445498654],[-84.47044932654246,33.76743057177347],[-84.47060987549479,33.76770018937646],[-84.47069280509946,33.767793728858706],[-84.47080002344374,33.76791466460256],[-84.47120536942154,33.76836688705785],[-84.4719485212641,33.769143490292564],[-84.47301622947742,33.77026555805811],[-84.47315831635201,33.77042975828136],[-84.47333602759724,33.77066428961026],[-84.47342740926935,33.77091209207188],[-84.47347276590197,33.77117374641836],[-84.47350939451294,33.77175662717987],[-84.47368736300834,33.77524974051849],[-84.47375523130303,33.77524691810411],[-84.47440722597817,33.77524222208764],[-84.47439734504427,33.77499956503535],[-84.47531129656632,33.77498231711647],[-84.47532332288233,33.775329634905354],[-84.4759420001688,33.7753094516316],[-84.47600490609207,33.775301207977655],[-84.47607389728098,33.77538189134862],[-84.47674578443788,33.775382390618006],[-84.47674642679128,33.775560680266246],[-84.47674688026457,33.775686543978246],[-84.47674703555163,33.77572694740039],[-84.4767470833476,33.775739314303756],[-84.47679655108749,33.77573933787243],[-84.4770926328938,33.775736144588045],[-84.4770926330339,33.775739476182274],[-84.47743816867766,33.77573963712853],[-84.47743812737572,33.77572520903886],[-84.47743794579746,33.77567791347675],[-84.47743594680165,33.775189196562344],[-84.47743300358773,33.775189206678704],[-84.47743275567672,33.77512054849824],[-84.47743273241515,33.7751141062712],[-84.47903701854781,33.77510433058715],[-84.47903637122155,33.77518389377134],[-84.47903749626755,33.77523595396462],[-84.47904131521359,33.77541267208977],[-84.47904151387628,33.77541267158694],[-84.47926180595852,33.77541211379461],[-84.47926180605675,33.77541214084384],[-84.47926180894844,33.775412936992915],[-84.47926225420018,33.7755355250158],[-84.47926271911622,33.77572060089251],[-84.4792631375306,33.77588722462827],[-84.47926353083963,33.775887009039515],[-84.47926610619716,33.775885595041565],[-84.47926629217154,33.77593679652993],[-84.47926630261207,33.77593967096146],[-84.47914643340094,33.7760403812975],[-84.47912994427077,33.77605885907064],[-84.47904490114837,33.77619092434107],[-84.47885887323376,33.77649284708287],[-84.47865726683503,33.77682005058798],[-84.47864581328923,33.77683794391873],[-84.47859590810042,33.77691639362989],[-84.47855419717561,33.77698451856447],[-84.47851495597513,33.77705366782855],[-84.47847574133807,33.777131059889044],[-84.47846106777693,33.77716230574532],[-84.47844553596165,33.7771953769026],[-84.47841861858558,33.7772603708555],[-84.4783909115345,33.777333612378015],[-84.47836846975855,33.77739091927451],[-84.4784268095001,33.77737098702043],[-84.47843009018253,33.77736933232124],[-84.47842769487133,33.777376351399354],[-84.47870848012673,33.777230149836306],[-84.47907014490802,33.777488696076915],[-84.47929279857766,33.777647832317385],[-84.479294006352,33.77764622522406],[-84.47949309560896,33.77778808929231],[-84.47967909550563,33.77792062711822],[-84.47967739942099,33.777922752098654],[-84.47993001712638,33.778103329018954],[-84.4802241787653,33.778313564196296],[-84.48020258638626,33.77832368326284],[-84.48013451517458,33.77835558521699],[-84.47981021365631,33.77850756819764],[-84.47980330108804,33.77851080732972],[-84.48009031297246,33.77870362576659],[-84.48015841903337,33.778749380061676],[-84.48022748849247,33.77879578105786],[-84.48022920299313,33.77879485701963],[-84.48041169629892,33.77892156354132],[-84.48059535056674,33.77904907561446],[-84.48080289483534,33.779193174641556],[-84.4811272885268,33.77941839810063],[-84.48136000591641,33.77957997089796],[-84.4813794627615,33.77959348027263],[-84.4815973594664,33.779744763828354],[-84.48183534286092,33.77990999288757],[-84.48198298081226,33.78001249474689],[-84.48200874348439,33.78001270572235],[-84.48209830437577,33.78001343888706],[-84.48216319749751,33.78001396906921],[-84.48231709218537,33.78001522824348],[-84.48242962882026,33.78001614944815],[-84.48248105914313,33.78001656964707],[-84.48254387368422,33.78001708511221],[-84.48271672083793,33.78001850175128],[-84.483068616346,33.780021375207305],[-84.48330403616494,33.78002329869515],[-84.48334408983582,33.78002362419903],[-84.48334478088648,33.78002362603223],[-84.48344239801887,33.78002352335844],[-84.48366805752966,33.78002328560991],[-84.48396318246337,33.78002491289494],[-84.48396380118102,33.78002491761562],[-84.48396380264434,33.78002297185428],[-84.48415649516885,33.78002277018618],[-84.48445190447265,33.78002245702638],[-84.48445576134789,33.7800224534057],[-84.4844544214538,33.78002890815152]]]},"properties":{"OBJECTID_1":18,"OBJECTID":null,"ID":null,"SPI":null,"SUBAREA":null,"TSA":null,"ACRES":1021.19425083,"ZONING":"HD20Q","DIST_1":"Collier Heights","DIST_2":null,"DIST_3":null,"NO_":null,"CREATED_USER":null,"CREATED_DATE":null,"LAST_EDITED_USER":null,"LAST_EDITED_DATE":null,"GLOBALID":"{6AA9E5B9-F3AF-4A01-9678-42AEC9293640}","SHAPE.AREA":44483043.6336219,"SHAPE.LEN":29986.7233517843}},{"type":"Feature","id":321,"geometry":{"type":"Polygon","coordinates":[[[-84.38476329404358,33.795098132755115],[-84.38453719978476,33.79547860437988],[-84.38444651868019,33.795634006815426],[-84.3845940605828,33.79566150085318],[-84.38450192350399,33.79584116476472],[-84.38432053688102,33.79619486008269],[-84.38533637135176,33.796198759522795],[-84.38555693893093,33.79619975062091],[-84.38577679812738,33.79620076873058],[-84.38685027313846,33.79620788762204],[-84.38692436027134,33.795886823346365],[-84.38684345458535,33.7956921322261],[-84.386811596252,33.79542564629081],[-84.38697466755697,33.795430518953935],[-84.38696333797354,33.795345435233784],[-84.38667182355563,33.79536281804671],[-84.38662249994813,33.79536533503315],[-84.38657471533992,33.794974255979035],[-84.38655550944272,33.79481708317309],[-84.38633395254116,33.794708967068956],[-84.38628477364267,33.79463437101725],[-84.38623831061481,33.79456389966488],[-84.38624404738611,33.79454914208085],[-84.38567597623552,33.793690288527955],[-84.38537387318746,33.79383046465266],[-84.38522175063767,33.79367153089382],[-84.38532627801862,33.793623029907174],[-84.38527083036041,33.79354028642094],[-84.38497851170531,33.79367592337497],[-84.38476344236224,33.793349691164],[-84.38420814778007,33.79360734403346],[-84.38416526750417,33.79347003621432],[-84.38409863925942,33.79325904776539],[-84.38471748011696,33.792972491618855],[-84.38474628992329,33.792959149485156],[-84.38463105703065,33.79276702766634],[-84.38474610767432,33.7927135008137],[-84.3846995686041,33.792637683109255],[-84.38492122578799,33.792537571478164],[-84.38453883953608,33.79196386406059],[-84.3843114891778,33.79162275919421],[-84.38409886687488,33.79171810302765],[-84.38387232319923,33.79137348128098],[-84.38408113465842,33.791277141914556],[-84.38399221418672,33.79116116968852],[-84.38372250712008,33.7907486095],[-84.38376572167755,33.79072867282986],[-84.3836454530982,33.790544701669795],[-84.38393554283626,33.79040900051854],[-84.38371380571266,33.790077285168245],[-84.38362767732937,33.78994843849202],[-84.38357153293943,33.78986444662399],[-84.38353143033486,33.78980445280155],[-84.38349440397563,33.789664191383544],[-84.38344265430453,33.78965190806799],[-84.3834709064876,33.78954922000388],[-84.38332405153426,33.78950289871695],[-84.38277848563268,33.78920998699106],[-84.38211532179005,33.78896949729184],[-84.38163642287094,33.78945192281871],[-84.38165748220955,33.78945693176025],[-84.3817897127336,33.789679961560196],[-84.38182643688332,33.789953069525],[-84.38184479850409,33.79008962214692],[-84.38189762302432,33.790080024818906],[-84.38191712118204,33.79023786430101],[-84.38193608874658,33.790350651960324],[-84.38190384156063,33.790347384735774],[-84.38182155730466,33.790334886213564],[-84.38174030289171,33.790318342843015],[-84.38169020168618,33.79030547615973],[-84.38165020050822,33.790294696309395],[-84.38160815736927,33.790281794814355],[-84.3815608100866,33.7902672660483],[-84.38154205530022,33.79026063371469],[-84.38149218522352,33.790242998623334],[-84.38146314515534,33.790232729797566],[-84.381459015874,33.79075478687244],[-84.38162325615889,33.79073976338152],[-84.38199000231621,33.790700549520984],[-84.38211347832684,33.79068843941215],[-84.38237800905932,33.79066520695706],[-84.38239058044961,33.7907734253381],[-84.38234090631326,33.791025345679344],[-84.38235209728376,33.791025342346884],[-84.38234794356886,33.79108460332809],[-84.38233877223662,33.79108383943253],[-84.38233435354405,33.79111107337353],[-84.38232917023252,33.791110292588286],[-84.38232295321696,33.79114258071417],[-84.38231704524772,33.79114221324898],[-84.38226806448436,33.79137279118676],[-84.38237595373543,33.791346749609986],[-84.38242141317127,33.79138158020124],[-84.38250176075891,33.79150150335561],[-84.38286708731694,33.79179989407056],[-84.3831487498184,33.7918595330206],[-84.3831782471782,33.79186497952206],[-84.3832054320629,33.79187412954346],[-84.38323047583035,33.791886843931536],[-84.38324415379634,33.791896647002645],[-84.38325271672338,33.79190278302561],[-84.38327155973535,33.79192152680135],[-84.38328651009384,33.79194257751668],[-84.38329716789768,33.791965374147416],[-84.38332490848587,33.7920394924333],[-84.38335482041296,33.79211301902302],[-84.38285925500008,33.792492995950106],[-84.3828585747474,33.79258368595813],[-84.38291114134906,33.79257746352326],[-84.38321078707645,33.79283913496904],[-84.3832128695092,33.792849137820596],[-84.38325508684542,33.79305198174273],[-84.38346260061454,33.79305201401494],[-84.38366914273556,33.7930508746011],[-84.38383175525365,33.79317699613999],[-84.38388508319608,33.79333656274246],[-84.38306957108401,33.79387214734446],[-84.38321038301699,33.79391052243611],[-84.38343326109214,33.79405159353239],[-84.38339539774428,33.79417255319199],[-84.38335784390412,33.79429252498825],[-84.38425231138562,33.79467316802085],[-84.38427455114173,33.79483213283426],[-84.38428894586316,33.79487913025404],[-84.38431247216064,33.794911007136086],[-84.38431355473703,33.79491247311124],[-84.38433624446682,33.79494321718962],[-84.38436914729776,33.79496885162988],[-84.38439279819376,33.79498252397916],[-84.38446580272372,33.795003031170154],[-84.38462600525774,33.795049006468595],[-84.38476329404358,33.795098132755115]]]},"properties":{"OBJECTID_1":321,"OBJECTID":null,"ID":null,"SPI":null,"SUBAREA":null,"TSA":null,"ACRES":32.59422692,"ZONING":"R-4","DIST_1":"Peachtree Circle Histroric District","DIST_2":null,"DIST_3":null,"NO_":null,"CREATED_USER":"SHENDERSON","CREATED_DATE":1776714128000,"LAST_EDITED_USER":"SHENDERSON","LAST_EDITED_DATE":1776714288000,"GLOBALID":"{2A62BD0C-3A10-4268-BF85-90D71FDFF239}","SHAPE.AREA":1419798.84542677,"SHAPE.LEN":9341.403423746311}}],"_source":"https://gis.atlantaga.gov/dpcd/rest/services/LandUsePlanning/LandUsePlanning/MapServer/6 \u00b7 2026-05-05"}