{"type":"FeatureCollection","features":[{"type":"Feature","geometry":{"type":"Point","coordinates":[-84.408415,33.7543403]},"properties":{"amenity":"college","ele":"321","gnis:feature_id":"318484","name":"Morris Brown College","osm_id":358692976,"osm_type":"node"}},{"type":"Feature","geometry":{"type":"Point","coordinates":[-84.4054829,33.7267739]},"properties":{"amenity":"college","ele":"312","gnis:feature_id":"322387","name":"Salvation Army Training College","osm_id":358702762,"osm_type":"node"}},{"type":"Feature","geometry":{"type":"Point","coordinates":[-84.2944452,33.7688851]},"properties":{"amenity":"college","ele":"317","gnis:feature_id":"325858","name":"Agnes Scott College","website":"https://agnesscott.edu/","wikidata":"Q2826926","wikipedia":"en:Agnes Scott College","osm_id":358710274,"osm_type":"node"}},{"type":"Feature","geometry":{"type":"Point","coordinates":[-84.6704906,34.0842658]},"properties":{"addr:floor":"G;1","addr:housenumber":"5198","addr:street":"Ross Road","amenity":"college","check_date":"2025-12-18","ele":"290","gnis:feature_id":"333618","level":"0;1","name":"Chattahoochee Tech - North Metro Campus","operator:type":"public","payment:cash":"yes","payment:credit_cards":"yes","payment:debit_cards":"yes","phone":"+1-770-528-4545","website":"https://chattahoocheetech.edu","wheelchair":"yes","osm_id":358718968,"osm_type":"node"}},{"type":"Feature","geometry":{"type":"Point","coordinates":[-84.3310091,33.5957185]},"properties":{"amenity":"university","ele":"272","gnis:feature_id":"1672404","name":"Clayton State University","osm_id":358776196,"osm_type":"node"}},{"type":"Feature","geometry":{"type":"Point","coordinates":[-84.2358109,33.789822]},"properties":{"amenity":"college","ele":"291","gnis:feature_id":"1687243","name":"Georgia Piedmont Technical College","osm_id":358779792,"osm_type":"node"}},{"type":"Feature","geometry":{"type":"Point","coordinates":[-84.2626599,33.8719661]},"properties":{"amenity":"university","ele":"289","gnis:feature_id":"1687289","name":"Mercer University in Atlanta","osm_id":358779904,"osm_type":"node"}},{"type":"Feature","geometry":{"type":"Point","coordinates":[-84.3579812,33.737051]},"properties":{"amenity":"college","ele":"303","gnis:feature_id":"1695045","name":"Beulah Heights Bible College","osm_id":358781795,"osm_type":"node"}},{"type":"Feature","geometry":{"type":"Point","coordinates":[-84.38601,33.7528842]},"properties":{"amenity":"university","ele":"311","gnis:feature_id":"1695167","name":"Georgia State University","osm_id":358782110,"osm_type":"node"}},{"type":"Feature","geometry":{"type":"Point","coordinates":[-84.3084791,33.7974862]},"properties":{"amenity":"university","name":"Emory University Clairmont Residential Campus","osm_id":491991757,"osm_type":"node"}},{"type":"Feature","geometry":{"type":"Point","coordinates":[-84.3894196,33.7757942]},"properties":{"addr:city":"Atlanta","addr:housenumber":"760","addr:state":"GA","addr:street":"Spring Street Northwest","amenity":"university","education":"university","name":"Center for Spatial Planning Analytics and Visualization","operator":"Mboka","toilets:wheelchair":"yes","website":"https://cspav.gatech.edu/","wheelchair":"limited","osm_id":5846621785,"osm_type":"node"}},{"type":"Feature","geometry":{"type":"Point","coordinates":[-84.0944718,33.8692263]},"properties":{"amenity":"college","name":"College of Prayer International","osm_id":7551804355,"osm_type":"node"}},{"type":"Feature","geometry":{"type":"Point","coordinates":[-84.1219738,33.9014303]},"properties":{"amenity":"college","name":"Gwinnett College","osm_id":7564429717,"osm_type":"node"}},{"type":"Feature","geometry":{"type":"Point","coordinates":[-84.3870791,33.7543408]},"properties":{"amenity":"university","name":"Herzing University, Atlanta","osm_id":8103555711,"osm_type":"node"}},{"type":"Feature","geometry":{"type":"Point","coordinates":[-84.0873706,33.9850684]},"properties":{"amenity":"college","name":"John C. Maxwell Leadership Center","osm_id":8387752513,"osm_type":"node"}},{"type":"Feature","geometry":{"type":"Point","coordinates":[-84.3700419,33.848057]},"properties":{"amenity":"university","name":"Georgia State University Buckhead Center","osm_id":8985941815,"osm_type":"node"}},{"type":"Feature","geometry":{"type":"Point","coordinates":[-84.3880329,33.7934256]},"properties":{"addr:floor":"G;1","addr:housenumber":"1422","addr:street":"West Peachtree Street Northwest","amenity":"college","check_date":"2025-11-13","college":"law","level":"0;1","name":"John Marshall Law School","operator:type":"private","payment:cash":"yes","payment:credit_cards":"yes","payment:debit_cards":"yes","phone":"+1 404-872-3593","website":"https://www.johnmarshall.edu/","wheelchair":"yes","osm_id":13302017733,"osm_type":"node"}},{"type":"Feature","geometry":{"type":"Polygon","coordinates":[[[-84.2980926,33.7690579],[-84.2896231,33.7719385],[-84.2893705,33.7713246],[-84.289295,33.7711413],[-84.290282,33.7711413],[-84.290282,33.7700283],[-84.2925651,33.7699926],[-84.2926576,33.7649123],[-84.2940138,33.7648909],[-84.2940138,33.7645484],[-84.2946146,33.7645484],[-84.2947004,33.7634638],[-84.2947714,33.7633879],[-84.2955305,33.7633901],[-84.2962797,33.7633924],[-84.2962043,33.766789],[-84.2962493,33.7675586],[-84.2962566,33.7676956],[-84.2962704,33.7679192],[-84.2962768,33.768029],[-84.2962902,33.7682588],[-84.2974832,33.767845],[-84.2980926,33.7690579]]]},"properties":{"amenity":"college","osm_id":28523209,"osm_type":"way"}},{"type":"Feature","geometry":{"type":"Polygon","coordinates":[[[-84.5166133,33.9418752],[-84.5158821,33.9416163],[-84.5158129,33.9415437],[-84.5168132,33.9412231],[-84.5168394,33.940005],[-84.5157177,33.9399848],[-84.5157188,33.9395006],[-84.5157313,33.9386058],[-84.515735,33.9384407],[-84.5157823,33.9380054],[-84.5158686,33.937765],[-84.5158243,33.9374795],[-84.5158353,33.9372631],[-84.5158939,33.9370393],[-84.515682,33.9369661],[-84.5154433,33.9369441],[-84.515258,33.9368848],[-84.5150425,33.9368521],[-84.514204,33.9357497],[-84.5139308,33.9351699],[-84.513725,33.9347332],[-84.5143501,33.9345124],[-84.5146995,33.9346599],[-84.515079,33.9350848],[-84.5155424,33.9357718],[-84.5156159,33.9356957],[-84.5172757,33.9347975],[-84.5179033,33.934289],[-84.5184287,33.9340161],[-84.5189517,33.933903],[-84.5197778,33.9339978],[-84.5209242,33.9340842],[-84.5220186,33.9341834],[-84.5256792,33.9338469],[-84.5280825,33.9349992],[-84.5278711,33.9377159],[-84.5262067,33.937802],[-84.5262017,33.9381454],[-84.5261073,33.9397128],[-84.5261975,33.9378097],[-84.5249833,33.9377124],[-84.523746,33.9377558],[-84.5237256,33.938605],[-84.5236896,33.9391354],[-84.5236542,33.9392838],[-84.5234845,33.9396259],[-84.5229588,33.9396331],[-84.5222772,33.9397052],[-84.5217948,33.9398941],[-84.5213878,33.9402003],[-84.5213282,33.9403978],[-84.5214269,33.9406481],[-84.5222404,33.9415842],[-84.5218903,33.9417447],[-84.5215452,33.9418769],[-84.5211589,33.9420037],[-84.5203765,33.9421414],[-84.5191776,33.94214],[-84.5183383,33.9421727],[-84.5176345,33.9421383],[-84.5170657,33.9420158],[-84.5166133,33.9418752]]]},"properties":{"LandPro08:DE3":"DEVELOPED","LandPro08:LC_NAME":"INST_INTENSIVE","LandPro08:LU_NAME":"INST_INTENSIVE","LandPro08:reviewed":"no","addr:city":"Marietta","addr:housenumber":"1100","addr:postcode":"30060","addr:state":"GA","addr:street":"South Marietta Parkway","amenity":"university","contact:website":"http://www.kennesaw.edu/","name":"Kennesaw State University Marietta Campus","old_name":"Southern Polytechnic State University","phone":"+1-470-578-6000","short_name":"KSU Marietta","source":"LandPro08","website":"https://www.kennesaw.edu/","wikidata":"Q3445053","osm_id":34833071,"osm_type":"way"}},{"type":"Feature","geometry":{"type":"Polygon","coordinates":[[[-84.3417299,33.7876675],[-84.3417809,33.7876686],[-84.3445133,33.7876945],[-84.3462296,33.787693],[-84.3462222,33.7879665],[-84.3461685,33.7899551],[-84.3461656,33.7899552],[-84.3452664,33.7899815],[-84.3423079,33.7899367],[-84.342269,33.7904471],[-84.3415109,33.7903474],[-84.3414036,33.7903332],[-84.3414001,33.7903328],[-84.3392515,33.7899802],[-84.3389122,33.7898097],[-84.3388935,33.7897495],[-84.3388975,33.7896927],[-84.3392716,33.7889983],[-84.3394876,33.7884744],[-84.3397933,33.7876039],[-84.3400173,33.7876675],[-84.3417299,33.7876675]]]},"properties":{"LandPro08:DE3":"DEVELOPED","LandPro08:LC_NAME":"INST_INTENSIVE","LandPro08:LU_NAME":"INST_INTENSIVE","LandPro08:reviewed":"no","addr:city":"Atlanta","addr:housenumber":"1256","addr:postcode":"30306","addr:state":"GA","addr:street":"Briarcliff Road NE","amenity":"university","name":"Emory University Briarcliff Campus","source":"LandPro08","osm_id":34845329,"osm_type":"way"}},{"type":"Feature","geometry":{"type":"Polygon","coordinates":[[[-84.5794308,34.037151],[-84.5794187,34.0370021],[-84.5794173,34.0368426],[-84.5794323,34.036753],[-84.5794622,34.03666],[-84.5795095,34.0363232],[-84.5796289,34.0360515],[-84.5796813,34.0359749],[-84.579742,34.0358933],[-84.5798132,34.0358116],[-84.5798963,34.0357242],[-84.580064,34.0355625],[-84.5801181,34.0355147],[-84.5804079,34.035228],[-84.5806721,34.0349781],[-84.5807567,34.0348817],[-84.5808333,34.0347741],[-84.5808979,34.0346436],[-84.5809437,34.0344874],[-84.5809498,34.0343771],[-84.5809479,34.0342669],[-84.58093,34.0341652],[-84.5808867,34.0340346],[-84.5808151,34.0339068],[-84.5807302,34.0337901],[-84.5804379,34.0334604],[-84.5801022,34.033136],[-84.5801426,34.0329309],[-84.5803391,34.0327983],[-84.5805719,34.0326577],[-84.5807509,34.0325386],[-84.5809554,34.0324091],[-84.5811763,34.032259],[-84.5814517,34.0320321],[-84.5818613,34.031751],[-84.582159,34.031603],[-84.5825385,34.0313678],[-84.5828993,34.0310715],[-84.5832683,34.0307231],[-84.5837569,34.0301211],[-84.584105,34.0294357],[-84.5851699,34.0297736],[-84.5849258,34.0300692],[-84.5847407,34.0301915],[-84.5844322,34.0302737],[-84.5841345,34.0303382],[-84.5838583,34.0304627],[-84.5837778,34.0305271],[-84.5837,34.0305983],[-84.5836517,34.0306805],[-84.5836484,34.0307884],[-84.5836953,34.0308978],[-84.5840463,34.0312915],[-84.5846087,34.0309898],[-84.5850812,34.0313366],[-84.5863895,34.0335794],[-84.5856832,34.0337645],[-84.5858688,34.0342407],[-84.5861521,34.0349077],[-84.5861617,34.0349297],[-84.586243,34.0351162],[-84.5864124,34.0358511],[-84.5870891,34.0357771],[-84.5872929,34.0368416],[-84.5871301,34.0368312],[-84.5871395,34.0371513],[-84.5864576,34.0371296],[-84.5864563,34.037384],[-84.5864443,34.0384991],[-84.5864411,34.0390924],[-84.5864334,34.0395085],[-84.5863715,34.0397725],[-84.5863628,34.0402605],[-84.5863759,34.0402894],[-84.5863648,34.0403229],[-84.5863213,34.0404542],[-84.586418,34.0406591],[-84.5855789,34.0406685],[-84.58556,34.042029],[-84.5855484,34.0428655],[-84.5855359,34.0439908],[-84.585533,34.0442352],[-84.5855066,34.0448786],[-84.5854688,34.0456464],[-84.5853524,34.0468807],[-84.5851984,34.0473709],[-84.5847471,34.0469727],[-84.5837784,34.0461159],[-84.5830681,34.0453738],[-84.58284,34.0451355],[-84.5820774,34.0443021],[-84.5819781,34.0441933],[-84.5818459,34.0440428],[-84.5814358,34.0434014],[-84.5812607,34.0430878],[-84.5812124,34.0428989],[-84.581189,34.0424172],[-84.5811805,34.0422595],[-84.5811619,34.0421018],[-84.5811281,34.0419448],[-84.5811069,34.0418684],[-84.581079,34.0417921],[-84.5808514,34.0413177],[-84.5807994,34.0412139],[-84.5807581,34.0410908],[-84.5807096,34.0409485],[-84.5804778,34.0404733],[-84.5803396,34.0401264],[-84.580197,34.0399893],[-84.5801276,34.0398244],[-84.5800603,34.0396208],[-84.5799746,34.0391984],[-84.5799447,34.0390434],[-84.5798976,34.0388028],[-84.5797198,34.0381912],[-84.5796536,34.0379904],[-84.5795765,34.0376813],[-84.5794852,34.0374193],[-84.5794308,34.037151]]]},"properties":{"LandPro08:DE3":"DEVELOPED","LandPro08:LC_NAME":"INST_INTENSIVE","LandPro08:LU_NAME":"INST_INTENSIVE","LandPro08:reviewed":"no","addr:city":"Kennesaw","addr:housenumber":"1000","addr:postcode":"30144","addr:state":"GA","addr:street":"Chastain Road","alt_name":"KSU","amenity":"university","internet_access":"wlan","internet_access:fee":"no","name":"Kennesaw State University","old_name":"Kennesaw College","phone":"+1-470-578-6000","source":"LandPro08","website":"https://www.kennesaw.edu/","wheelchair":"yes","wikidata":"Q1532470","wikipedia":"en:Kennesaw State University","osm_id":34846140,"osm_type":"way"}},{"type":"Feature","geometry":{"type":"Polygon","coordinates":[[[-84.4085532,33.7443839],[-84.4097739,33.746752],[-84.410002,33.7469082],[-84.4100405,33.7469241],[-84.4103725,33.7470615],[-84.4124571,33.7470777],[-84.412815,33.747132],[-84.4138844,33.7467833],[-84.4131725,33.7455997],[-84.4131219,33.7455156],[-84.4131034,33.7454848],[-84.4130691,33.7454278],[-84.4135699,33.7452062],[-84.41413,33.7449715],[-84.4140337,33.7444059],[-84.413292,33.743866],[-84.413051,33.743734],[-84.4121072,33.7434213],[-84.4119494,33.7433727],[-84.4116008,33.7432852],[-84.410906,33.7431898],[-84.410131,33.7431081],[-84.4101075,33.7431056],[-84.4100504,33.7432827],[-84.4099174,33.743451],[-84.4095959,33.7436775],[-84.4085909,33.7442936],[-84.4085532,33.7443839]]]},"properties":{"amenity":"college","education":"college","name":"Spelman College","source":"yahoo","source:name":"gnis","wikidata":"Q7575916","osm_id":42739929,"osm_type":"way"}},{"type":"Feature","geometry":{"type":"Polygon","coordinates":[[[-84.4065601,33.772307],[-84.4062684,33.7722248],[-84.4059527,33.7720552],[-84.4056059,33.7719082],[-84.4052452,33.7717865],[-84.4048731,33.771691],[-84.4047291,33.7716615],[-84.4036258,33.7714798],[-84.4036618,33.7714923],[-84.4032933,33.7714567],[-84.4030673,33.7714496],[-84.4028164,33.7714147],[-84.4025868,33.7713915],[-84.4020081,33.7724477],[-84.4015717,33.7721611],[-84.4010534,33.7716849],[-84.4006866,33.7713675],[-84.4011365,33.7709923],[-84.4006111,33.7706491],[-84.4004086,33.7704571],[-84.3998707,33.7698771],[-84.3996873,33.7696307],[-84.3995317,33.769406],[-84.4000072,33.7692557],[-84.3997733,33.7688203],[-84.4015916,33.7686964],[-84.4026768,33.7687434],[-84.4031586,33.7686479],[-84.4046326,33.7686275],[-84.4045486,33.7697305],[-84.4044691,33.769916],[-84.4044857,33.7705441],[-84.4068877,33.7719027],[-84.4065601,33.772307]]]},"properties":{"amenity":"university","education":"university","gatech:OBJECTID":"0","gatech:OBJECTID_2":"0","gatech:SHAPE_LENG":"0.00000000","gatech:SUBTYPE":"0","name":"Georgia Tech","ownership":"private","source":"Georgia Tech www.arch.gatech.edu/cgis/","osm_id":42831046,"osm_type":"way"}},{"type":"Feature","geometry":{"type":"Polygon","coordinates":[[[-84.4012165,33.7885803],[-84.4012174,33.7885164],[-84.4012182,33.788452],[-84.4012233,33.7880731],[-84.4012267,33.7877929],[-84.4013729,33.7877963],[-84.4018603,33.7878078],[-84.4020207,33.7877836],[-84.4022673,33.7877392],[-84.4027243,33.787669],[-84.4027487,33.7873285],[-84.402856,33.7871025],[-84.4028999,33.7868622],[-84.4028934,33.7863942],[-84.4029423,33.7863281],[-84.4031114,33.7862943],[-84.4069128,33.7863085],[-84.4072835,33.7869786],[-84.4073671,33.7872199],[-84.4074193,33.7874676],[-84.4053836,33.7874739],[-84.4051537,33.787291],[-84.4046317,33.7870426],[-84.4029977,33.7881063],[-84.4028017,33.7883796],[-84.4027929,33.7886759],[-84.402584,33.7886829],[-84.4012171,33.7886762],[-84.4012165,33.7885803]]]},"properties":{"amenity":"university","gatech:OBJECTID":"0","gatech:OBJECTID_2":"0","gatech:OWNERSHIP":"GEORGIA TECH FOUNDATION INC","gatech:SHAPE_LENG":"0.00000000","gatech:SUBTYPE":"0","name":"Georgia Tech","ownership":"private","source":"Georgia Tech www.arch.gatech.edu/cgis/","osm_id":42831542,"osm_type":"way"}},{"type":"Feature","geometry":{"type":"Polygon","coordinates":[[[-84.3237267,33.7960817],[-84.3237002,33.796154],[-84.3235034,33.7961065],[-84.3235202,33.7960614],[-84.3234585,33.7960447],[-84.3234526,33.7960662],[-84.3233995,33.7960569],[-84.3233497,33.7960511],[-84.3232641,33.7960465],[-84.3232202,33.7960691],[-84.3231796,33.7960151],[-84.3231303,33.7960172],[-84.3229373,33.79605],[-84.3229739,33.7961037],[-84.3229403,33.7961191],[-84.3228965,33.7960593],[-84.3228046,33.7960768],[-84.3227893,33.7960134],[-84.3227218,33.7960258],[-84.322693,33.79588],[-84.3226997,33.7958458],[-84.322695,33.7958074],[-84.3227321,33.795801],[-84.3227292,33.7957861],[-84.322694,33.7957869],[-84.3226872,33.7957595],[-84.322955,33.7957035],[-84.3231426,33.7956846],[-84.3232967,33.7956846],[-84.3234337,33.7956964],[-84.3235371,33.7957103],[-84.3236776,33.7957407],[-84.3238817,33.7958027],[-84.3238248,33.7958325],[-84.3238058,33.7958774],[-84.3238746,33.795894],[-84.3238117,33.7960618],[-84.32378,33.7960569],[-84.3237709,33.7960902],[-84.3237267,33.7960817]]]},"properties":{"amenity":"university","building":"yes","ele":"282","gnis:feature_id":"2463024","name":"Whitehead Biomedical Research Building","wheelchair":"yes","osm_id":43318133,"osm_type":"way"}},{"type":"Feature","geometry":{"type":"Polygon","coordinates":[[[-84.3254213,33.7959278],[-84.3252523,33.7958621],[-84.3250002,33.7957707],[-84.3247749,33.7956982],[-84.3244356,33.7956124],[-84.3240909,33.79554],[-84.3235612,33.7954731],[-84.3230824,33.7954508],[-84.3227056,33.795443],[-84.3222563,33.7954575],[-84.3218406,33.7954809],[-84.3214905,33.7954999],[-84.3215951,33.7957495],[-84.3217293,33.7959735],[-84.322149,33.7966177],[-84.3222818,33.7968428],[-84.3224266,33.7970334],[-84.3225286,33.7971794],[-84.3226305,33.7972864],[-84.3228223,33.7974313],[-84.3229614,33.7975537],[-84.3230033,33.7975906],[-84.323297,33.797857],[-84.3233812,33.7979369],[-84.3234673,33.7980186],[-84.3236779,33.7982604],[-84.3237852,33.7983931],[-84.3238241,33.7984064],[-84.3238509,33.7984031],[-84.3239649,33.7983462],[-84.3241258,33.7982448],[-84.3242639,33.7981367],[-84.3243686,33.7980008],[-84.3246006,33.7976653],[-84.324736,33.797516],[-84.3248513,33.79739],[-84.3249774,33.7971883],[-84.3251088,33.7968484],[-84.3252183,33.7964634],[-84.3254213,33.7959278]]]},"properties":{"addr:city":"Atlanta","addr:housenumber":"201","addr:postcode":"30322","addr:state":"GA","addr:street":"Dowman Drive","amenity":"university","name":"Emory University","osm_id":61500144,"osm_type":"way"}},{"type":"Feature","geometry":{"type":"Polygon","coordinates":[[[-84.3229632,33.7986206],[-84.3227606,33.7984287],[-84.3232139,33.798052],[-84.3230328,33.7978771],[-84.3228075,33.797682],[-84.322609,33.7975416],[-84.322432,33.7974212],[-84.32231,33.7973109],[-84.322263,33.7973053],[-84.3222013,33.7973287],[-84.3218982,33.7975828],[-84.3216072,33.7978236],[-84.3214181,33.7980465],[-84.3213644,33.7980962],[-84.3212134,33.7982358],[-84.3218421,33.7984518],[-84.322535,33.7989712],[-84.3225534,33.7989539],[-84.32289,33.7986385],[-84.3229632,33.7986206]]]},"properties":{"addr:city":"Atlanta","addr:housenumber":"201","addr:postcode":"30322","addr:state":"GA","addr:street":"Dowman Drive","amenity":"university","name":"Emory University","osm_id":61500167,"osm_type":"way"}},{"type":"Feature","geometry":{"type":"Polygon","coordinates":[[[-84.3305376,33.7984766],[-84.3296525,33.8008471],[-84.3304713,33.8010033],[-84.3306389,33.8010501],[-84.3308428,33.801127],[-84.3312043,33.8013035],[-84.3316506,33.8016102],[-84.3322475,33.8013073],[-84.3320652,33.8009407],[-84.33186,33.8005183],[-84.3316159,33.8000736],[-84.3314268,33.7996947],[-84.3312431,33.7993292],[-84.3310043,33.7989492],[-84.330716,33.7986037],[-84.3305376,33.7984766]]]},"properties":{"addr:city":"Atlanta","addr:housenumber":"201","addr:postcode":"30322","addr:state":"GA","addr:street":"Dowman Drive","amenity":"university","name":"Emory University","osm_id":61500656,"osm_type":"way"}},{"type":"Feature","geometry":{"type":"Polygon","coordinates":[[[-84.3311276,33.8733768],[-84.331782,33.8726731],[-84.3323775,33.8719248],[-84.3324628,33.8719627],[-84.333355,33.8723589],[-84.3343209,33.8728079],[-84.3343706,33.8728435],[-84.3344066,33.8728933],[-84.3344509,33.8729948],[-84.3345446,33.873058],[-84.3346198,33.8730703],[-84.3346801,33.8730608],[-84.3347777,33.8730542],[-84.3348668,33.8730776],[-84.3349229,33.8731044],[-84.3366653,33.8739365],[-84.3378522,33.8745034],[-84.3377029,33.8748664],[-84.337384,33.8756418],[-84.3370742,33.8766006],[-84.3378435,33.8765903],[-84.3380124,33.8768091],[-84.3381626,33.8772613],[-84.3379325,33.8785928],[-84.3377358,33.8801255],[-84.3357195,33.8804449],[-84.3327889,33.8767476],[-84.3326786,33.8766688],[-84.3325416,33.8765981],[-84.3323231,33.8765038],[-84.3309073,33.8761478],[-84.3309291,33.8755859],[-84.3308915,33.8751984],[-84.330736,33.8745526],[-84.3306072,33.8741384],[-84.3305214,33.873938],[-84.3311276,33.8733768]]]},"properties":{"amenity":"university","area":"yes","gnis:feature_id":"326034","name":"Oglethorpe University","osm_id":68048275,"osm_type":"way"}},{"type":"Feature","geometry":{"type":"Polygon","coordinates":[[[-84.4068402,33.779195],[-84.4065389,33.7791932],[-84.4065375,33.7791098],[-84.4065361,33.7790305],[-84.4068401,33.7790308],[-84.4068441,33.7790251],[-84.4068447,33.7789817],[-84.406848,33.7789817],[-84.4069188,33.7789822],[-84.4069362,33.7789823],[-84.4070324,33.778983],[-84.4070306,33.7791572],[-84.4070702,33.7791575],[-84.4070694,33.7792354],[-84.4070842,33.7792355],[-84.407084,33.7792534],[-84.4070692,33.7792533],[-84.4070691,33.7792634],[-84.4070687,33.7793042],[-84.4070336,33.779304],[-84.4070339,33.779271],[-84.4070339,33.7792607],[-84.4070341,33.7792435],[-84.4069852,33.7792432],[-84.4069853,33.7792349],[-84.4069454,33.7792346],[-84.406842,33.7792339],[-84.4068425,33.7791902],[-84.4068402,33.779195]]]},"properties":{"alt_name":"Woodruff Dining Hall","amenity":"university","building":"yes","gatech:BLDG_NUM":"116A","gatech:BLDG_TYPE":"Residence Halls","loc_name":"CREATE-X","name":"CREATE-X","short_name":"Woody's","source":"Georgia Tech (http://www.arch.gatech.edu/cgis/)","website":"https://create-x.gatech.edu/","osm_id":178717767,"osm_type":"way"}},{"type":"Feature","geometry":{"type":"Polygon","coordinates":[[[-84.5265513,33.9363567],[-84.5265486,33.9362499],[-84.5264601,33.9362499],[-84.5264628,33.9363567],[-84.5265513,33.9363567]]]},"properties":{"amenity":"university","name":"S3 - Concessions / Restrooms","osm_id":225561752,"osm_type":"way"}},{"type":"Feature","geometry":{"type":"Polygon","coordinates":[[[-84.527777,33.9366081],[-84.5277744,33.9365125],[-84.5278468,33.936508],[-84.5278414,33.9366126],[-84.527777,33.9366081]]]},"properties":{"amenity":"university","building":"yes","name":"F9 - Facilities Grounds Storage Building","osm_id":225561753,"osm_type":"way"}},{"type":"Feature","geometry":{"type":"Polygon","coordinates":[[[-84.0040587,33.9790991],[-84.0029301,33.9775475],[-84.0032242,33.9775084],[-84.0031623,33.9767623],[-84.0034315,33.9767407],[-84.0033913,33.9763087],[-84.0023947,33.9763377],[-84.0013696,33.9766787],[-84.0001702,33.9768363],[-83.9989763,33.976998],[-83.999053,33.9770465],[-83.9998753,33.9781231],[-83.9975834,33.9792637],[-84.0000976,33.9829186],[-84.0002675,33.9831559],[-84.0005329,33.9834724],[-84.0008868,33.9840086],[-84.0021351,33.9846874],[-84.003577,33.9853773],[-84.0047481,33.9856113],[-84.005925,33.985654],[-84.0065736,33.985871],[-84.0072275,33.9853631],[-84.005976,33.9850014],[-84.0042663,33.9841439],[-84.0032042,33.983522],[-84.0029413,33.982962],[-84.0033582,33.9828045],[-84.004401,33.9823188],[-84.006079,33.9814229],[-84.0069695,33.9806725],[-84.0077162,33.9806213],[-84.0090986,33.9807734],[-84.0098298,33.9808023],[-84.010665,33.9805114],[-84.0110352,33.9800715],[-84.012115,33.9796191],[-84.0124841,33.9792201],[-84.0126338,33.9779621],[-84.0123951,33.9769478],[-84.0120818,33.9766186],[-84.0114021,33.9768277],[-84.0099038,33.9769514],[-84.0084888,33.9768693],[-84.0074736,33.9765532],[-84.0066582,33.9765354],[-84.0072871,33.9775368],[-84.0067603,33.9779011],[-84.0040587,33.9790991]]]},"properties":{"addr:housename":"Georgia Gwinnett College","addr:housenumber":"1000","addr:postcode":"30043","addr:street":"University Center Lane","amenity":"college","designation":"College","mascot":"Grizzly Bears","name":"Georgia Gwinnett College","phone":"+1-678-407-5000","smoking":"no","website":"https://www.ggc.edu/","osm_id":235753497,"osm_type":"way"}},{"type":"Feature","geometry":{"type":"Polygon","coordinates":[[[-84.5877608,34.0296167],[-84.5865447,34.0297651],[-84.5860552,34.0297525],[-84.5858161,34.0297389],[-84.5857435,34.0297308],[-84.5848022,34.0293883],[-84.5841831,34.0291905],[-84.584156,34.0291278],[-84.5845677,34.0282265],[-84.5846079,34.0281253],[-84.5848627,34.0276807],[-84.585091,34.0273109],[-84.5851716,34.0272313],[-84.5853323,34.0270084],[-84.5860246,34.0277857],[-84.5876989,34.0291117],[-84.5877608,34.0296167]]]},"properties":{"addr:city":"Kennesaw","addr:country":"US","addr:housenumber":"1200","addr:postcode":"30144","addr:state":"GA","addr:street":"Chastain Road","amenity":"university","name":"Chastain Pointe","operator":"Kennesaw State University","osm_id":246685587,"osm_type":"way"}},{"type":"Feature","geometry":{"type":"Polygon","coordinates":[[[-84.4680533,34.0345049],[-84.4679962,34.0345779],[-84.4680336,34.034598],[-84.4679824,34.0346634],[-84.4679499,34.034646],[-84.4679208,34.0346832],[-84.4672504,34.0343234],[-84.4672293,34.0343504],[-84.4670985,34.0342802],[-84.4671209,34.0342514],[-84.4670799,34.0342294],[-84.4672329,34.0340337],[-84.4672704,34.0340538],[-84.467317,34.0339942],[-84.4675665,34.0341281],[-84.4675436,34.0341575],[-84.4675814,34.0341778],[-84.4675408,34.0342298],[-84.4680533,34.0345049]]]},"properties":{"addr:city":"Marietta","addr:housenumber":"2680","addr:postcode":"30066","addr:state":"GA","addr:street":"Gordy Parkway Northeast","amenity":"college","branch":"Mountain View","building":"school","check_date":"2025-12-19","name":"Chattahoochee Technical College Mountain View Campus","operator:type":"public","payment:cash":"yes","payment:credit_cards":"yes","payment:debit_cards":"yes","phone":"+1-770-509-6305","website":"https://www.chattahoocheetech.edu/campus-locations/#elementor-toc__heading-anchor-5","wheelchair":"yes","osm_id":320584653,"osm_type":"way"}},{"type":"Feature","geometry":{"type":"Polygon","coordinates":[[[-84.0690601,33.9660207],[-84.0668866,33.9657742],[-84.0638029,33.9642951],[-84.0629298,33.9637404],[-84.0615206,33.9617176],[-84.0616046,33.961364],[-84.0620284,33.961281],[-84.0623528,33.9612465],[-84.0624358,33.961826],[-84.0634251,33.9617848],[-84.0644051,33.9613842],[-84.0657491,33.9615468],[-84.0691652,33.9618777],[-84.0719793,33.9621738],[-84.0722383,33.9628067],[-84.0716013,33.9639562],[-84.0704672,33.9652625],[-84.0690601,33.9660207]]]},"properties":{"addr:city":"Lawrenceville","addr:housenumber":"5150","addr:postcode":"30043","addr:state":"GA","addr:street":"Sugarloaf Parkway","amenity":"college","branch":"Lawrenceville Campus","mascot":"Gryphons","name":"Gwinnett Technical College","phone":"+1-678-226-6616","website":"https://www.gwinnetttech.edu/","wheelchair":"yes","wikidata":"Q16994651","wikipedia":"en:Gwinnett Technical College","osm_id":372285020,"osm_type":"way"}},{"type":"Feature","geometry":{"type":"Polygon","coordinates":[[[-84.4153456,33.7508879],[-84.4155173,33.7508812],[-84.4155187,33.7519613],[-84.4155186,33.7520507],[-84.415517,33.7521214],[-84.4146552,33.7521183],[-84.414648,33.7508279],[-84.4144681,33.7508339],[-84.4144194,33.7492822],[-84.4138456,33.7493053],[-84.4138479,33.7492637],[-84.4138279,33.7489624],[-84.4138015,33.7485639],[-84.4137726,33.7481654],[-84.4137692,33.748119],[-84.4146476,33.7481207],[-84.4146422,33.7467171],[-84.4147216,33.7465419],[-84.4146288,33.7464868],[-84.4145043,33.7466017],[-84.4141922,33.7467168],[-84.4138844,33.7467833],[-84.4131725,33.7455997],[-84.4131219,33.7455156],[-84.4131034,33.7454848],[-84.4130691,33.7454278],[-84.4135699,33.7452062],[-84.41413,33.7449715],[-84.4140482,33.7445031],[-84.4140337,33.7444059],[-84.4140897,33.7429173],[-84.4161489,33.7429473],[-84.4175683,33.7429679],[-84.4175499,33.7465149],[-84.4175423,33.7479648],[-84.4175415,33.7481277],[-84.41753,33.749069],[-84.4174634,33.7490928],[-84.417354,33.7491318],[-84.4170812,33.749181],[-84.4169633,33.7491879],[-84.416893,33.749192],[-84.4165543,33.7491989],[-84.416564,33.7493026],[-84.4165833,33.74951],[-84.4165573,33.7495839],[-84.4165841,33.7502469],[-84.4165919,33.7504395],[-84.4153551,33.7504737],[-84.4153456,33.7508879]]]},"properties":{"amenity":"university","education":"university","ele":"319","gnis:feature_id":"318449","mascot":"Maroon Tigers","name":"Morehouse College","operator:type":"private","school:gender":"male","website":"https://morehouse.edu/","wikidata":"Q1524124","wikipedia":"en:Morehouse College","osm_id":563157907,"osm_type":"way"}},{"type":"Feature","geometry":{"type":"Polygon","coordinates":[[[-84.4128211,33.7509658],[-84.4128221,33.7493435],[-84.4138456,33.7493053],[-84.4138479,33.7492637],[-84.4138279,33.7489624],[-84.4138015,33.7485639],[-84.4137726,33.7481654],[-84.4137692,33.748119],[-84.4146476,33.7481207],[-84.4146422,33.7467171],[-84.4147216,33.7465419],[-84.4146288,33.7464868],[-84.4145043,33.7466017],[-84.4141922,33.7467168],[-84.4138844,33.7467833],[-84.412815,33.747132],[-84.4125774,33.7471328],[-84.4125317,33.747133],[-84.411065,33.747138],[-84.4110741,33.7493257],[-84.410433,33.749336],[-84.4101636,33.7521075],[-84.4103942,33.752303],[-84.4104465,33.7530132],[-84.4105641,33.7546104],[-84.4135381,33.7546231],[-84.4135965,33.7521094],[-84.4145262,33.7521187],[-84.4145264,33.7520977],[-84.4145327,33.751256],[-84.4145353,33.750906],[-84.4128211,33.7509658]]]},"properties":{"amenity":"university","name":"Clark Atlanta University","short_name":"CAU","website":"https://www.cau.edu/","wikidata":"Q4572296","wikipedia":"en:Clark Atlanta University","osm_id":563157908,"osm_type":"way"}},{"type":"Feature","geometry":{"type":"Polygon","coordinates":[[[-84.2789982,33.7632116],[-84.2838067,33.7619573],[-84.284034,33.7619082],[-84.2843363,33.761879],[-84.2846288,33.7619254],[-84.2854602,33.7621304],[-84.28557,33.7621566],[-84.2858373,33.7622],[-84.2859692,33.7622098],[-84.2862874,33.76224],[-84.2863975,33.7629081],[-84.2863942,33.7644001],[-84.2858705,33.764382],[-84.2854545,33.7644817],[-84.2849966,33.7646343],[-84.2844517,33.7647237],[-84.2842519,33.764818],[-84.2840388,33.765029],[-84.2822311,33.7666986],[-84.2811412,33.7659994],[-84.280824,33.765707],[-84.2801178,33.7647844],[-84.2795499,33.7639688],[-84.2789982,33.7632116]]]},"properties":{"amenity":"college","name":"Columbia Theological Seminary","operator":"Columbia Theological Seminary","osm_id":565616225,"osm_type":"way"}},{"type":"Feature","geometry":{"type":"Polygon","coordinates":[[[-84.2800719,33.7615837],[-84.2800334,33.7621546],[-84.2795953,33.7629165],[-84.2790055,33.7630722],[-84.2789009,33.7630998],[-84.2788782,33.7631058],[-84.2786471,33.7627793],[-84.2781202,33.7620816],[-84.2793122,33.7618522],[-84.2800719,33.7615837]]]},"properties":{"amenity":"college","check_date":"2025-07-01","name":"Waldorf School of Atlanta","osm_id":565616228,"osm_type":"way"}},{"type":"Feature","geometry":{"type":"Polygon","coordinates":[[[-84.3822597,33.7545082],[-84.3843562,33.7545346],[-84.3864175,33.754555],[-84.3861405,33.7549617],[-84.3861216,33.755522],[-84.3861223,33.7555894],[-84.3861226,33.7556243],[-84.3860772,33.7571414],[-84.3866634,33.7571429],[-84.3875952,33.7571452],[-84.3876063,33.7564746],[-84.3882716,33.7566176],[-84.3884848,33.7562442],[-84.3895984,33.7573224],[-84.3901585,33.7569069],[-84.3892083,33.7559482],[-84.3897937,33.7555217],[-84.3898833,33.7554723],[-84.3901451,33.7552878],[-84.3903623,33.7554943],[-84.3906681,33.7552787],[-84.3904689,33.7550678],[-84.3902434,33.7548291],[-84.3897272,33.7543339],[-84.3890365,33.7539953],[-84.3889543,33.7539506],[-84.3888909,33.7539157],[-84.3886066,33.7537441],[-84.3885416,33.7537266],[-84.3879331,33.753398],[-84.3877523,33.7536338],[-84.387583,33.753544],[-84.3875944,33.7535292],[-84.3874719,33.7534642],[-84.3877656,33.7531238],[-84.3880782,33.7529485],[-84.3880009,33.752843],[-84.3884476,33.7523543],[-84.3879562,33.7519832],[-84.3875812,33.7517131],[-84.3874656,33.7516298],[-84.3873086,33.7514723],[-84.3862803,33.7507208],[-84.385651,33.7503052],[-84.3853377,33.7501001],[-84.3849603,33.7498445],[-84.3841091,33.7506854],[-84.3830069,33.7517743],[-84.3841563,33.7526014],[-84.3822597,33.7545082]]]},"properties":{"addr:city":"Atlanta","addr:housenumber":"33","addr:postcode":"30303","addr:state":"GA","addr:street":"Gilmer Street Southeast","amenity":"university","education":"university","name":"Georgia State University","operator":"The University System of Georgia","operator:type":"public","short_name":"GSU","website":"https://www.gsu.edu/","wikidata":"Q1509333","wikipedia":"en:Georgia State University","osm_id":586614408,"osm_type":"way"}},{"type":"Feature","geometry":{"type":"Polygon","coordinates":[[[-84.2645874,33.8703918],[-84.2645143,33.8707149],[-84.2643032,33.8713323],[-84.264702,33.871389],[-84.2656515,33.871791],[-84.266509,33.8727184],[-84.2664973,33.8727868],[-84.2665139,33.8728545],[-84.2671981,33.8735008],[-84.2669343,33.8736814],[-84.2655373,33.874364],[-84.2623215,33.8754158],[-84.2618443,33.8755703],[-84.2610801,33.8754678],[-84.2605296,33.8751202],[-84.2603438,33.8748456],[-84.2594243,33.875195],[-84.2589532,33.8751109],[-84.2586161,33.8748564],[-84.2585313,33.8745953],[-84.2586051,33.87424],[-84.258997,33.8738908],[-84.2593083,33.8737233],[-84.2595403,33.8733858],[-84.2596973,33.8729443],[-84.2598579,33.872448],[-84.2599612,33.8722301],[-84.2599235,33.8719061],[-84.259443,33.8710821],[-84.2599369,33.8708897],[-84.2609288,33.8706498],[-84.2612169,33.8705983],[-84.261592,33.8705312],[-84.2623396,33.8704295],[-84.2634571,33.8702775],[-84.2645874,33.8703918]]]},"properties":{"amenity":"university","name":"Mercer University, Atlanta","operator":"Mercer University","osm_id":643500946,"osm_type":"way"}},{"type":"Feature","geometry":{"type":"Polygon","coordinates":[[[-84.5739276,33.5719187],[-84.5736323,33.5715313],[-84.5735552,33.5714106],[-84.5734594,33.5712704],[-84.5733145,33.5710717],[-84.5732474,33.5709839],[-84.5721364,33.5715147],[-84.5728629,33.5724479],[-84.5739276,33.5719187]]]},"properties":{"addr:city":"Fairburn","addr:housenumber":"320","addr:postcode":"30213","addr:state":"GA","addr:street":"Northwest Broad Street","amenity":"university","name":"Fairburn Educational Campus","osm_id":686166498,"osm_type":"way"}},{"type":"Feature","geometry":{"type":"Polygon","coordinates":[[[-84.305868,33.9434639],[-84.3061113,33.9434657],[-84.3061287,33.9431025],[-84.3061439,33.9430368],[-84.3061494,33.9428827],[-84.3061743,33.9427466],[-84.3061841,33.9426393],[-84.3061396,33.9425186],[-84.3061385,33.9424762],[-84.3061494,33.9424357],[-84.3061852,33.9423978],[-84.3061972,33.9423816],[-84.3061972,33.9423519],[-84.3061765,33.942332],[-84.3061678,33.9423122],[-84.3061678,33.9422762],[-84.3061906,33.9422176],[-84.3062221,33.942186],[-84.3062493,33.9421473],[-84.306271,33.9421221],[-84.3062699,33.9421085],[-84.30622,33.9420581],[-84.3061711,33.9419977],[-84.3060983,33.9419109],[-84.3060048,33.941819],[-84.3059598,33.9417501],[-84.3059789,33.9416869],[-84.3061571,33.9413523],[-84.3064375,33.9413509],[-84.306441,33.9410393],[-84.3071541,33.9410293],[-84.3072216,33.939948],[-84.3036796,33.9398618],[-84.3035116,33.9398974],[-84.3033615,33.9399152],[-84.3032043,33.9399211],[-84.3030971,33.9399449],[-84.3029827,33.9399745],[-84.3028255,33.9399893],[-84.3027306,33.9400121],[-84.3026646,33.9400279],[-84.3026003,33.9400249],[-84.3025324,33.9399715],[-84.302427,33.9399318],[-84.3023426,33.9399186],[-84.3023318,33.9399169],[-84.3021774,33.939894],[-84.3020685,33.939894],[-84.3019609,33.9399077],[-84.3017831,33.9399684],[-84.3016797,33.9400095],[-84.3015859,33.940061],[-84.3014646,33.9401777],[-84.3014025,33.9402566],[-84.3013281,33.9402978],[-84.301255,33.9403321],[-84.3011943,33.9403436],[-84.3011378,33.9403596],[-84.3010964,33.9403733],[-84.3010771,33.9403699],[-84.3010661,33.940355],[-84.3010633,33.9400507],[-84.2997686,33.9400599],[-84.2997722,33.9417235],[-84.299785,33.9424875],[-84.29962,33.9425978],[-84.2997626,33.9428089],[-84.2997377,33.9428182],[-84.2999082,33.9430984],[-84.300023,33.9432719],[-84.3001036,33.9433824],[-84.3001489,33.9434368],[-84.3001771,33.9434656],[-84.3001974,33.9434727],[-84.3002263,33.9434787],[-84.3003109,33.9434787],[-84.3004611,33.9434754],[-84.3005883,33.9434536],[-84.3007044,33.9434487],[-84.3007982,33.9434373],[-84.3009044,33.9434395],[-84.3010061,33.9434439],[-84.30113,33.9434618],[-84.3012855,33.9434428],[-84.3015137,33.9434471],[-84.3016075,33.9434324],[-84.3017885,33.9434373],[-84.3019118,33.9434428],[-84.3019931,33.9434384],[-84.3020095,33.94344],[-84.3020187,33.943458],[-84.3020325,33.9434716],[-84.3020646,33.943476],[-84.3021387,33.9434752],[-84.3025701,33.9430238],[-84.3028047,33.9429142],[-84.3028411,33.9428699],[-84.3029049,33.9427039],[-84.30298,33.9425814],[-84.3031235,33.9424277],[-84.3032933,33.9422921],[-84.303431,33.942264],[-84.3035403,33.9422964],[-84.3035927,33.9423783],[-84.3035962,33.9424517],[-84.3035881,33.9425193],[-84.3036121,33.9425179],[-84.3041029,33.9424906],[-84.3042701,33.9425723],[-84.3045859,33.9426058],[-84.3046378,33.942652],[-84.3047146,33.9427204],[-84.3047554,33.9428365],[-84.304959,33.9429026],[-84.3051372,33.9430139],[-84.3054235,33.9430212],[-84.3054777,33.9430525],[-84.305516,33.9431108],[-84.3055559,33.943224],[-84.3055509,33.9434684],[-84.305868,33.9434639]]]},"properties":{"amenity":"university","name":"Georgia State University Dunwoody","osm_id":753440279,"osm_type":"way"}},{"type":"Feature","geometry":{"type":"Polygon","coordinates":[[[-84.3906594,33.7979705],[-84.390239,33.7976796],[-84.3898123,33.7974048],[-84.3908189,33.79629],[-84.3911362,33.7958649],[-84.3911409,33.7954985],[-84.3906701,33.795475],[-84.3902313,33.7954452],[-84.389365,33.7953714],[-84.3892663,33.7953197],[-84.3892113,33.7952363],[-84.3891833,33.7951765],[-84.3891692,33.7950701],[-84.389203,33.7943999],[-84.3904285,33.7944097],[-84.3904455,33.7940363],[-84.3904545,33.7934532],[-84.3906334,33.7934602],[-84.3906351,33.7936],[-84.3907338,33.7940709],[-84.3909147,33.7945415],[-84.3910423,33.7948611],[-84.391241,33.7951139],[-84.3914128,33.7954622],[-84.3913724,33.7958761],[-84.3913783,33.7959085],[-84.3914152,33.795934],[-84.3914934,33.7959845],[-84.3916307,33.7960763],[-84.391695,33.7960951],[-84.3918918,33.7961171],[-84.3921619,33.7961591],[-84.3922674,33.7962397],[-84.3906594,33.7979705]]]},"properties":{"addr:city":"Atlanta","addr:floor":"G;1","addr:housenumber":"1600","addr:state":"GA","addr:street":"Peachtree Street Northeast","amenity":"university","branch":"Atlanta","check_date":"2025-11-17","contact:facebook":"https://www.facebook.com/scad.edu","education":"university","email":"scadatl@scad.edu","level":"0;1","name":"Savannah College of Art and Design Atlanta","operator:type":"private","payment:cash":"yes","payment:credit_cards":"yes","payment:debit_cards":"yes","phone":"+1-404-253-2700","short_name":"SCAD Atlanta","website":"https://www.scad.edu/locations/atlanta","wheelchair":"yes","osm_id":841342447,"osm_type":"way"}},{"type":"Feature","geometry":{"type":"Polygon","coordinates":[[[-84.4112171,33.7416489],[-84.4112722,33.7417038],[-84.4114521,33.7417237],[-84.4129391,33.7418214],[-84.4132071,33.7418366],[-84.4132237,33.7419069],[-84.4137884,33.7427429],[-84.4141285,33.7427524],[-84.4141534,33.7418929],[-84.4161704,33.7419196],[-84.4161489,33.7429473],[-84.4140897,33.7429173],[-84.413972,33.7429528],[-84.4140278,33.7429953],[-84.4139898,33.7443382],[-84.4133734,33.7438897],[-84.4130811,33.7437218],[-84.4121564,33.7434036],[-84.4115429,33.7432577],[-84.4100174,33.7430788],[-84.4100386,33.7429728],[-84.4099988,33.742838],[-84.4098951,33.7426612],[-84.4102034,33.7424403],[-84.4105488,33.7421994],[-84.4108384,33.7419873],[-84.4112171,33.7416489]]]},"properties":{"addr:city":"Atlanta","addr:housenumber":"720","addr:postcode":"30310","addr:state":"GA","addr:street":"Westview Drive Southwest","amenity":"university","education":"university","name":"Morehouse School of Medicine","website":"https://www.msm.edu/","wikidata":"Q6911272","wikipedia":"en:Morehouse School of Medicine","osm_id":884849422,"osm_type":"way"}},{"type":"Feature","geometry":{"type":"Polygon","coordinates":[[[-84.2780805,33.69016],[-84.2725227,33.6909285],[-84.2725754,33.6866341],[-84.2727688,33.6866879],[-84.2729801,33.6867029],[-84.2734226,33.6866982],[-84.2738526,33.6867204],[-84.2739392,33.6867076],[-84.274292,33.6866558],[-84.2746176,33.6867483],[-84.2748104,33.6869039],[-84.275057,33.6871113],[-84.2753109,33.6873108],[-84.2758407,33.6880036],[-84.2760005,33.6879506],[-84.2762092,33.6878075],[-84.276461,33.6876634],[-84.2780805,33.69016]]]},"properties":{"addr:city":"Decatur","addr:housenumber":"3251","addr:postcode":"30034","addr:state":"GA","addr:street":"Panthersville Road","amenity":"university","name":"Georgia State University Decatur","osm_id":955763785,"osm_type":"way"}},{"type":"Feature","geometry":{"type":"Polygon","coordinates":[[[-84.2358944,33.7908054],[-84.2348332,33.7907557],[-84.2348376,33.7906525],[-84.2323434,33.7905929],[-84.2323245,33.7911348],[-84.23147,33.7911153],[-84.231038,33.7911374],[-84.2306595,33.7912445],[-84.2296448,33.7924271],[-84.2296391,33.79325],[-84.2326199,33.7933336],[-84.2324678,33.7957935],[-84.236332,33.795803],[-84.2363291,33.7949349],[-84.2361775,33.79398],[-84.2361338,33.7937216],[-84.2360395,33.7931647],[-84.2359091,33.7923794],[-84.2358303,33.7918553],[-84.235817,33.7915497],[-84.235799,33.791331],[-84.235823,33.7911722],[-84.2358944,33.7908054]]]},"properties":{"amenity":"university","name":"Georgia State University Clarkston","osm_id":970783477,"osm_type":"way"}},{"type":"Feature","geometry":{"type":"Polygon","coordinates":[[[-84.2336141,33.7887317],[-84.232578,33.7887659],[-84.2323594,33.7897328],[-84.232354,33.7903625],[-84.2323434,33.7905929],[-84.2348376,33.7906525],[-84.2348332,33.7907557],[-84.2358944,33.7908054],[-84.2359874,33.7905356],[-84.2361325,33.789843],[-84.23612,33.789413],[-84.2360722,33.7892177],[-84.2359162,33.7888599],[-84.2358045,33.7888461],[-84.2351089,33.7890097],[-84.2347569,33.7890885],[-84.2344448,33.7891574],[-84.233978,33.7888551],[-84.2336141,33.7887317]]]},"properties":{"addr:housenumber":"495","addr:street":"North Indian Creek Drive","amenity":"college","name":"Georgia Piedmont Technical College","osm_id":970792471,"osm_type":"way"}},{"type":"Feature","geometry":{"type":"Polygon","coordinates":[[[-84.2255718,33.7710507],[-84.2253155,33.7710318],[-84.2237815,33.7702317],[-84.223764,33.770532],[-84.223711,33.770873],[-84.223548,33.771386],[-84.2234669,33.7715158],[-84.2238334,33.7716673],[-84.2242007,33.7719267],[-84.2242615,33.7722928],[-84.224371,33.7726465],[-84.2248048,33.7728385],[-84.2253512,33.7727365],[-84.2254538,33.7727439],[-84.2255092,33.7727978],[-84.2255422,33.7728592],[-84.2255259,33.7729244],[-84.2256687,33.7729654],[-84.2266628,33.772964],[-84.226591,33.772704],[-84.2265636,33.7726426],[-84.226399,33.772273],[-84.226167,33.771917],[-84.226117,33.77184],[-84.2260614,33.7717367],[-84.2260144,33.7716648],[-84.2255718,33.7710507]]]},"properties":{"amenity":"university","name":"GSU Indian Creek Recreation Area","operator":"University System of Georgia","website":"https://recreation.gsu.edu/facilities/atlanta/indian-creek-recreation-area/","osm_id":970916055,"osm_type":"way"}},{"type":"Feature","geometry":{"type":"Polygon","coordinates":[[[-84.2518993,34.0614708],[-84.2520929,34.0614297],[-84.2522387,34.0614003],[-84.2525723,34.0613316],[-84.2529301,34.0612984],[-84.2532591,34.0613356],[-84.2534509,34.0613891],[-84.2537762,34.0615478],[-84.2539343,34.0616707],[-84.2541407,34.0619094],[-84.2542347,34.0620903],[-84.2542662,34.0621752],[-84.2543657,34.0621687],[-84.2544112,34.0621658],[-84.2556866,34.0621897],[-84.256228,34.062199],[-84.2564292,34.0621479],[-84.2565851,34.0620969],[-84.2567069,34.0620059],[-84.2562822,34.061536],[-84.2557535,34.0611098],[-84.2555164,34.0604499],[-84.2552528,34.060397],[-84.2550704,34.060137],[-84.2549805,34.0599331],[-84.2544381,34.0597002],[-84.2541429,34.0596408],[-84.2538421,34.059605],[-84.2533168,34.0595525],[-84.2525798,34.059914],[-84.2522255,34.0601007],[-84.2519655,34.0603322],[-84.2517873,34.0609102],[-84.2518993,34.0614708]]]},"properties":{"amenity":"university","name":"Georgia State University Alpharetta","osm_id":970921554,"osm_type":"way"}},{"type":"Feature","geometry":{"type":"Polygon","coordinates":[[[-84.3262025,33.5914957],[-84.3263752,33.5914695],[-84.32724,33.5913391],[-84.3280861,33.5912591],[-84.3323144,33.5912332],[-84.3367592,33.5912088],[-84.3370469,33.5911548],[-84.3368461,33.5916138],[-84.336583,33.5921002],[-84.336187,33.592721],[-84.335529,33.5936575],[-84.334603,33.5949668],[-84.3338268,33.5962317],[-84.3337648,33.5963425],[-84.33324,33.597619],[-84.330986,33.5977631],[-84.3249359,33.5977707],[-84.3249359,33.596883],[-84.3249359,33.5967064],[-84.324935,33.5961567],[-84.3250546,33.5956623],[-84.3252724,33.5952088],[-84.325737,33.5943832],[-84.3257421,33.5938769],[-84.3252415,33.5918661],[-84.3251898,33.5916587],[-84.3262025,33.5914957]]]},"properties":{"amenity":"university","name":"Clayton State University","osm_id":970994730,"osm_type":"way"}},{"type":"Feature","geometry":{"type":"Polygon","coordinates":[[[-84.4069686,33.7131862],[-84.4068371,33.7132331],[-84.4066493,33.7132644],[-84.4063839,33.7132857],[-84.4046534,33.7132981],[-84.4033106,33.7133213],[-84.4032314,33.7132972],[-84.4031976,33.7142859],[-84.4014966,33.7142165],[-84.4015347,33.7134661],[-84.4025584,33.7133145],[-84.4026522,33.713084],[-84.4025841,33.7129838],[-84.4022729,33.7127431],[-84.402053,33.7124352],[-84.401935,33.7121005],[-84.4019275,33.711823],[-84.4019768,33.7116081],[-84.4020616,33.7112605],[-84.4021514,33.7109231],[-84.4022477,33.7105645],[-84.4028966,33.7105669],[-84.4028979,33.7109607],[-84.4033462,33.7109626],[-84.4041775,33.7109451],[-84.406293,33.7110054],[-84.4065008,33.7110306],[-84.4066666,33.7110792],[-84.4068394,33.7111685],[-84.4070168,33.7113006],[-84.4071429,33.711456],[-84.4072387,33.7115667],[-84.4073181,33.7116561],[-84.4073791,33.7116951],[-84.4074418,33.7117163],[-84.4074932,33.7117221],[-84.4077617,33.711724],[-84.4077528,33.7120144],[-84.4075532,33.7120417],[-84.4075063,33.7120886],[-84.4074241,33.7122663],[-84.4074217,33.712487],[-84.4073748,33.7126667],[-84.4072832,33.712948],[-84.4069686,33.7131862]]]},"properties":{"addr:housenumber":"1560","addr:postcode":"30310-4446","addr:state":"GA","addr:street":"Metropolitan Parkway SW","amenity":"university","ele":"297","gnis:feature_id":"1705129","name":"Atlanta Technical College","website":"https://www.atlantatech.edu/","wikidata":"Q4816162","osm_id":993285347,"osm_type":"way"}},{"type":"Feature","geometry":{"type":"Polygon","coordinates":[[[-84.3822597,33.7545082],[-84.382271,33.755975],[-84.3812575,33.7559731],[-84.3812548,33.7563733],[-84.3814496,33.7563742],[-84.381446,33.7569172],[-84.3814684,33.7571812],[-84.3802855,33.7573762],[-84.3803658,33.7596614],[-84.382253,33.7596166],[-84.3823017,33.7571676],[-84.3843227,33.7571699],[-84.3843562,33.7545346],[-84.3822597,33.7545082]]]},"properties":{"amenity":"university","check_date":"2025-04-08","name":"Georgia State University","osm_id":1110422299,"osm_type":"way"}},{"type":"Feature","geometry":{"type":"Polygon","coordinates":[[[-84.1786439,33.7105694],[-84.1787673,33.7104325],[-84.1788869,33.7103299],[-84.1789356,33.7102676],[-84.1791375,33.7099535],[-84.179661,33.7101401],[-84.180207,33.7100032],[-84.1803191,33.7102925],[-84.1804014,33.7103983],[-84.1805061,33.7105725],[-84.1805473,33.7107031],[-84.1805697,33.7108556],[-84.1805622,33.710952],[-84.1805211,33.711036],[-84.1803416,33.7110577],[-84.1800574,33.711064],[-84.1797321,33.7110142],[-84.1792459,33.7108804],[-84.1787673,33.7106596],[-84.1786439,33.7105694]]]},"properties":{"addr:city":"Decatur","addr:housenumber":"5141","addr:postcode":"30035","addr:state":"GA","addr:street":"Snapfinger Woods Drive","amenity":"university","name":"Gupton Jones College of Funeral Service","website":"https://www.gupton-jones.edu/","osm_id":1152985983,"osm_type":"way"}},{"type":"Feature","geometry":{"type":"Polygon","coordinates":[[[-84.3039308,33.8877205],[-84.303695,33.8867554],[-84.3048686,33.8864503],[-84.304918,33.8863502],[-84.3049015,33.8858084],[-84.3056035,33.8858039],[-84.3064097,33.8859814],[-84.30647,33.886118],[-84.3051319,33.8868601],[-84.3039308,33.8877205]]]},"properties":{"addr:city":"Chamblee","addr:housenumber":"5303","addr:postcode":"30341","addr:state":"GA","addr:street":"New Peachtree Road","amenity":"college","branch":"Atlanta / Chamblee, Georgia (Main Campus)","education":"college","name":"Interactive College of Technology","website":"https://www.ict.edu/campuses/atlanta-chamblee-ga/","osm_id":1155050905,"osm_type":"way"}},{"type":"Feature","geometry":{"type":"Polygon","coordinates":[[[-84.2760844,34.0684651],[-84.2745296,34.0684709],[-84.2740347,34.0684651],[-84.2737644,34.0683982],[-84.2735889,34.0682703],[-84.2734977,34.0681511],[-84.2735363,34.068058],[-84.27381,34.0676917],[-84.2749156,34.0671771],[-84.2761476,34.0671974],[-84.276267,34.0683401],[-84.2760844,34.0684651]]]},"properties":{"addr:city":"Alpharetta","addr:housenumber":"2875","addr:postcode":"30009","addr:state":"GA","addr:street":"Old Milton Parkway","amenity":"college","name":"Gwinnett Technical College (Alpharetta Campus)","operator":"Technical College System of Georgia","phone":"+1-470-282-5400","website":"https://www.gwinnetttech.edu/","osm_id":1360228079,"osm_type":"way"}}],"_source":"OpenStreetMap via Overpass API \u00b7 2026-05-05"}