{
"type": "FeatureCollection",
"name": "atl_pro_hospitals",
"crs": { "type": "name", "properties": { "name": "urn:ogc:def:crs:OGC:1.3:CRS84" } },
"features": [
{ "type": "Feature", "properties": { "Name": "American Stroke Association Greater Southeast", "Address1": "10 Glenlake Pkwy.", "Address2": "Ste. 400", "BldgLine": "South Tower", "City": "Atlanta", "ZipCode": 30328, "County": "Fulton", "SearchTerm": "Stroke Rehabilitation", "Latitude": 33.935624, "Longitude": -84.361178, "Accuracy_S": 1.0, "Accuracy_T": "rooftop", "Number": 10, "Street": "Glenlake Pkwy", "Unit_Type": " ", "Unit_Numbe": 0, "City_1": "Atlanta", "State": "GA", "County_1": "Fulton County", "Zip": 30328, "Country": "US", "Source": "Fulton" }, "geometry": { "type": "Point", "coordinates": [ -84.36117800017324, 33.935623999803951 ] } },
{ "type": "Feature", "properties": { "Name": "BDI - Jonesboro", "Address1": "221 Stockbridge Rd.", "Address2": " ", "BldgLine": " ", "City": "Jonesboro", "ZipCode": 30236, "County": "Clayton", "SearchTerm": "Vocational Rehabilitation", "Latitude": 33.525565, "Longitude": -84.348668, "Accuracy_S": 1.0, "Accuracy_T": "rooftop", "Number": 221, "Street": "Stockbridge Rd", "Unit_Type": " ", "Unit_Numbe": 0, "City_1": "Jonesboro", "State": "GA", "County_1": "Clayton County", "Zip": 30236, "Country": "US", "Source": "Clayton" }, "geometry": { "type": "Point", "coordinates": [ -84.348668000441165, 33.525564999942723 ] } },
{ "type": "Feature", "properties": { "Name": "BDI - Robert J. Freeman Campus", "Address1": "2120 Marietta Blvd., NW", "Address2": " ", "BldgLine": " ", "City": "Atlanta", "ZipCode": 30318, "County": "Fulton", "SearchTerm": "Vocational Rehabilitation", "Latitude": 33.812987, "Longitude": -84.440418, "Accuracy_S": 1.0, "Accuracy_T": "rooftop", "Number": 2120, "Street": "Marietta Blvd NW", "Unit_Type": " ", "Unit_Numbe": 0, "City_1": "Atlanta", "State": "GA", "County_1": "Fulton County", "Zip": 30318, "Country": "US", "Source": "City of Atlanta" }, "geometry": { "type": "Point", "coordinates": [ -84.440417999719983, 33.812987000157747 ] } },
{ "type": "Feature", "properties": { "Name": "Center for the Visually Impaired", "Address1": "739 W. Peachtree St., NW", "Address2": " ", "BldgLine": " ", "City": "Atlanta", "ZipCode": 30308, "County": "Fulton", "SearchTerm": "Vocational Rehabilitation", "Latitude": 33.774775, "Longitude": -84.387177, "Accuracy_S": 0.95, "Accuracy_T": "range_interpolation", "Number": 739, "Street": "W Peachtree St NW", "Unit_Type": " ", "Unit_Numbe": 0, "City_1": "Atlanta", "State": "GA", "County_1": "Fulton County", "Zip": 30309, "Country": "US", "Source": "TIGER/Line® dataset from the US Census Bureau" }, "geometry": { "type": "Point", "coordinates": [ -84.387176999803742, 33.774775000074854 ] } },
{ "type": "Feature", "properties": { "Name": "Children's Healthcare of Atlanta - Egleston", "Address1": "1405 Clifton Rd., NE", "Address2": " ", "BldgLine": " ", "City": "Atlanta", "ZipCode": 30322, "County": "Fulton", "SearchTerm": "Children's Hospitals", "Latitude": 33.793807, "Longitude": -84.320386, "Accuracy_S": 1.0, "Accuracy_T": "rooftop", "Number": 1405, "Street": "Clifton Rd", "Unit_Type": " ", "Unit_Numbe": 0, "City_1": "Atlanta", "State": "GA", "County_1": "DeKalb County", "Zip": 30322, "Country": "US", "Source": "Dekalb" }, "geometry": { "type": "Point", "coordinates": [ -84.320385999889751, 33.793806999681145 ] } },
{ "type": "Feature", "properties": { "Name": "Children's Healthcare of Atlanta - Egleston", "Address1": "1405 Clifton Rd., NE", "Address2": " ", "BldgLine": " ", "City": "Atlanta", "ZipCode": 30322, "County": "Fulton", "SearchTerm": "Inpatient Rehabilitation", "Latitude": 33.793807, "Longitude": -84.320386, "Accuracy_S": 1.0, "Accuracy_T": "rooftop", "Number": 1405, "Street": "Clifton Rd", "Unit_Type": " ", "Unit_Numbe": 0, "City_1": "Atlanta", "State": "GA", "County_1": "DeKalb County", "Zip": 30322, "Country": "US", "Source": "Dekalb" }, "geometry": { "type": "Point", "coordinates": [ -84.320385999889751, 33.793806999681145 ] } },
{ "type": "Feature", "properties": { "Name": "Children's Healthcare of Atlanta - Egleston", "Address1": "1405 Clifton Rd., NE", "Address2": " ", "BldgLine": " ", "City": "Atlanta", "ZipCode": 30322, "County": "Fulton", "SearchTerm": "Stroke Rehabilitation", "Latitude": 33.793807, "Longitude": -84.320386, "Accuracy_S": 1.0, "Accuracy_T": "rooftop", "Number": 1405, "Street": "Clifton Rd", "Unit_Type": " ", "Unit_Numbe": 0, "City_1": "Atlanta", "State": "GA", "County_1": "DeKalb County", "Zip": 30322, "Country": "US", "Source": "Dekalb" }, "geometry": { "type": "Point", "coordinates": [ -84.320385999889751, 33.793806999681145 ] } },
{ "type": "Feature", "properties": { "Name": "Children's Healthcare of Atlanta - Hughes Spalding", "Address1": "35 Jesse Hill Jr. Dr., SE", "Address2": " ", "BldgLine": " ", "City": "Atlanta", "ZipCode": 30303, "County": "Fulton", "SearchTerm": "Children's Hospitals", "Latitude": 33.753757, "Longitude": -84.382079, "Accuracy_S": 1.0, "Accuracy_T": "rooftop", "Number": 35, "Street": "Jesse Hill Jr Dr SE", "Unit_Type": " ", "Unit_Numbe": 0, "City_1": "Atlanta", "State": "GA", "County_1": "Fulton County", "Zip": 30303, "Country": "US", "Source": "City of Atlanta" }, "geometry": { "type": "Point", "coordinates": [ -84.38207900037925, 33.753757000199585 ] } },
{ "type": "Feature", "properties": { "Name": "Children's Healthcare of Atlanta - Hughes Spalding", "Address1": "35 Jesse Hill Jr. Dr., SE", "Address2": " ", "BldgLine": " ", "City": "Atlanta", "ZipCode": 30303, "County": "Fulton", "SearchTerm": "Inpatient Rehabilitation", "Latitude": 33.753757, "Longitude": -84.382079, "Accuracy_S": 1.0, "Accuracy_T": "rooftop", "Number": 35, "Street": "Jesse Hill Jr Dr SE", "Unit_Type": " ", "Unit_Numbe": 0, "City_1": "Atlanta", "State": "GA", "County_1": "Fulton County", "Zip": 30303, "Country": "US", "Source": "City of Atlanta" }, "geometry": { "type": "Point", "coordinates": [ -84.38207900037925, 33.753757000199585 ] } },
{ "type": "Feature", "properties": { "Name": "Children's Healthcare of Atlanta - Hughes Spalding", "Address1": "35 Jesse Hill Jr. Dr., SE", "Address2": " ", "BldgLine": " ", "City": "Atlanta", "ZipCode": 30303, "County": "Fulton", "SearchTerm": "Stroke Rehabilitation", "Latitude": 33.753757, "Longitude": -84.382079, "Accuracy_S": 1.0, "Accuracy_T": "rooftop", "Number": 35, "Street": "Jesse Hill Jr Dr SE", "Unit_Type": " ", "Unit_Numbe": 0, "City_1": "Atlanta", "State": "GA", "County_1": "Fulton County", "Zip": 30303, "Country": "US", "Source": "City of Atlanta" }, "geometry": { "type": "Point", "coordinates": [ -84.38207900037925, 33.753757000199585 ] } },
{ "type": "Feature", "properties": { "Name": "Children's Healthcare of Atlanta - Scottish Rite", "Address1": "1001 Johnson Ferry Rd., NE", "Address2": " ", "BldgLine": " ", "City": "Atlanta", "ZipCode": 303421600, "County": "Fulton", "SearchTerm": "Children's Hospitals", "Latitude": 33.907727, "Longitude": -84.354939, "Accuracy_S": 1.0, "Accuracy_T": "range_interpolation", "Number": 1001, "Street": "Johnson Ferry Rd", "Unit_Type": " ", "Unit_Numbe": 0, "City_1": "Atlanta", "State": "GA", "County_1": "Fulton County", "Zip": 30342, "Country": "US", "Source": "TIGER/Line® dataset from the US Census Bureau" }, "geometry": { "type": "Point", "coordinates": [ -84.354939000200744, 33.907726999842218 ] } },
{ "type": "Feature", "properties": { "Name": "Children's Healthcare of Atlanta - Scottish Rite", "Address1": "1001 Johnson Ferry Rd., NE", "Address2": " ", "BldgLine": " ", "City": "Atlanta", "ZipCode": 303421600, "County": "Fulton", "SearchTerm": "Inpatient Rehabilitation", "Latitude": 33.907727, "Longitude": -84.354939, "Accuracy_S": 1.0, "Accuracy_T": "range_interpolation", "Number": 1001, "Street": "Johnson Ferry Rd", "Unit_Type": " ", "Unit_Numbe": 0, "City_1": "Atlanta", "State": "GA", "County_1": "Fulton County", "Zip": 30342, "Country": "US", "Source": "TIGER/Line® dataset from the US Census Bureau" }, "geometry": { "type": "Point", "coordinates": [ -84.354939000200744, 33.907726999842218 ] } },
{ "type": "Feature", "properties": { "Name": "Children's Healthcare of Atlanta - Scottish Rite", "Address1": "1001 Johnson Ferry Rd., NE", "Address2": " ", "BldgLine": " ", "City": "Atlanta", "ZipCode": 303421600, "County": "Fulton", "SearchTerm": "Stroke Rehabilitation", "Latitude": 33.907727, "Longitude": -84.354939, "Accuracy_S": 1.0, "Accuracy_T": "range_interpolation", "Number": 1001, "Street": "Johnson Ferry Rd", "Unit_Type": " ", "Unit_Numbe": 0, "City_1": "Atlanta", "State": "GA", "County_1": "Fulton County", "Zip": 30342, "Country": "US", "Source": "TIGER/Line® dataset from the US Census Bureau" }, "geometry": { "type": "Point", "coordinates": [ -84.354939000200744, 33.907726999842218 ] } },
{ "type": "Feature", "properties": { "Name": "Christian City", "Address1": "7345 Red Oak Rd.", "Address2": " ", "BldgLine": " ", "City": "Union City", "ZipCode": 30291, "County": "Fulton", "SearchTerm": "Amputee Rehabilitation", "Latitude": 33.555811, "Longitude": -84.520723, "Accuracy_S": 1.0, "Accuracy_T": "rooftop", "Number": 7345, "Street": "Red Oak Rd", "Unit_Type": " ", "Unit_Numbe": 0, "City_1": "Union City", "State": "GA", "County_1": "Fulton County", "Zip": 30291, "Country": "US", "Source": "Fulton" }, "geometry": { "type": "Point", "coordinates": [ -84.520722999646722, 33.555811000028534 ] } },
{ "type": "Feature", "properties": { "Name": "Christian City", "Address1": "7345 Red Oak Rd.", "Address2": " ", "BldgLine": " ", "City": "Union City", "ZipCode": 30291, "County": "Fulton", "SearchTerm": "Brain Injury Rehabilitation", "Latitude": 33.555811, "Longitude": -84.520723, "Accuracy_S": 1.0, "Accuracy_T": "rooftop", "Number": 7345, "Street": "Red Oak Rd", "Unit_Type": " ", "Unit_Numbe": 0, "City_1": "Union City", "State": "GA", "County_1": "Fulton County", "Zip": 30291, "Country": "US", "Source": "Fulton" }, "geometry": { "type": "Point", "coordinates": [ -84.520722999646722, 33.555811000028534 ] } },
{ "type": "Feature", "properties": { "Name": "Christian City", "Address1": "7345 Red Oak Rd.", "Address2": " ", "BldgLine": " ", "City": "Union City", "ZipCode": 30291, "County": "Fulton", "SearchTerm": "Inpatient Rehabilitation", "Latitude": 33.555811, "Longitude": -84.520723, "Accuracy_S": 1.0, "Accuracy_T": "rooftop", "Number": 7345, "Street": "Red Oak Rd", "Unit_Type": " ", "Unit_Numbe": 0, "City_1": "Union City", "State": "GA", "County_1": "Fulton County", "Zip": 30291, "Country": "US", "Source": "Fulton" }, "geometry": { "type": "Point", "coordinates": [ -84.520722999646722, 33.555811000028534 ] } },
{ "type": "Feature", "properties": { "Name": "Christian City", "Address1": "7345 Red Oak Rd.", "Address2": " ", "BldgLine": " ", "City": "Union City", "ZipCode": 30291, "County": "Fulton", "SearchTerm": "Stroke Rehabilitation", "Latitude": 33.555811, "Longitude": -84.520723, "Accuracy_S": 1.0, "Accuracy_T": "rooftop", "Number": 7345, "Street": "Red Oak Rd", "Unit_Type": " ", "Unit_Numbe": 0, "City_1": "Union City", "State": "GA", "County_1": "Fulton County", "Zip": 30291, "Country": "US", "Source": "Fulton" }, "geometry": { "type": "Point", "coordinates": [ -84.520722999646722, 33.555811000028534 ] } },
{ "type": "Feature", "properties": { "Name": "DeKalb Community Service Board", "Address1": "445 Winn Way", "Address2": "4th Fl.", "BldgLine": " ", "City": "Decatur", "ZipCode": 30030, "County": "DeKalb", "SearchTerm": "Vocational Rehabilitation", "Latitude": 33.786633, "Longitude": -84.278627, "Accuracy_S": 1.0, "Accuracy_T": "rooftop", "Number": 445, "Street": "Winn Way", "Unit_Type": " ", "Unit_Numbe": 0, "City_1": "Decatur", "State": "GA", "County_1": "DeKalb County", "Zip": 30030, "Country": "US", "Source": "Dekalb" }, "geometry": { "type": "Point", "coordinates": [ -84.278627000033794, 33.786633000091314 ] } },
{ "type": "Feature", "properties": { "Name": "Emory Decatur Hospital", "Address1": "2701 N. Decatur Rd.", "Address2": " ", "BldgLine": " ", "City": "Decatur", "ZipCode": 30033, "County": "DeKalb", "SearchTerm": "Extended Acute Care Hospitals", "Latitude": 33.790231, "Longitude": -84.282661, "Accuracy_S": 1.0, "Accuracy_T": "rooftop", "Number": 2701, "Street": "N Decatur Rd", "Unit_Type": " ", "Unit_Numbe": 0, "City_1": "Decatur", "State": "GA", "County_1": "DeKalb County", "Zip": 30033, "Country": "US", "Source": "Dekalb" }, "geometry": { "type": "Point", "coordinates": [ -84.282660999801493, 33.790231000348975 ] } },
{ "type": "Feature", "properties": { "Name": "Emory Decatur Hospital", "Address1": "2701 N. Decatur Rd.", "Address2": " ", "BldgLine": " ", "City": "Decatur", "ZipCode": 30033, "County": "DeKalb", "SearchTerm": "Pediatric Rehabilitation", "Latitude": 33.790231, "Longitude": -84.282661, "Accuracy_S": 1.0, "Accuracy_T": "rooftop", "Number": 2701, "Street": "N Decatur Rd", "Unit_Type": " ", "Unit_Numbe": 0, "City_1": "Decatur", "State": "GA", "County_1": "DeKalb County", "Zip": 30033, "Country": "US", "Source": "Dekalb" }, "geometry": { "type": "Point", "coordinates": [ -84.282660999801493, 33.790231000348975 ] } },
{ "type": "Feature", "properties": { "Name": "Emory Hillandale Hospital", "Address1": "2801 DeKalb Medical Pkwy.", "Address2": " ", "BldgLine": " ", "City": "Lithonia", "ZipCode": 30058, "County": "Dekalb", "SearchTerm": "General Acute Care Hospitals", "Latitude": 33.714271, "Longitude": -84.146492, "Accuracy_S": 1.0, "Accuracy_T": "range_interpolation", "Number": 2801, "Street": "Dekalb Medical Pkwy", "Unit_Type": " ", "Unit_Numbe": 0, "City_1": "Lithonia", "State": "GA", "County_1": "DeKalb County", "Zip": 30058, "Country": "US", "Source": "TIGER/Line® dataset from the US Census Bureau" }, "geometry": { "type": "Point", "coordinates": [ -84.146492000177247, 33.714271000212975 ] } },
{ "type": "Feature", "properties": { "Name": "Emory University Hospital at Wesley Wood", "Address1": "1821 Clifton Rd., NE", "Address2": " ", "BldgLine": " ", "City": "Atlanta", "ZipCode": 30329, "County": "DeKalb", "SearchTerm": "Extended Acute Care Hospitals", "Latitude": 33.804837, "Longitude": -84.331174, "Accuracy_S": 0.9, "Accuracy_T": "rooftop", "Number": 1821, "Street": "Clifton Rd NE", "Unit_Type": " ", "Unit_Numbe": 0, "City_1": "Atlanta", "State": "GA", "County_1": "DeKalb County", "Zip": 30329, "Country": "US", "Source": "City of Atlanta" }, "geometry": { "type": "Point", "coordinates": [ -84.331174000189066, 33.804836999919743 ] } },
{ "type": "Feature", "properties": { "Name": "Emory University Hospital at Wesley Wood", "Address1": "1821 Clifton Rd., NE", "Address2": " ", "BldgLine": " ", "City": "Atlanta", "ZipCode": 30329, "County": "DeKalb", "SearchTerm": "Inpatient Rehabilitation", "Latitude": 33.804837, "Longitude": -84.331174, "Accuracy_S": 0.9, "Accuracy_T": "rooftop", "Number": 1821, "Street": "Clifton Rd NE", "Unit_Type": " ", "Unit_Numbe": 0, "City_1": "Atlanta", "State": "GA", "County_1": "DeKalb County", "Zip": 30329, "Country": "US", "Source": "City of Atlanta" }, "geometry": { "type": "Point", "coordinates": [ -84.331174000189066, 33.804836999919743 ] } },
{ "type": "Feature", "properties": { "Name": "Emory University Hospital at Wesley Wood", "Address1": "1821 Clifton Rd., NE", "Address2": " ", "BldgLine": " ", "City": "Atlanta", "ZipCode": 30329, "County": "DeKalb", "SearchTerm": "Stroke Rehabilitation", "Latitude": 33.804837, "Longitude": -84.331174, "Accuracy_S": 0.9, "Accuracy_T": "rooftop", "Number": 1821, "Street": "Clifton Rd NE", "Unit_Type": " ", "Unit_Numbe": 0, "City_1": "Atlanta", "State": "GA", "County_1": "DeKalb County", "Zip": 30329, "Country": "US", "Source": "City of Atlanta" }, "geometry": { "type": "Point", "coordinates": [ -84.331174000189066, 33.804836999919743 ] } },
{ "type": "Feature", "properties": { "Name": "Emory University Hospital Midtown", "Address1": "550 Peachtree St., NE", "Address2": " ", "BldgLine": " ", "City": "Atlanta", "ZipCode": 30308, "County": "Fulton", "SearchTerm": "Extended Acute Care Hospitals", "Latitude": 33.769558, "Longitude": -84.385327, "Accuracy_S": 1.0, "Accuracy_T": "range_interpolation", "Number": 550, "Street": "Peachtree St", "Unit_Type": " ", "Unit_Numbe": 0, "City_1": "Atlanta", "State": "GA", "County_1": "Fulton County", "Zip": 30308, "Country": "US", "Source": "TIGER/Line® dataset from the US Census Bureau" }, "geometry": { "type": "Point", "coordinates": [ -84.385327000324466, 33.769558000017327 ] } },
{ "type": "Feature", "properties": { "Name": "Emory University Hospital Midtown", "Address1": "550 Peachtree St., NE", "Address2": " ", "BldgLine": " ", "City": "Atlanta", "ZipCode": 30308, "County": "Fulton", "SearchTerm": "General Acute Care Hospitals", "Latitude": 33.769558, "Longitude": -84.385327, "Accuracy_S": 1.0, "Accuracy_T": "range_interpolation", "Number": 550, "Street": "Peachtree St", "Unit_Type": " ", "Unit_Numbe": 0, "City_1": "Atlanta", "State": "GA", "County_1": "Fulton County", "Zip": 30308, "Country": "US", "Source": "TIGER/Line® dataset from the US Census Bureau" }, "geometry": { "type": "Point", "coordinates": [ -84.385327000324466, 33.769558000017327 ] } },
{ "type": "Feature", "properties": { "Name": "Emory University Hospital Midtown", "Address1": "550 Peachtree St., NE", "Address2": " ", "BldgLine": " ", "City": "Atlanta", "ZipCode": 30308, "County": "Fulton", "SearchTerm": "Teaching Hospitals", "Latitude": 33.769558, "Longitude": -84.385327, "Accuracy_S": 1.0, "Accuracy_T": "range_interpolation", "Number": 550, "Street": "Peachtree St", "Unit_Type": " ", "Unit_Numbe": 0, "City_1": "Atlanta", "State": "GA", "County_1": "Fulton County", "Zip": 30308, "Country": "US", "Source": "TIGER/Line® dataset from the US Census Bureau" }, "geometry": { "type": "Point", "coordinates": [ -84.385327000324466, 33.769558000017327 ] } },
{ "type": "Feature", "properties": { "Name": "Emory University Orthopedics & Spine Hospital", "Address1": "1455 Montreal Rd.", "Address2": " ", "BldgLine": " ", "City": "Tucker", "ZipCode": 30084, "County": "Dekalb", "SearchTerm": "Inpatient Rehabilitation", "Latitude": 33.826161, "Longitude": -84.250086, "Accuracy_S": 1.0, "Accuracy_T": "range_interpolation", "Number": 1455, "Street": "Montreal Rd", "Unit_Type": " ", "Unit_Numbe": 0, "City_1": "Tucker", "State": "GA", "County_1": "DeKalb County", "Zip": 30084, "Country": "US", "Source": "TIGER/Line® dataset from the US Census Bureau" }, "geometry": { "type": "Point", "coordinates": [ -84.250085999914603, 33.826161000023717 ] } },
{ "type": "Feature", "properties": { "Name": "Frazer Center", "Address1": "1815 S. Ponce de Leon Ave., NE", "Address2": " ", "BldgLine": " ", "City": "Atlanta - DeKalb", "ZipCode": 30307, "County": "Dekalb", "SearchTerm": "Vocational Rehabilitation", "Latitude": 33.771882, "Longitude": -84.328756, "Accuracy_S": 1.0, "Accuracy_T": "range_interpolation", "Number": 1815, "Street": "S Ponce De Leon Ave NE", "Unit_Type": " ", "Unit_Numbe": 0, "City_1": "Atlanta", "State": "GA", "County_1": "DeKalb County", "Zip": 30307, "Country": "US", "Source": "TIGER/Line® dataset from the US Census Bureau" }, "geometry": { "type": "Point", "coordinates": [ -84.328756000447243, 33.771882000169335 ] } },
{ "type": "Feature", "properties": { "Name": "Fulton County Department of Behavioral Health & Developmental Disabilities - North Training Center", "Address1": "5025 Roswell Rd., NE", "Address2": " ", "BldgLine": " ", "City": "Atlanta", "ZipCode": 30342, "County": "Fulton", "SearchTerm": "Vocational Rehabilitation", "Latitude": 33.892126, "Longitude": -84.380682, "Accuracy_S": 1.0, "Accuracy_T": "rooftop", "Number": 5025, "Street": "Roswell Rd", "Unit_Type": " ", "Unit_Numbe": 0, "City_1": "Atlanta", "State": "GA", "County_1": "Fulton County", "Zip": 30342, "Country": "US", "Source": "City of Sandy Springs" }, "geometry": { "type": "Point", "coordinates": [ -84.380681999738187, 33.892125999887448 ] } },
{ "type": "Feature", "properties": { "Name": "Fulton County Department of Behavioral Health & Developmental Disabilities - South Training Center", "Address1": "2605 Fairburn Rd., SW", "Address2": " ", "BldgLine": " ", "City": "Atlanta", "ZipCode": 30331, "County": "Fulton", "SearchTerm": "Vocational Rehabilitation", "Latitude": 33.684437, "Longitude": -84.516576, "Accuracy_S": 1.0, "Accuracy_T": "rooftop", "Number": 2605, "Street": "Fairburn Rd SW", "Unit_Type": " ", "Unit_Numbe": 0, "City_1": "Atlanta", "State": "GA", "County_1": "Fulton County", "Zip": 30331, "Country": "US", "Source": "City of Atlanta" }, "geometry": { "type": "Point", "coordinates": [ -84.516575999901136, 33.684436999902339 ] } },
{ "type": "Feature", "properties": { "Name": "Fulton County Department of Behaviroal Health & Developmental Disabilities - Central Training Center", "Address1": "425 Langhorn St., SW", "Address2": " ", "BldgLine": " ", "City": "Atlanta", "ZipCode": 30310, "County": "Fulton", "SearchTerm": "Vocational Rehabilitation", "Latitude": 33.743402, "Longitude": -84.432971, "Accuracy_S": 1.0, "Accuracy_T": "rooftop", "Number": 425, "Street": "Langhorn St SW", "Unit_Type": " ", "Unit_Numbe": 0, "City_1": "Atlanta", "State": "GA", "County_1": "Fulton County", "Zip": 30310, "Country": "US", "Source": "City of Atlanta" }, "geometry": { "type": "Point", "coordinates": [ -84.432971000150602, 33.74340199996896 ] } },
{ "type": "Feature", "properties": { "Name": "Georgia Vocational Rehabilitation Agency", "Address1": "200 Piedmont Ave., SE", "Address2": "Ste. 1410", "BldgLine": "West Tower", "City": "Atlanta", "ZipCode": 30338, "County": "Fulton", "SearchTerm": "Vocational Rehabilitation", "Latitude": 33.750078, "Longitude": -84.386509, "Accuracy_S": 0.9, "Accuracy_T": "range_interpolation", "Number": 200, "Street": "Piedmont Ave SE", "Unit_Type": " ", "Unit_Numbe": 0, "City_1": "Atlanta", "State": "GA", "County_1": "Fulton County", "Zip": 30303, "Country": "US", "Source": "TIGER/Line® dataset from the US Census Bureau" }, "geometry": { "type": "Point", "coordinates": [ -84.386508999982055, 33.750078000086511 ] } },
{ "type": "Feature", "properties": { "Name": "Georgia Vocational Rehabilitation Agency", "Address1": "200 Piedmont Ave., SE", "Address2": "Ste. 1410", "BldgLine": "West Tower", "City": "Atlanta", "ZipCode": 30338, "County": "Fulton", "SearchTerm": "Vocational Rehabilitation", "Latitude": 33.750078, "Longitude": -84.386509, "Accuracy_S": 0.9, "Accuracy_T": "range_interpolation", "Number": 200, "Street": "Piedmont Ave SE", "Unit_Type": " ", "Unit_Numbe": 0, "City_1": "Atlanta", "State": "GA", "County_1": "Fulton County", "Zip": 30303, "Country": "US", "Source": "TIGER/Line® dataset from the US Census Bureau" }, "geometry": { "type": "Point", "coordinates": [ -84.386508999982055, 33.750078000086511 ] } },
{ "type": "Feature", "properties": { "Name": "Grady Health System", "Address1": "80 Jesse Hill Jr. Dr., SE", "Address2": " ", "BldgLine": " ", "City": "Atlanta", "ZipCode": 30303, "County": "Fulton", "SearchTerm": "City/County Hospitals", "Latitude": 33.752905, "Longitude": -84.382869, "Accuracy_S": 0.78, "Accuracy_T": "nearest_rooftop_match", "Number": 69, "Street": "Jesse Hill Jr Dr SE", "Unit_Type": " ", "Unit_Numbe": 0, "City_1": "Atlanta", "State": "GA", "County_1": "Fulton County", "Zip": 30303, "Country": "US", "Source": "City of Atlanta" }, "geometry": { "type": "Point", "coordinates": [ -84.382869000399651, 33.752905000112172 ] } },
{ "type": "Feature", "properties": { "Name": "Grady Health System", "Address1": "80 Jesse Hill Jr. Dr., SE", "Address2": " ", "BldgLine": " ", "City": "Atlanta", "ZipCode": 30303, "County": "Fulton", "SearchTerm": "Teaching Hospitals", "Latitude": 33.752905, "Longitude": -84.382869, "Accuracy_S": 0.78, "Accuracy_T": "nearest_rooftop_match", "Number": 69, "Street": "Jesse Hill Jr Dr SE", "Unit_Type": " ", "Unit_Numbe": 0, "City_1": "Atlanta", "State": "GA", "County_1": "Fulton County", "Zip": 30303, "Country": "US", "Source": "City of Atlanta" }, "geometry": { "type": "Point", "coordinates": [ -84.382869000399651, 33.752905000112172 ] } },
{ "type": "Feature", "properties": { "Name": "Grady Health System", "Address1": "80 Jesse Hill Jr. Dr., SE", "Address2": " ", "BldgLine": " ", "City": "Atlanta", "ZipCode": 30303, "County": "Fulton", "SearchTerm": "Stroke Rehabilitation", "Latitude": 33.752905, "Longitude": -84.382869, "Accuracy_S": 0.78, "Accuracy_T": "nearest_rooftop_match", "Number": 69, "Street": "Jesse Hill Jr Dr SE", "Unit_Type": " ", "Unit_Numbe": 0, "City_1": "Atlanta", "State": "GA", "County_1": "Fulton County", "Zip": 30303, "Country": "US", "Source": "City of Atlanta" }, "geometry": { "type": "Point", "coordinates": [ -84.382869000399651, 33.752905000112172 ] } },
{ "type": "Feature", "properties": { "Name": "Grady Health System - Crestview Health and Rehabilitation Center", "Address1": "2800 Springdale Rd., SW", "Address2": " ", "BldgLine": " ", "City": "Atlanta", "ZipCode": 30315, "County": "Fulton", "SearchTerm": "Inpatient Rehabilitation", "Latitude": 33.678921, "Longitude": -84.414316, "Accuracy_S": 1.0, "Accuracy_T": "rooftop", "Number": 2800, "Street": "Springdale Rd SW", "Unit_Type": " ", "Unit_Numbe": 0, "City_1": "Atlanta", "State": "GA", "County_1": "Fulton County", "Zip": 30315, "Country": "US", "Source": "City of Atlanta" }, "geometry": { "type": "Point", "coordinates": [ -84.414316000157328, 33.67892099982884 ] } },
{ "type": "Feature", "properties": { "Name": "National Kidney Foundation of Georgia, Alabama & Mississippi", "Address1": "270 Peachtree St., NW", "Address2": "Ste. 1040", "BldgLine": " ", "City": "Atlanta", "ZipCode": 30303, "County": "Fulton", "SearchTerm": "Vocational Rehabilitation", "Latitude": 33.761909, "Longitude": -84.388294, "Accuracy_S": 1.0, "Accuracy_T": "rooftop", "Number": 270, "Street": "Peachtree St NW", "Unit_Type": " ", "Unit_Numbe": 0, "City_1": "Atlanta", "State": "GA", "County_1": "Fulton County", "Zip": 30303, "Country": "US", "Source": "City of Atlanta" }, "geometry": { "type": "Point", "coordinates": [ -84.388294000062302, 33.761909000106364 ] } },
{ "type": "Feature", "properties": { "Name": "Northside Hospital", "Address1": "1000 Johnson Ferry Rd., NE", "Address2": " ", "BldgLine": " ", "City": "Atlanta", "ZipCode": 30342, "County": "Fulton", "SearchTerm": "Inpatient Rehabilitation", "Latitude": 33.908031, "Longitude": -84.354765, "Accuracy_S": 1.0, "Accuracy_T": "range_interpolation", "Number": 1000, "Street": "Johnson Ferry Rd", "Unit_Type": " ", "Unit_Numbe": 0, "City_1": "Atlanta", "State": "GA", "County_1": "Fulton County", "Zip": 30342, "Country": "US", "Source": "TIGER/Line® dataset from the US Census Bureau" }, "geometry": { "type": "Point", "coordinates": [ -84.354765000123464, 33.908030999806307 ] } },
{ "type": "Feature", "properties": { "Name": "Northside Hospital", "Address1": "1000 Johnson Ferry Rd., NE", "Address2": " ", "BldgLine": " ", "City": "Atlanta", "ZipCode": 30342, "County": "Fulton", "SearchTerm": "Stroke Rehabilitation", "Latitude": 33.908031, "Longitude": -84.354765, "Accuracy_S": 1.0, "Accuracy_T": "range_interpolation", "Number": 1000, "Street": "Johnson Ferry Rd", "Unit_Type": " ", "Unit_Numbe": 0, "City_1": "Atlanta", "State": "GA", "County_1": "Fulton County", "Zip": 30342, "Country": "US", "Source": "TIGER/Line® dataset from the US Census Bureau" }, "geometry": { "type": "Point", "coordinates": [ -84.354765000123464, 33.908030999806307 ] } },
{ "type": "Feature", "properties": { "Name": "Piedmont Atlanta Hospital", "Address1": "1968 Peachtree Rd., NW", "Address2": " ", "BldgLine": " ", "City": "Atlanta", "ZipCode": 30309, "County": "Fulton", "SearchTerm": "General Acute Care Hospitals", "Latitude": 33.809038, "Longitude": -84.396371, "Accuracy_S": 1.0, "Accuracy_T": "rooftop", "Number": 1968, "Street": "Peachtree Rd NW", "Unit_Type": " ", "Unit_Numbe": 0, "City_1": "Atlanta", "State": "GA", "County_1": "Fulton County", "Zip": 30309, "Country": "US", "Source": "City of Atlanta" }, "geometry": { "type": "Point", "coordinates": [ -84.396370999818529, 33.809038000022632 ] } },
{ "type": "Feature", "properties": { "Name": "Piedmont Atlanta Hospital", "Address1": "1968 Peachtree Rd., NW", "Address2": " ", "BldgLine": " ", "City": "Atlanta", "ZipCode": 30309, "County": "Fulton", "SearchTerm": "Inpatient Rehabilitation", "Latitude": 33.809038, "Longitude": -84.396371, "Accuracy_S": 1.0, "Accuracy_T": "rooftop", "Number": 1968, "Street": "Peachtree Rd NW", "Unit_Type": " ", "Unit_Numbe": 0, "City_1": "Atlanta", "State": "GA", "County_1": "Fulton County", "Zip": 30309, "Country": "US", "Source": "City of Atlanta" }, "geometry": { "type": "Point", "coordinates": [ -84.396370999818529, 33.809038000022632 ] } },
{ "type": "Feature", "properties": { "Name": "Riverwoods Behavioral Health", "Address1": "223 Medical Center Dr.", "Address2": " ", "BldgLine": " ", "City": "Riverdale", "ZipCode": 30274, "County": "Clayton", "SearchTerm": "Adult Psychiatric Hospitals", "Latitude": 33.581917, "Longitude": -84.390703, "Accuracy_S": 1.0, "Accuracy_T": "rooftop", "Number": 223, "Street": "Medical Center Dr", "Unit_Type": " ", "Unit_Numbe": 0, "City_1": "Riverdale", "State": "GA", "County_1": "Clayton County", "Zip": 30274, "Country": "US", "Source": "Clayton" }, "geometry": { "type": "Point", "coordinates": [ -84.390702999583326, 33.581916999825005 ] } },
{ "type": "Feature", "properties": { "Name": "Riverwoods Behavioral Health", "Address1": "223 Medical Center Dr.", "Address2": " ", "BldgLine": " ", "City": "Riverdale", "ZipCode": 30274, "County": "Clayton", "SearchTerm": "Children's/Adolescent Psychiatric Hospitals", "Latitude": 33.581917, "Longitude": -84.390703, "Accuracy_S": 1.0, "Accuracy_T": "rooftop", "Number": 223, "Street": "Medical Center Dr", "Unit_Type": " ", "Unit_Numbe": 0, "City_1": "Riverdale", "State": "GA", "County_1": "Clayton County", "Zip": 30274, "Country": "US", "Source": "Clayton" }, "geometry": { "type": "Point", "coordinates": [ -84.390702999583326, 33.581916999825005 ] } },
{ "type": "Feature", "properties": { "Name": "Sadie G. Mays Health and Rehabilitation Center", "Address1": "1821 Anderson Ave., NW", "Address2": " ", "BldgLine": " ", "City": "Atlanta", "ZipCode": 30314, "County": "Fulton", "SearchTerm": "Extended Acute Care Hospitals", "Latitude": 33.754797, "Longitude": -84.446459, "Accuracy_S": 0.76, "Accuracy_T": "nearest_rooftop_match", "Number": 1800, "Street": "Anderson Ave NW", "Unit_Type": " ", "Unit_Numbe": 0, "City_1": "Atlanta", "State": "GA", "County_1": "Fulton County", "Zip": 30314, "Country": "US", "Source": "City of Atlanta" }, "geometry": { "type": "Point", "coordinates": [ -84.446459000224081, 33.754796999666361 ] } },
{ "type": "Feature", "properties": { "Name": "Sadie G. Mays Health and Rehabilitation Center", "Address1": "1821 Anderson Ave., NW", "Address2": " ", "BldgLine": " ", "City": "Atlanta", "ZipCode": 30314, "County": "Fulton", "SearchTerm": "Inpatient Rehabilitation", "Latitude": 33.754797, "Longitude": -84.446459, "Accuracy_S": 0.76, "Accuracy_T": "nearest_rooftop_match", "Number": 1800, "Street": "Anderson Ave NW", "Unit_Type": " ", "Unit_Numbe": 0, "City_1": "Atlanta", "State": "GA", "County_1": "Fulton County", "Zip": 30314, "Country": "US", "Source": "City of Atlanta" }, "geometry": { "type": "Point", "coordinates": [ -84.446459000224081, 33.754796999666361 ] } },
{ "type": "Feature", "properties": { "Name": "Sadie G. Mays Health and Rehabilitation Center", "Address1": "1821 Anderson Ave., NW", "Address2": " ", "BldgLine": " ", "City": "Atlanta", "ZipCode": 30314, "County": "Fulton", "SearchTerm": "Stroke Rehabilitation", "Latitude": 33.754797, "Longitude": -84.446459, "Accuracy_S": 0.76, "Accuracy_T": "nearest_rooftop_match", "Number": 1800, "Street": "Anderson Ave NW", "Unit_Type": " ", "Unit_Numbe": 0, "City_1": "Atlanta", "State": "GA", "County_1": "Fulton County", "Zip": 30314, "Country": "US", "Source": "City of Atlanta" }, "geometry": { "type": "Point", "coordinates": [ -84.446459000224081, 33.754796999666361 ] } },
{ "type": "Feature", "properties": { "Name": "Shepherd Center", "Address1": "2020 Peachtree Rd., NW", "Address2": " ", "BldgLine": " ", "City": "Atlanta", "ZipCode": 30309, "County": "Fulton", "SearchTerm": "Inpatient Rehabilitation", "Latitude": 33.81044, "Longitude": -84.393887, "Accuracy_S": 1.0, "Accuracy_T": "rooftop", "Number": 2020, "Street": "Peachtree Rd NW", "Unit_Type": " ", "Unit_Numbe": 0, "City_1": "Atlanta", "State": "GA", "County_1": "Fulton County", "Zip": 30309, "Country": "US", "Source": "City of Atlanta" }, "geometry": { "type": "Point", "coordinates": [ -84.393886999954461, 33.810440000282213 ] } },
{ "type": "Feature", "properties": { "Name": "Southern Regional Medical Center", "Address1": "11 Upper Riverdale Rd., SW", "Address2": " ", "BldgLine": " ", "City": "Riverdale", "ZipCode": 30274, "County": "Clayton", "SearchTerm": "Extended Acute Care Hospitals", "Latitude": 33.579656, "Longitude": -84.388288, "Accuracy_S": 1.0, "Accuracy_T": "rooftop", "Number": 11, "Street": "Upper Riverdale Rd SW", "Unit_Type": " ", "Unit_Numbe": 0, "City_1": "Riverdale", "State": "GA", "County_1": "Clayton County", "Zip": 30274, "Country": "US", "Source": "Clayton" }, "geometry": { "type": "Point", "coordinates": [ -84.38828800021453, 33.57965599968238 ] } },
{ "type": "Feature", "properties": { "Name": "Tools for Life, Georgia's Assistive Technology Act Program", "Address1": "512 Means St.", "Address2": "Ste. 250", "BldgLine": " ", "City": "Atlanta", "ZipCode": 30318, "County": "Fulton", "SearchTerm": "Vocational Rehabilitation", "Latitude": 33.772855, "Longitude": -84.40581, "Accuracy_S": 0.9, "Accuracy_T": "rooftop", "Number": 512, "Street": "Means St NW", "Unit_Type": " ", "Unit_Numbe": 0, "City_1": "Atlanta", "State": "GA", "County_1": "Fulton County", "Zip": 30318, "Country": "US", "Source": "City of Atlanta" }, "geometry": { "type": "Point", "coordinates": [ -84.405810000055709, 33.772855000335817 ] } },
{ "type": "Feature", "properties": { "Name": "Visiting Nurse Health System", "Address1": "5775 Glenridge Dr., NE", "Address2": "Ste. E200", "BldgLine": " ", "City": "Atlanta", "ZipCode": 30328, "County": "Fulton", "SearchTerm": "Stroke Rehabilitation", "Latitude": 33.913665, "Longitude": -84.360123, "Accuracy_S": 1.0, "Accuracy_T": "rooftop", "Number": 5775, "Street": "Glenridge Dr", "Unit_Type": " ", "Unit_Numbe": 0, "City_1": "Atlanta", "State": "GA", "County_1": "Fulton County", "Zip": 30328, "Country": "US", "Source": "City of Sandy Springs" }, "geometry": { "type": "Point", "coordinates": [ -84.360122999838964, 33.91366499968732 ] } },
{ "type": "Feature", "properties": { "Name": "WellStar Atlanta Medical Center", "Address1": "303 Pkwy Dr., NE", "Address2": " ", "BldgLine": " ", "City": "Atlanta", "ZipCode": 30312, "County": "Fulton", "SearchTerm": "Adult Psychiatric Hospitals", "Latitude": 33.744725, "Longitude": -84.375231, "Accuracy_S": 0.13, "Accuracy_T": "place", "Number": 0, "Street": " ", "Unit_Type": " ", "Unit_Numbe": 0, "City_1": "Atlanta", "State": "GA", "County_1": "Fulton County", "Zip": 30312, "Country": "US", "Source": "TIGER/Line® dataset from the US Census Bureau" }, "geometry": { "type": "Point", "coordinates": [ -84.375231000136253, 33.744724999961385 ] } },
{ "type": "Feature", "properties": { "Name": "WellStar Atlanta Medical Center", "Address1": "303 Pkwy Dr., NE", "Address2": " ", "BldgLine": " ", "City": "Atlanta", "ZipCode": 30312, "County": "Fulton", "SearchTerm": "General Acute Care Hospitals", "Latitude": 33.744725, "Longitude": -84.375231, "Accuracy_S": 0.13, "Accuracy_T": "place", "Number": 0, "Street": " ", "Unit_Type": " ", "Unit_Numbe": 0, "City_1": "Atlanta", "State": "GA", "County_1": "Fulton County", "Zip": 30312, "Country": "US", "Source": "TIGER/Line® dataset from the US Census Bureau" }, "geometry": { "type": "Point", "coordinates": [ -84.375231000136253, 33.744724999961385 ] } },
{ "type": "Feature", "properties": { "Name": "WellStar Atlanta Medical Center", "Address1": "303 Pkwy Dr., NE", "Address2": " ", "BldgLine": " ", "City": "Atlanta", "ZipCode": 30312, "County": "Fulton", "SearchTerm": "Physical Medicine and Rehabilitation", "Latitude": 33.744725, "Longitude": -84.375231, "Accuracy_S": 0.13, "Accuracy_T": "place", "Number": 0, "Street": " ", "Unit_Type": " ", "Unit_Numbe": 0, "City_1": "Atlanta", "State": "GA", "County_1": "Fulton County", "Zip": 30312, "Country": "US", "Source": "TIGER/Line® dataset from the US Census Bureau" }, "geometry": { "type": "Point", "coordinates": [ -84.375231000136253, 33.744724999961385 ] } }
]
}
