{"type":"FeatureCollection","features":[{"type":"Feature","geometry":{"type":"LineString","coordinates":[[-84.4479678,33.6318132],[-84.4478055,33.6318133],[-84.447207,33.6318135],[-84.4466604,33.6318137],[-84.4415666,33.6318159],[-84.4410182,33.6318161],[-84.4395687,33.6318155],[-84.4342516,33.6318189],[-84.4338625,33.6318191],[-84.431858,33.6318199],[-84.4276737,33.6318216],[-84.4262908,33.6318222],[-84.4256945,33.6318224],[-84.420928,33.6318244],[-84.4196739,33.631825],[-84.4196587,33.631825],[-84.4196286,33.631825],[-84.4192746,33.6318251],[-84.4188975,33.6318253],[-84.4185718,33.6318254],[-84.4184051,33.6318255]]},"properties":{"aeroway":"runway","length":"2743.2","ref":"09R/27L","source":"yahoo_sat","width":"45.72","osm_id":24445135,"osm_type":"way"}},{"type":"Feature","geometry":{"type":"LineString","coordinates":[[-84.4479795,33.634711],[-84.4478075,33.6347115],[-84.4473711,33.6347129],[-84.4471199,33.6347137],[-84.4443125,33.634713],[-84.441928,33.6347128],[-84.4409397,33.6347127],[-84.4395508,33.6347126],[-84.4360586,33.6347134],[-84.4331058,33.6347126],[-84.4292552,33.6347117],[-84.4284703,33.6347116],[-84.4280657,33.6347116],[-84.4223768,33.6347111],[-84.4218044,33.634711],[-84.4204818,33.6347109],[-84.4176772,33.6347107],[-84.4168569,33.6347106],[-84.4113451,33.6347101],[-84.4098731,33.63471],[-84.4089297,33.6347099]]},"properties":{"aeroway":"runway","length":"3776.47","ref":"09L/27R","source":"yahoo_sat","width":"45.72","osm_id":24445136,"osm_type":"way"}},{"type":"Feature","geometry":{"type":"LineString","coordinates":[[-84.4094603,33.6495486],[-84.4096212,33.6495486],[-84.4101522,33.6495484],[-84.4111931,33.6495482],[-84.4183261,33.6495462],[-84.41879,33.6495461],[-84.4219363,33.6495453],[-84.4223778,33.6495451],[-84.4228137,33.649545],[-84.4233628,33.6495449],[-84.4237842,33.6495448],[-84.4251669,33.6495444],[-84.4279736,33.6495436],[-84.4303754,33.649543],[-84.4367706,33.6495412],[-84.4377211,33.649541],[-84.4388662,33.6495407],[-84.4390323,33.6495406]]},"properties":{"aeroway":"runway","ref":"08L/26R","surface":"concrete","width":"45.72","osm_id":24445137,"osm_type":"way"}},{"type":"Feature","geometry":{"type":"LineString","coordinates":[[-84.4055153,33.6468016],[-84.4056764,33.6468016],[-84.4063623,33.6468014],[-84.4063869,33.6468014],[-84.4086347,33.6468009],[-84.4162642,33.646799],[-84.4171828,33.6467988],[-84.4181554,33.6467986],[-84.4223779,33.6467975],[-84.4233613,33.6467973],[-84.4238271,33.6467972],[-84.4287484,33.646796],[-84.4308557,33.6467955],[-84.4313523,33.6467953],[-84.4362722,33.6467941],[-84.4366144,33.6467941],[-84.437537,33.6467938],[-84.4382056,33.6467937],[-84.4383683,33.6467936]]},"properties":{"aeroway":"runway","ref":"08R/26L","surface":"concrete","width":"45.72","osm_id":24445138,"osm_type":"way"}},{"type":"Feature","geometry":{"type":"LineString","coordinates":[[-84.4478221,33.6202798],[-84.4471839,33.6202811],[-84.4458929,33.6202817],[-84.4390043,33.6202792],[-84.4347771,33.6202805],[-84.434227,33.6202806],[-84.4318206,33.6202788],[-84.4289695,33.6202751],[-84.4269673,33.6202826],[-84.4203888,33.6202889],[-84.4189195,33.6202871],[-84.4183223,33.6202844]]},"properties":{"aeroway":"runway","layer":"1","length":"9000 ft","ref":"10/28","source":"yahoo_sat","width":"150 ft","osm_id":24445139,"osm_type":"way"}},{"type":"Feature","geometry":{"type":"Polygon","coordinates":[[[-84.4388301,33.6372294],[-84.4388315,33.637319],[-84.4388339,33.6374659],[-84.4388348,33.6375234],[-84.43892,33.6375231],[-84.4390275,33.6375227],[-84.4390278,33.637562],[-84.4390312,33.6379475],[-84.4390336,33.638233],[-84.4390365,33.6385641],[-84.4390399,33.6389618],[-84.4390434,33.639367],[-84.4390317,33.639367],[-84.4390319,33.639315],[-84.4389434,33.6393148],[-84.4389434,33.6393869],[-84.4390435,33.6393878],[-84.4390443,33.6394751],[-84.4390498,33.640121],[-84.4390523,33.6404038],[-84.4390553,33.6407533],[-84.4386656,33.640754],[-84.4385754,33.6408251],[-84.4385779,33.6409096],[-84.4385799,33.640978],[-84.4386649,33.641042],[-84.4387905,33.6410422],[-84.4387903,33.6410144],[-84.438806,33.6410144],[-84.4388062,33.6410265],[-84.4390345,33.6410295],[-84.4390337,33.6415396],[-84.4390328,33.6420719],[-84.4390321,33.6425212],[-84.4390315,33.6428998],[-84.4390309,33.6432678],[-84.4390305,33.6435729],[-84.4390304,33.6436129],[-84.4391286,33.6436132],[-84.4391296,33.6438098],[-84.4391378,33.6438098],[-84.4392205,33.6438102],[-84.4393334,33.6438107],[-84.4393334,33.6437955],[-84.4393334,33.6434462],[-84.4393334,33.6430989],[-84.4393334,33.6428322],[-84.4393334,33.642557],[-84.439414,33.6425565],[-84.4394135,33.6424315],[-84.4393352,33.6424315],[-84.4393349,33.6422672],[-84.4393344,33.641987],[-84.4393332,33.6413301],[-84.4393329,33.6411922],[-84.4393644,33.6411915],[-84.4393638,33.6411719],[-84.4394948,33.641172],[-84.4394919,33.6410399],[-84.4395829,33.6410398],[-84.4395829,33.6410092],[-84.4396996,33.6410091],[-84.4397421,33.6409754],[-84.4397861,33.6409405],[-84.4397866,33.6409085],[-84.4397871,33.6407718],[-84.4397021,33.6407055],[-84.4394939,33.6407046],[-84.4394939,33.6406971],[-84.4393649,33.6406945],[-84.439365,33.6406817],[-84.4393664,33.6405609],[-84.4393337,33.6405572],[-84.4393335,33.6403138],[-84.439333,33.6397115],[-84.4393327,33.6392513],[-84.4393322,33.6386334],[-84.4393319,33.63826],[-84.4393315,33.6377451],[-84.4393313,33.6375245],[-84.4394297,33.6375247],[-84.4394304,33.6373527],[-84.4394307,33.637285],[-84.4394309,33.6372332],[-84.4388301,33.6372294]]]},"properties":{"aeroway":"terminal","building":"yes","name":"Concourse A","operator":"Hartsfield-Jackson Atlanta International Airport","source":"yahoo_sat","osm_id":24445165,"osm_type":"way"}},{"type":"Feature","geometry":{"type":"Polygon","coordinates":[[[-84.4294324,33.6376554],[-84.429322,33.6376548],[-84.4292308,33.6376543],[-84.4292194,33.6376548],[-84.4292198,33.6378022],[-84.4292206,33.6380754],[-84.4292211,33.6382356],[-84.4291715,33.6382361],[-84.4291715,33.6384647],[-84.4291715,33.6385186],[-84.4292205,33.6385187],[-84.4292194,33.6387786],[-84.4292186,33.6389755],[-84.4291969,33.6389755],[-84.4291919,33.6391101],[-84.4292241,33.6391112],[-84.4292234,33.6393099],[-84.4292224,33.6396319],[-84.4292215,33.6399048],[-84.4291698,33.6399033],[-84.4291698,33.6399298],[-84.4291699,33.6401635],[-84.4291699,33.640208],[-84.4292208,33.6402094],[-84.4292203,33.6405445],[-84.4292203,33.640574],[-84.4291558,33.6405734],[-84.4291551,33.6406895],[-84.4291097,33.6406897],[-84.4291112,33.6406075],[-84.429039,33.6406084],[-84.42904,33.6406798],[-84.4288324,33.6408108],[-84.4287629,33.6408072],[-84.4287616,33.6408364],[-84.4287612,33.6408449],[-84.4288036,33.6408482],[-84.4288037,33.6408709],[-84.4288035,33.6409088],[-84.4288033,33.6409361],[-84.4288872,33.6409358],[-84.4288872,33.6409416],[-84.4288875,33.6409812],[-84.4289687,33.6409809],[-84.4289685,33.641037],[-84.4291153,33.6410363],[-84.4291153,33.6410614],[-84.4291583,33.6410609],[-84.429158,33.6410968],[-84.4292188,33.6410983],[-84.4292188,33.6411033],[-84.4292196,33.6414862],[-84.4292201,33.6417663],[-84.4292205,33.641942],[-84.429177,33.6419409],[-84.4291773,33.6420191],[-84.42922,33.6420191],[-84.4292202,33.6420764],[-84.4292213,33.6423539],[-84.4292222,33.6425623],[-84.4292226,33.6426657],[-84.429224,33.6430075],[-84.4292249,33.643237],[-84.4291721,33.6432363],[-84.4291722,33.6432612],[-84.4291727,33.6434193],[-84.4292343,33.6434194],[-84.4293081,33.6434195],[-84.4293968,33.6434196],[-84.4294303,33.6434196],[-84.4294298,33.6433228],[-84.42943,33.6432414],[-84.4294295,33.6429611],[-84.4294291,33.6427562],[-84.4294291,33.6427437],[-84.4294546,33.6427432],[-84.4294565,33.6426215],[-84.4294311,33.6426221],[-84.4294313,33.642414],[-84.4294315,33.6421701],[-84.4294316,33.6421165],[-84.429432,33.6417512],[-84.4294322,33.641499],[-84.4294324,33.6412941],[-84.4294548,33.6412941],[-84.4294562,33.641169],[-84.4294328,33.641169],[-84.4294329,33.641097],[-84.4294912,33.641097],[-84.4294926,33.6410467],[-84.4295209,33.6410467],[-84.4296412,33.6409996],[-84.429641,33.6409813],[-84.429867,33.6409806],[-84.4298675,33.6409384],[-84.4298678,33.6409094],[-84.4298682,33.6408697],[-84.4298685,33.6408461],[-84.4298914,33.6408464],[-84.4298908,33.6407544],[-84.4297686,33.6407531],[-84.4297693,33.6406903],[-84.4296021,33.6406241],[-84.4296018,33.6406048],[-84.4294558,33.6406021],[-84.4294548,33.6405603],[-84.42943,33.6405599],[-84.42943,33.6405435],[-84.4294307,33.6401603],[-84.4294316,33.639628],[-84.4294322,33.6393114],[-84.4294324,33.6391976],[-84.4294791,33.6391976],[-84.4294782,33.6389428],[-84.4294776,33.6387815],[-84.4294773,33.6387131],[-84.4294281,33.6387132],[-84.429431,33.6384935],[-84.4294767,33.6384939],[-84.4294768,33.6384716],[-84.4294781,33.6382577],[-84.4294293,33.6382571],[-84.4294301,33.6380976],[-84.4294322,33.6377191],[-84.4294324,33.6376554]]]},"properties":{"aeroway":"terminal","building":"yes","name":"Concourse D","operator":"Hartsfield-Jackson Atlanta International Airport","source":"yahoo_sat","osm_id":24445166,"osm_type":"way"}},{"type":"Feature","geometry":{"type":"Polygon","coordinates":[[[-84.4327627,33.6377861],[-84.4327175,33.6377864],[-84.4325965,33.6377873],[-84.4324921,33.6377881],[-84.4324556,33.6377884],[-84.4324525,33.6378576],[-84.432456,33.6381207],[-84.4324564,33.638475],[-84.4324567,33.638796],[-84.4324573,33.6393501],[-84.4324575,33.6395431],[-84.4324579,33.6398488],[-84.4324584,33.6403573],[-84.4324587,33.6406222],[-84.4323784,33.6406211],[-84.4323485,33.6406477],[-84.4323487,33.6407424],[-84.4324167,33.6407422],[-84.4324167,33.6407257],[-84.4324581,33.6407253],[-84.4324577,33.6407947],[-84.4319786,33.6407958],[-84.4319542,33.6408356],[-84.4319278,33.6408358],[-84.4318829,33.6409017],[-84.4318314,33.6409771],[-84.4322342,33.6410487],[-84.4322347,33.6410951],[-84.4324578,33.6410963],[-84.4324579,33.6411409],[-84.4324588,33.6414083],[-84.4324591,33.6414981],[-84.4323756,33.6414987],[-84.4323751,33.6416372],[-84.4324599,33.6416372],[-84.4324589,33.6417838],[-84.4324577,33.641947],[-84.4323848,33.6419475],[-84.4323853,33.6422288],[-84.432409,33.6422289],[-84.4324082,33.6422615],[-84.4324051,33.6423801],[-84.4324587,33.6423808],[-84.4324586,33.6424542],[-84.4324581,33.6427535],[-84.4324392,33.642753],[-84.4324399,33.6428907],[-84.4324578,33.6428909],[-84.4324577,33.6429481],[-84.4324576,33.6430223],[-84.4323607,33.6430857],[-84.4323607,33.6430983],[-84.4323607,33.6432813],[-84.4324016,33.6433119],[-84.4324545,33.6433515],[-84.4324974,33.6433515],[-84.4325615,33.6433515],[-84.4325608,33.6433893],[-84.4325949,33.6434169],[-84.4325946,33.6434361],[-84.4326117,33.6434365],[-84.432629,33.6434369],[-84.4326291,33.6434188],[-84.4326675,33.6433886],[-84.4326683,33.6433528],[-84.4327133,33.6433527],[-84.4327416,33.6433527],[-84.4327669,33.6433527],[-84.4328423,33.6433029],[-84.4328676,33.6432862],[-84.4328694,33.6431093],[-84.4328696,33.6430856],[-84.4327641,33.6430168],[-84.4327641,33.6427344],[-84.4327641,33.642277],[-84.4327641,33.6421654],[-84.432836,33.6421648],[-84.4328379,33.6419709],[-84.4328385,33.6419127],[-84.4328118,33.6419125],[-84.4328119,33.6418529],[-84.4327614,33.641853],[-84.4327614,33.6416083],[-84.4327613,33.6413566],[-84.4328659,33.6413567],[-84.432866,33.6413302],[-84.4328665,33.6411633],[-84.4328668,33.6410615],[-84.4329217,33.6410615],[-84.4329223,33.6410485],[-84.4330492,33.6410261],[-84.4330496,33.6410025],[-84.433184,33.6409787],[-84.4331846,33.6409391],[-84.4333448,33.6409103],[-84.433263,33.6407947],[-84.4332378,33.6407945],[-84.4332117,33.6407541],[-84.4331049,33.6407545],[-84.4327631,33.6407524],[-84.4327627,33.6407016],[-84.4327626,33.6406524],[-84.4328497,33.6406518],[-84.4328504,33.640447],[-84.4327644,33.6404469],[-84.4327646,33.6403429],[-84.4327647,33.6403024],[-84.4327874,33.6403024],[-84.4327883,33.6401645],[-84.4327639,33.6401645],[-84.4327638,33.6399547],[-84.4327636,33.6396404],[-84.4327634,33.6391766],[-84.4327632,33.6388334],[-84.432763,33.6384757],[-84.4327629,33.6381217],[-84.4327627,33.6377861]]]},"properties":{"aeroway":"terminal","building":"yes","name":"Concourse C","operator":"Hartsfield-Jackson Atlanta International Airport","source":"yahoo_sat","osm_id":24445167,"osm_type":"way"}},{"type":"Feature","geometry":{"type":"Polygon","coordinates":[[[-84.4364196,33.6405384],[-84.4360658,33.6405402],[-84.4360658,33.640516],[-84.4360657,33.6401944],[-84.4360656,33.6398103],[-84.4360655,33.6394512],[-84.4360655,33.6392663],[-84.4361616,33.6392669],[-84.4361613,33.6391939],[-84.4360642,33.639194],[-84.4360617,33.6389112],[-84.4361425,33.6389112],[-84.4361414,33.638775],[-84.4360641,33.6387741],[-84.4360632,33.6384631],[-84.436062,33.6380085],[-84.4360613,33.637744],[-84.4360612,33.6377172],[-84.4359638,33.6377166],[-84.4359621,33.6375241],[-84.4360632,33.637525],[-84.4360732,33.6375149],[-84.4360719,33.6374569],[-84.4358774,33.6374577],[-84.4357044,33.6374585],[-84.4357058,33.6375233],[-84.4357564,33.6375233],[-84.4357565,33.6375637],[-84.435757,33.6378218],[-84.4357578,33.6381993],[-84.4357585,33.6385454],[-84.4357592,33.6388758],[-84.4357602,33.6393619],[-84.4357608,33.6396704],[-84.4357621,33.6403275],[-84.4357622,33.640357],[-84.4357413,33.6403582],[-84.4357396,33.6404695],[-84.4357447,33.6404701],[-84.4357433,33.6404938],[-84.4357625,33.6404944],[-84.4357626,33.6405157],[-84.4354273,33.6405165],[-84.4353628,33.6405747],[-84.4353081,33.6406322],[-84.4353083,33.640687],[-84.4353086,33.6407864],[-84.4353301,33.6408075],[-84.4353719,33.6408489],[-84.4357603,33.6408464],[-84.4357606,33.6408768],[-84.4357614,33.6409482],[-84.4356964,33.6409477],[-84.4357162,33.6409728],[-84.4355884,33.6409717],[-84.4355884,33.6411193],[-84.4355884,33.6412251],[-84.4357212,33.6412251],[-84.4357623,33.641205],[-84.4357619,33.6412863],[-84.4357615,33.6413775],[-84.4356816,33.6413781],[-84.4356843,33.6415026],[-84.435761,33.641502],[-84.4357597,33.641822],[-84.4357594,33.6419007],[-84.4356885,33.6419024],[-84.4356854,33.6422518],[-84.4357594,33.642253],[-84.4357594,33.6422591],[-84.4357613,33.6427409],[-84.4357614,33.6427637],[-84.4356836,33.6427642],[-84.4356843,33.6428904],[-84.4357614,33.6428915],[-84.435762,33.6431248],[-84.435763,33.6435422],[-84.4357636,33.6438148],[-84.4359007,33.6438157],[-84.4360235,33.6438166],[-84.4360655,33.6438169],[-84.4360656,33.643662],[-84.4360657,33.6432222],[-84.4360653,33.6427363],[-84.4360659,33.6427134],[-84.436141,33.6427112],[-84.4361423,33.6422668],[-84.436065,33.6422657],[-84.436065,33.6422068],[-84.4360651,33.6418936],[-84.4360652,33.6417248],[-84.4361436,33.6417242],[-84.4361423,33.6414719],[-84.4360652,33.6414713],[-84.436066,33.6413549],[-84.4360669,33.641242],[-84.436067,33.6412246],[-84.4362073,33.641224],[-84.4362067,33.640972],[-84.4361641,33.6409722],[-84.436205,33.6409488],[-84.4360669,33.6409499],[-84.4360662,33.6409128],[-84.4362213,33.6409104],[-84.4362207,33.6408659],[-84.4364178,33.6408689],[-84.4364708,33.6408096],[-84.4365112,33.6407631],[-84.4365118,33.6406922],[-84.4365122,33.6406481],[-84.4364196,33.6405384]]]},"properties":{"aeroway":"terminal","building":"yes","name":"Concourse B","operator":"Hartsfield-Jackson Atlanta International Airport","source":"yahoo_sat","osm_id":24445168,"osm_type":"way"}},{"type":"Feature","geometry":{"type":"Polygon","coordinates":[[[-84.4259288,33.6372474],[-84.4259291,33.6374564],[-84.425933,33.6381628],[-84.4259316,33.6385246],[-84.4259314,33.6390349],[-84.425933,33.6396008],[-84.4259331,33.6401972],[-84.4259331,33.6402276],[-84.4261042,33.6402313],[-84.4261916,33.6402812],[-84.4263515,33.6403725],[-84.4263513,33.6403785],[-84.4263498,33.6404235],[-84.4267878,33.6404209],[-84.4267871,33.6408789],[-84.4263514,33.6408784],[-84.4263501,33.6409234],[-84.426284,33.6409552],[-84.4260982,33.6410444],[-84.426019,33.6410446],[-84.4260185,33.6411277],[-84.4259316,33.6411266],[-84.4259317,33.6414407],[-84.4259319,33.6420265],[-84.4259319,33.6426702],[-84.425932,33.6433353],[-84.4259321,33.643655],[-84.4259279,33.6437849],[-84.4257581,33.6437846],[-84.4257331,33.6437845],[-84.4256648,33.6437844],[-84.4256569,33.6437844],[-84.4255653,33.6437842],[-84.4255651,33.6437741],[-84.4255529,33.6431172],[-84.4255455,33.6427194],[-84.4255358,33.6421953],[-84.4255275,33.6417477],[-84.4251707,33.6417385],[-84.4251736,33.6410713],[-84.4250031,33.6410716],[-84.4250036,33.6409824],[-84.4248392,33.6409821],[-84.424838,33.6410385],[-84.424791,33.6410383],[-84.4247527,33.6410381],[-84.4247516,33.640982],[-84.4243326,33.6409813],[-84.4243341,33.6407977],[-84.4243064,33.6407976],[-84.4236314,33.6407958],[-84.4236305,33.6408192],[-84.4235871,33.640819],[-84.4235423,33.6408187],[-84.4235421,33.6407955],[-84.4232196,33.6407946],[-84.4232189,33.6408193],[-84.4231927,33.6408193],[-84.4230939,33.6408191],[-84.4230931,33.6410131],[-84.4230013,33.6410137],[-84.4230017,33.6409758],[-84.4229549,33.6409759],[-84.4229562,33.6404838],[-84.4229894,33.6404826],[-84.4234638,33.6404822],[-84.4234638,33.6404612],[-84.4235086,33.6404612],[-84.4235668,33.6404612],[-84.4235668,33.6404843],[-84.4240961,33.6404856],[-84.4240953,33.6404588],[-84.4241434,33.6404594],[-84.4241991,33.64046],[-84.4241982,33.6404859],[-84.4243076,33.6404862],[-84.4243319,33.6404863],[-84.4243326,33.6402954],[-84.4250026,33.6402972],[-84.4250029,33.6402016],[-84.4251653,33.640202],[-84.4251662,33.6399612],[-84.4251668,33.6397997],[-84.4251675,33.6396355],[-84.425313,33.6396359],[-84.4255404,33.6396366],[-84.4255526,33.6396366],[-84.4255557,33.6391028],[-84.4255581,33.6386813],[-84.425561,33.6381303],[-84.4255639,33.6376768],[-84.4255652,33.6374551],[-84.4255663,33.6372584],[-84.4255664,33.6372453],[-84.4257482,33.6372464],[-84.4259288,33.6372474]]]},"properties":{"aeroway":"terminal","building":"yes","name":"Concourse E","operator":"Hartsfield-Jackson Atlanta International Airport","source":"yahoo_sat","wheelchair":"yes","osm_id":24445175,"osm_type":"way"}},{"type":"Feature","geometry":{"type":"Polygon","coordinates":[[[-84.4423155,33.641802],[-84.4423029,33.6417941],[-84.4423009,33.6415368],[-84.4422991,33.64132],[-84.4422974,33.6410923],[-84.4422966,33.6409963],[-84.4422954,33.6409757],[-84.4422961,33.6409367],[-84.4420319,33.6409381],[-84.4420317,33.6409286],[-84.4420313,33.6408538],[-84.4418056,33.6408535],[-84.441807,33.6407377],[-84.4419483,33.6407353],[-84.4420101,33.6407225],[-84.4420571,33.6407102],[-84.44212,33.6406506],[-84.4422126,33.6405628],[-84.4423017,33.6405639],[-84.4423013,33.6401885],[-84.4423009,33.6397742],[-84.4423006,33.639494],[-84.4423003,33.6392433],[-84.4422999,33.6387978],[-84.4422992,33.6381726],[-84.4422986,33.6376093],[-84.4422983,33.6373011],[-84.4423143,33.6373011],[-84.4424368,33.637301],[-84.4424368,33.6372755],[-84.442534,33.6372755],[-84.4425338,33.639814],[-84.4429558,33.6400978],[-84.4429577,33.6404437],[-84.4431055,33.6404431],[-84.4431063,33.6405767],[-84.4427318,33.6405781],[-84.4427321,33.6406218],[-84.4427323,33.6406676],[-84.4430747,33.6406662],[-84.4430752,33.6407515],[-84.4430762,33.640912],[-84.4430763,33.64093],[-84.443151,33.6409297],[-84.4431512,33.6409594],[-84.4431516,33.6410159],[-84.4432165,33.6410156],[-84.4432169,33.6410876],[-84.4431136,33.6410881],[-84.443114,33.6411475],[-84.4429518,33.6411483],[-84.4429543,33.6415027],[-84.4425063,33.6417996],[-84.4425076,33.6431522],[-84.442508,33.6435617],[-84.4425951,33.6435617],[-84.4425953,33.6437851],[-84.4426925,33.6437851],[-84.4426926,33.6439414],[-84.4427973,33.6439414],[-84.4427974,33.6441338],[-84.4428282,33.6441338],[-84.4428283,33.6443255],[-84.4428283,33.644339],[-84.4428283,33.6443615],[-84.4426389,33.6443615],[-84.4424542,33.6443615],[-84.4423156,33.6443615],[-84.4423156,33.6442313],[-84.4423156,33.643984],[-84.4423156,33.6435086],[-84.4423156,33.6432845],[-84.4423155,33.6429427],[-84.4423155,33.642352],[-84.4423155,33.6420206],[-84.4423155,33.641802]]]},"properties":{"aeroway":"terminal","building":"yes","name":"Concourse T","operator":"Hartsfield-Jackson Atlanta International Airport","source":"yahoo_sat","osm_id":24445333,"osm_type":"way"}},{"type":"Feature","geometry":{"type":"LineString","coordinates":[[-84.5300947,33.7786962],[-84.5297235,33.7787537],[-84.5283086,33.7789682],[-84.5281385,33.778994],[-84.5279894,33.7790169],[-84.527577,33.7790804],[-84.5271419,33.7791451],[-84.5270101,33.7791647],[-84.5268602,33.7791875],[-84.5226297,33.7798313],[-84.522466,33.7798553],[-84.5222819,33.7798842],[-84.517728,33.7805759],[-84.5175639,33.7806009],[-84.5173781,33.7806291],[-84.5136316,33.7811985],[-84.5134717,33.7812228],[-84.5132854,33.7812511],[-84.511418,33.7815347]]},"properties":{"aeroway":"runway","length":"1766.93","ref":"08/26","width":"30.48","osm_id":24471501,"osm_type":"way"}},{"type":"Feature","geometry":{"type":"LineString","coordinates":[[-84.3054839,33.8826409],[-84.3040421,33.8797698],[-84.3032292,33.8781455],[-84.3027617,33.8772136],[-84.3023171,33.876284],[-84.3014519,33.8745728],[-84.3013795,33.8744284],[-84.3011697,33.8740103],[-84.3006185,33.8729051],[-84.3005069,33.8726818],[-84.3004771,33.8726221]]},"properties":{"aeroway":"runway","ref":"16/34","source":"Bing","surface":"paved","width":"150 ft","osm_id":30027008,"osm_type":"way"}},{"type":"Feature","geometry":{"type":"LineString","coordinates":[[-84.3055328,33.8690906],[-84.3055099,33.8691419],[-84.3043865,33.871655],[-84.3033604,33.8739351],[-84.3026491,33.8755246],[-84.3023171,33.876284],[-84.3019769,33.8770672],[-84.301309,33.878539],[-84.3012892,33.8785832]]},"properties":{"aeroway":"runway","length":"1141.78","ref":"03L/21R","source":"Yahoo aerial photos","surface":"paved","width":"45.72","osm_id":30027023,"osm_type":"way"}},{"type":"Feature","geometry":{"type":"LineString","coordinates":[[-84.2982581,33.8814019],[-84.2997635,33.8780404],[-84.3010406,33.8752009],[-84.3013113,33.8745841],[-84.3013795,33.8744284],[-84.3017167,33.8736585],[-84.3018132,33.8734447],[-84.3028382,33.8711744],[-84.3039836,33.8686307]]},"properties":{"aeroway":"runway","length":"1829.11","ref":"03R/21L","surface":"paved","width":"30.48","osm_id":30027043,"osm_type":"way"}},{"type":"Feature","geometry":{"type":"LineString","coordinates":[[-84.5005581,33.9114308],[-84.5006501,33.9114531],[-84.5017753,33.911736],[-84.5087048,33.9134216],[-84.5098048,33.9136892],[-84.5099386,33.9137217],[-84.5106032,33.9138834],[-84.5108496,33.9139433],[-84.5110786,33.9139992],[-84.5121483,33.9142603],[-84.5149394,33.9149416],[-84.5235971,33.9170464],[-84.5241447,33.9171795],[-84.5246633,33.9173049],[-84.5312506,33.9188981],[-84.5320619,33.9190939],[-84.5321846,33.9191236]]},"properties":{"access":"no","aeroway":"runway","length":"3049","ref":"11/29","surface":"concrete","width":"91","osm_id":30074314,"osm_type":"way"}},{"type":"Feature","geometry":{"type":"LineString","coordinates":[[-84.5010501,33.9103145],[-84.5013253,33.9103808],[-84.5017642,33.9104865],[-84.5097563,33.9124114],[-84.5150795,33.9137159]]},"properties":{"access":"no","aeroway":"runway","length":"1065","name":"Assault Strip 110/290","ref":"110/290","surface":"asphalt","width":"18","osm_id":30074347,"osm_type":"way"}},{"type":"Feature","geometry":{"type":"LineString","coordinates":[[-84.5867145,34.0133534],[-84.5906595,34.0132805],[-84.5923102,34.01325],[-84.5923377,34.0132494],[-84.5967081,34.0131687],[-84.6011552,34.0130864],[-84.6039008,34.0130377]]},"properties":{"aeroway":"runway","lit":"yes","ref":"09/27","source":"Yahoo aerial photos","surface":"concrete","osm_id":30655059,"osm_type":"way"}},{"type":"Feature","geometry":{"type":"Polygon","coordinates":[[[-84.5984628,34.0181462],[-84.5986882,34.0180801],[-84.6051451,34.015561],[-84.6084817,34.0136177],[-84.6085182,34.0134955],[-84.6085056,34.0133653],[-84.6083272,34.013043],[-84.6081344,34.0127629],[-84.607946,34.0125303],[-84.6075098,34.0121315],[-84.6068153,34.0115008],[-84.6066324,34.0112954],[-84.6064745,34.0110949],[-84.6061474,34.0106724],[-84.606124,34.0106511],[-84.6060949,34.0106359],[-84.6060724,34.0106292],[-84.6060458,34.0106292],[-84.6059242,34.0106455],[-84.6057486,34.0106727],[-84.6056096,34.0106863],[-84.6054755,34.0106919],[-84.6008835,34.0106131],[-84.6009397,34.0120422],[-84.5835407,34.0120332],[-84.5842957,34.0142432],[-84.5857622,34.0145427],[-84.5916095,34.0143896],[-84.5968239,34.0152254],[-84.5978168,34.0155132],[-84.5982946,34.0158012],[-84.5984628,34.0181462]]]},"properties":{"addr:city":"Kennesaw","addr:housenumber":"1723","addr:postcode":"30144","addr:state":"GA","addr:street":"McCollum Parkway Northwest","aeroway":"aerodrome","alt_name":"McCollum Field","city_served":"Atlanta, Georgia","ele":"314","gnis:feature_id":"326823","icao":"KRYY","internet_access":"no","name":"Cobb County International Airport","name:en":"Cobb County International Airport","old_name":"Cobb County-McCollum Field","operator":"County Department of Transportation","owner":"Cobb County, Georgia","source":"wikipedia","type":"public","website":"https://www.cobbcounty.org/transportation/airport","wikidata":"Q1654666","wikipedia":"en:Cobb County International Airport","osm_id":30655220,"osm_type":"way"}},{"type":"Feature","geometry":{"type":"Polygon","coordinates":[[[-84.3070002,33.8859337],[-84.3069025,33.8859116],[-84.3064814,33.8857364],[-84.3060705,33.8856357],[-84.3056384,33.8855696],[-84.3034041,33.8855347],[-84.2998303,33.8855404],[-84.2964147,33.8855142],[-84.2964924,33.8852891],[-84.2958424,33.8849633],[-84.2957622,33.8845212],[-84.2956009,33.8844757],[-84.2948902,33.8841561],[-84.294426,33.8842049],[-84.2967909,33.8787145],[-84.2967376,33.8780936],[-84.2964485,33.8778517],[-84.2955043,33.8768137],[-84.2961611,33.8762598],[-84.296556,33.8755938],[-84.2959598,33.8751831],[-84.2950668,33.8745766],[-84.2947885,33.8743654],[-84.2956006,33.8731149],[-84.2960266,33.8729949],[-84.2970513,33.8730033],[-84.2986369,33.8730164],[-84.2997992,33.8718668],[-84.2981628,33.8705171],[-84.2997276,33.8691603],[-84.2998672,33.8691848],[-84.3000204,33.8691925],[-84.3002398,33.8692027],[-84.3006075,33.8692063],[-84.3008942,33.8693249],[-84.3026134,33.8681407],[-84.3027251,33.8680319],[-84.3029881,33.8679271],[-84.3035757,33.8678619],[-84.3036142,33.8677732],[-84.3036255,33.867228],[-84.3036065,33.8665459],[-84.3038493,33.8665595],[-84.3050333,33.8664653],[-84.3055966,33.8663627],[-84.30608,33.8662244],[-84.3067655,33.8660117],[-84.3079957,33.865662],[-84.3079985,33.8679444],[-84.3071785,33.8679508],[-84.3065707,33.8693848],[-84.3064893,33.8699553],[-84.3061841,33.8706877],[-84.3058676,33.8711089],[-84.3064416,33.8720341],[-84.3069469,33.8726003],[-84.3071167,33.8727905],[-84.3093074,33.872741],[-84.3093267,33.8734075],[-84.3093239,33.8737798],[-84.3093152,33.8749273],[-84.3093307,33.8754656],[-84.309331,33.8764577],[-84.309331,33.8765532],[-84.3093313,33.8777364],[-84.3093423,33.8789827],[-84.3070651,33.8789856],[-84.307064,33.8817177],[-84.3070651,33.8830087],[-84.3072233,33.8835329],[-84.307737,33.884662],[-84.3081353,33.8855665],[-84.3081704,33.8856558],[-84.3081229,33.8857041],[-84.3076855,33.8857709],[-84.3070849,33.8858911],[-84.3070002,33.8859337]]]},"properties":{"LandPro08:DE3":"DEVELOPED","LandPro08:DE5":"AAAB","LandPro08:LC":"14","LandPro08:LCLU":"1414","LandPro08:LC_NAME":"TCU","LandPro08:LU":"14","LandPro08:LU_NAME":"TCU","aeroway":"aerodrome","closest_town":"Atlanta, Georgia","ele":"305.7","iata":"PDK","icao":"KPDK","loc_name":"Peachtree-Dekalb Airport","name":"DeKalb-Peachtree Airport","name:en":"DeKalb-Peachtree Airport","operator":"DeKalb County","source":"LandPro08;wikipedia","type":"public","wikidata":"Q1654437","wikipedia":"en:DeKalb\u2013Peachtree Airport","osm_id":34847193,"osm_type":"way"}},{"type":"Feature","geometry":{"type":"LineString","coordinates":[[-84.1196933,33.8153721],[-84.1185689,33.8094602]]},"properties":{"access":"no","aeroway":"runway","name":"Stone Mountain Airport (closed)","surface":"gravel","osm_id":40789117,"osm_type":"way"}},{"type":"Feature","geometry":{"type":"Polygon","coordinates":[[[-84.4429577,33.6404437],[-84.4429558,33.6400978],[-84.446097,33.640098],[-84.4460964,33.6401317],[-84.4460959,33.6401522],[-84.4463239,33.6401522],[-84.4463244,33.6404508],[-84.4431055,33.6404431],[-84.4429577,33.6404437]]]},"properties":{"aeroway":"terminal","building":"yes","name":"South Terminal","operator":"Hartsfield-Jackson Atlanta International Airport","osm_id":44488346,"osm_type":"way"}},{"type":"Feature","geometry":{"type":"Polygon","coordinates":[[[-84.4463257,33.641136],[-84.4463263,33.6414487],[-84.4461002,33.6414478],[-84.4461013,33.6415026],[-84.4452336,33.6415026],[-84.4438242,33.6415025],[-84.4429543,33.6415027],[-84.4429518,33.6411483],[-84.443114,33.6411475],[-84.4463257,33.641136]]]},"properties":{"aeroway":"terminal","building":"yes","name":"North Terminal","note":"this is not aeroway=gate; that tag is for airplanes, not cars","operator":"Hartsfield-Jackson Atlanta International Airport","osm_id":44488347,"osm_type":"way"}},{"type":"Feature","geometry":{"type":"LineString","coordinates":[[-84.6671185,33.6587824],[-84.6633952,33.6597281],[-84.6589967,33.6608453]]},"properties":{"aeroway":"runway","surface":"grass","osm_id":93476853,"osm_type":"way"}},{"type":"Feature","geometry":{"type":"Polygon","coordinates":[[[-84.4200588,33.6375603],[-84.4200586,33.6377505],[-84.4200582,33.6382483],[-84.4200577,33.6388809],[-84.4200572,33.6395016],[-84.4200569,33.6399704],[-84.4200568,33.6400768],[-84.4201192,33.6401046],[-84.4202316,33.6401546],[-84.4202293,33.6404973],[-84.4200623,33.6405227],[-84.4200634,33.6406583],[-84.4200664,33.6410295],[-84.4200672,33.6411308],[-84.4200618,33.6412101],[-84.4198869,33.6410686],[-84.4198,33.6409974],[-84.4197606,33.6409354],[-84.4197301,33.6408601],[-84.4197121,33.6407744],[-84.4197039,33.6407031],[-84.4196496,33.6406188],[-84.4195739,33.6405693],[-84.4194499,33.6405266],[-84.4194481,33.6403144],[-84.4194478,33.640283],[-84.4194467,33.6401581],[-84.4187394,33.6401644],[-84.4187409,33.6401087],[-84.4187428,33.6400338],[-84.4189751,33.6400316],[-84.4189799,33.6399568],[-84.4189886,33.6399314],[-84.4190196,33.6399313],[-84.4190164,33.6398662],[-84.4190986,33.6396708],[-84.419145,33.6396708],[-84.4191432,33.6396154],[-84.4192004,33.6396154],[-84.4191998,33.6395557],[-84.4192718,33.6395539],[-84.4192722,33.6394274],[-84.4192727,33.6392714],[-84.4193923,33.6392696],[-84.4193936,33.6392361],[-84.4193946,33.6392085],[-84.419523,33.6392058],[-84.419525,33.6390806],[-84.4195143,33.6390806],[-84.4195181,33.6389404],[-84.4195497,33.6389404],[-84.4195479,33.6386543],[-84.4196657,33.6386552],[-84.4196686,33.638519],[-84.4196495,33.638519],[-84.4196496,33.6385067],[-84.4196547,33.6379527],[-84.4196549,33.6379275],[-84.4196651,33.6379271],[-84.4196702,33.6377506],[-84.4196707,33.6377324],[-84.4196696,33.6375607],[-84.4197511,33.6375606],[-84.4197525,33.6374723],[-84.4198016,33.6374723],[-84.4198349,33.637472],[-84.4199195,33.6374713],[-84.4199197,33.6375062],[-84.4199198,33.6375263],[-84.4199536,33.6375269],[-84.4199524,33.6375586],[-84.4200588,33.6375603]]]},"properties":{"aeroway":"terminal","building":"yes","name":"Concourse F","operator":"Hartsfield-Jackson Atlanta International Airport","source":"bing","osm_id":169784353,"osm_type":"way"}},{"type":"Feature","geometry":{"type":"Polygon","coordinates":[[[-84.4173132,33.6238418],[-84.4173145,33.6241522],[-84.4174862,33.6242984],[-84.4179314,33.6243074],[-84.4179381,33.6252086],[-84.4178864,33.6252446],[-84.4175626,33.6254699],[-84.4173668,33.6252566],[-84.4172153,33.6252555],[-84.417057,33.6253269],[-84.4168478,33.6253403],[-84.4167244,33.6253962],[-84.4165581,33.6255436],[-84.4164777,33.6256709],[-84.4164616,33.6258205],[-84.416372,33.6259693],[-84.4163446,33.6260295],[-84.4162524,33.6260092],[-84.4158983,33.6257971],[-84.4155121,33.6254319],[-84.4154008,33.6252354],[-84.4154155,33.6244492],[-84.4154477,33.6243599],[-84.4154947,33.6243096],[-84.4155766,33.6242929],[-84.4156385,33.6243062],[-84.41572,33.6243358],[-84.4169927,33.6243023],[-84.417167,33.6241589],[-84.4171777,33.6238417],[-84.4171536,33.6237591],[-84.4170973,33.6237144],[-84.4169578,33.6236988],[-84.4169498,33.6235156],[-84.4168559,33.6234799],[-84.4168398,33.6226267],[-84.4148764,33.6214697],[-84.4148845,33.6211906],[-84.4148254,33.6211839],[-84.4146511,33.6210253],[-84.4146672,33.619473],[-84.4165903,33.6194395],[-84.4170651,33.6195042],[-84.4170871,33.6194101],[-84.4168586,33.61889],[-84.4176646,33.6191055],[-84.4185121,33.6193836],[-84.4187026,33.6194663],[-84.4187106,33.6194473],[-84.4191438,33.6195456],[-84.4194563,33.6195768],[-84.4198251,33.6195813],[-84.420104,33.6195657],[-84.4203629,33.6195333],[-84.4206539,33.6194696],[-84.421307,33.6192786],[-84.4213097,33.6193066],[-84.4226468,33.6191044],[-84.422687,33.6192987],[-84.42251,33.6193501],[-84.4225207,33.6194015],[-84.4237518,33.6192585],[-84.4245136,33.6191089],[-84.4250152,33.6190553],[-84.4254631,33.6190464],[-84.4270858,33.6190754],[-84.4272199,33.6191089],[-84.4277161,33.6191111],[-84.4279119,33.6190352],[-84.4294354,33.6190508],[-84.4295669,33.6191379],[-84.4301945,33.6188386],[-84.4305439,33.6190168],[-84.4305056,33.6190475],[-84.4305258,33.6190637],[-84.4305693,33.6190346],[-84.4308624,33.619363],[-84.4307566,33.6194194],[-84.4308818,33.6195774],[-84.4309019,33.6195774],[-84.4313666,33.6193116],[-84.4315792,33.6195768],[-84.431606,33.6195763],[-84.4320687,33.6193149],[-84.4321628,33.6194338],[-84.4322786,33.6195763],[-84.4323114,33.6195768],[-84.4328298,33.6192809],[-84.4330001,33.619492],[-84.4332924,33.6193524],[-84.4334909,33.619339],[-84.4337484,33.6192161],[-84.4345182,33.6192362],[-84.4353202,33.6192675],[-84.4357333,33.619292],[-84.4384731,33.6193043],[-84.4388714,33.6192976],[-84.4391169,33.6192798],[-84.4392148,33.6192206],[-84.4392443,33.6192407],[-84.4395098,33.6193658],[-84.4398183,33.6194573],[-84.440183,33.6195243],[-84.4405156,33.6195377],[-84.4408429,33.6195109],[-84.4412264,33.6194238],[-84.4415912,33.6192675],[-84.4417951,33.6191312],[-84.4429752,33.6181306],[-84.4432595,33.6179028],[-84.4435546,33.6177062],[-84.4438952,33.6175498],[-84.4442305,33.6174449],[-84.4443887,33.6174203],[-84.4445148,33.6174806],[-84.4446409,33.6175901],[-84.4477469,33.6180323],[-84.448396,33.6180893],[-84.4492435,33.6183271],[-84.4497733,33.6184779],[-84.4503166,33.6185728],[-84.4506893,33.6186287],[-84.4510031,33.6186856],[-84.4513357,33.6188375],[-84.4515274,33.6189581],[-84.4516575,33.6191189],[-84.4517648,33.6193267],[-84.4518667,33.6196282],[-84.4518922,33.6198717],[-84.4518735,33.6201307],[-84.4518144,33.6203798],[-84.4516535,33.6207037],[-84.4514564,33.6209482],[-84.4512498,33.6211269],[-84.4509964,33.6212944],[-84.4507402,33.6214173],[-84.4504385,33.6215033],[-84.450295,33.6215267],[-84.450181,33.6215368],[-84.4491912,33.6215892],[-84.4481479,33.621683],[-84.4479427,33.6217456],[-84.4477388,33.6217858],[-84.4473915,33.621893],[-84.4469073,33.6221499],[-84.4466029,33.6223631],[-84.4462127,33.622706],[-84.4460665,33.6229059],[-84.4460168,33.622945],[-84.4457124,33.622878],[-84.4452269,33.6228433],[-84.4440816,33.6228244],[-84.4440964,33.6222649],[-84.4443069,33.622247],[-84.4443204,33.6221744],[-84.4443713,33.6219578],[-84.4443311,33.6219086],[-84.4439381,33.6218416],[-84.4438308,33.622161],[-84.4438402,33.6223241],[-84.4433521,33.6223319],[-84.4430517,33.6225809],[-84.4382492,33.6225876],[-84.4382492,33.6230801],[-84.4383752,33.6231203],[-84.4383712,33.623773],[-84.4381151,33.6237781],[-84.4381137,33.624237],[-84.4372433,33.6255693],[-84.4369979,33.6254766],[-84.4373117,33.6249004],[-84.4375183,33.6244838],[-84.4376658,33.6240941],[-84.4372205,33.6240785],[-84.4366385,33.624074],[-84.4362308,33.6240874],[-84.4358151,33.6241421],[-84.4355133,33.6242192],[-84.435288,33.6243264],[-84.4351794,33.6243744],[-84.4351231,33.6245251],[-84.4344994,33.6248568],[-84.4343801,33.6248395],[-84.4343601,33.6249466],[-84.4346483,33.6249841],[-84.434773,33.6250042],[-84.4349259,33.6250366],[-84.4351606,33.625136],[-84.4353819,33.6253549],[-84.4354811,33.6254509],[-84.435575,33.6255681],[-84.4356629,33.6257278],[-84.4357718,33.6257808],[-84.4357735,33.6259154],[-84.4355522,33.6258674],[-84.4349232,33.6266949],[-84.4349581,33.6268769],[-84.4348428,33.6269149],[-84.4346825,33.6273136],[-84.4346868,33.6290198],[-84.4346898,33.6290803],[-84.4347016,33.6291401],[-84.4347219,33.6291983],[-84.4347505,33.629254],[-84.4347869,33.6293064],[-84.4348307,33.6293548],[-84.4348804,33.6293979],[-84.434936,33.6294358],[-84.4349966,33.6294679],[-84.4350613,33.6294937],[-84.4351293,33.629513],[-84.4351995,33.6295254],[-84.4357637,33.6295218],[-84.4357628,33.6293609],[-84.4358543,33.6292839],[-84.4360638,33.6292919],[-84.4362955,33.6292999],[-84.4362871,33.6295044],[-84.4380909,33.6295011],[-84.4381244,33.6294609],[-84.4381405,33.6294118],[-84.4381423,33.6293377],[-84.4382395,33.6293379],[-84.4383367,33.6293381],[-84.4383377,33.6294609],[-84.4383779,33.6295134],[-84.438559,33.6295167],[-84.4386328,33.629529],[-84.4386891,33.6295413],[-84.4391678,33.6295335],[-84.4392966,33.6295212],[-84.4394414,33.6294977],[-84.4395459,33.62947],[-84.4396225,33.629443],[-84.440116,33.62928],[-84.4403882,33.6291851],[-84.4405049,33.6291505],[-84.4406967,33.629108],[-84.4408254,33.6290935],[-84.4411272,33.6290734],[-84.4413391,33.6289506],[-84.4414209,33.6289338],[-84.4416335,33.628998],[-84.4417119,33.6291688],[-84.4417763,33.6293247],[-84.4418152,33.629452],[-84.4418219,33.6295804],[-84.4423543,33.6296172],[-84.4423154,33.6300494],[-84.443277,33.6300494],[-84.4437276,33.6300326],[-84.4445188,33.6298964],[-84.4449212,33.6298774],[-84.4454066,33.6298819],[-84.4458506,33.6298908],[-84.4463602,33.6299154],[-84.4466807,33.6299232],[-84.4469932,33.6299198],[-84.4478367,33.629835],[-84.4480419,33.6295525],[-84.4482389,33.6294862],[-84.448463,33.6295547],[-84.4490585,33.6297322],[-84.4498779,33.629979],[-84.4500254,33.6300203],[-84.450181,33.6300471],[-84.4505645,33.6302012],[-84.4506611,33.6302682],[-84.4507697,33.6303866],[-84.4508904,33.6305094],[-84.4509387,33.6305485],[-84.4514081,33.6305474],[-84.4513974,33.6317947],[-84.451392,33.6318963],[-84.4513933,33.6320146],[-84.4514014,33.6321978],[-84.4514309,33.6323239],[-84.4515114,33.6324747],[-84.4515409,33.6325394],[-84.4517018,33.6326154],[-84.4518265,33.6326455],[-84.452017,33.6326701],[-84.4528042,33.6327438],[-84.4529624,33.632784],[-84.4531341,33.6328655],[-84.4532655,33.6329693],[-84.4534023,33.6331335],[-84.453468,33.6332898],[-84.4534989,33.6334305],[-84.4534814,33.633579],[-84.4534948,33.6336773],[-84.4535029,33.6355386],[-84.4534895,33.6355967],[-84.4534989,33.6357094],[-84.4534801,33.6359138],[-84.4534761,33.6360321],[-84.4534104,33.6362175],[-84.4533232,33.6363604],[-84.4531877,33.6364899],[-84.4530322,33.6365893],[-84.4528873,33.6366529],[-84.452666,33.6367054],[-84.4517608,33.6367333],[-84.4517474,33.6367054],[-84.4517072,33.6366987],[-84.4510366,33.6367144],[-84.4509816,33.6367434],[-84.4507469,33.6367412],[-84.4507469,33.636807],[-84.4511506,33.6368048],[-84.4513397,33.6368349],[-84.4515663,33.6369354],[-84.4515798,33.6373385],[-84.448451,33.637338],[-84.4484335,33.6373195],[-84.4482686,33.6373206],[-84.4482666,33.6372704],[-84.4480084,33.6372693],[-84.4480064,33.6373447],[-84.4475645,33.6373474],[-84.4474854,33.6372871],[-84.4474652,33.6371401],[-84.4471865,33.6371431],[-84.4461832,33.6371402],[-84.4456744,33.6371402],[-84.4452746,33.6371561],[-84.444817,33.6371561],[-84.4448157,33.6372431],[-84.4448143,33.6373292],[-84.4447503,33.6373464],[-84.4440386,33.6373458],[-84.4438635,33.6373457],[-84.4437902,33.6373456],[-84.4437902,33.6373104],[-84.4435164,33.6373104],[-84.4435046,33.6371538],[-84.4429866,33.637157],[-84.4429551,33.63728],[-84.4427929,33.6372442],[-84.4427774,33.6372926],[-84.4427694,33.6373257],[-84.4427249,33.6373159],[-84.4426098,33.637273],[-84.4425847,33.6372722],[-84.4425495,33.6372753],[-84.442534,33.6372755],[-84.4425338,33.639814],[-84.4429558,33.6400978],[-84.446097,33.640098],[-84.4460964,33.6401317],[-84.4460959,33.6401522],[-84.4463239,33.6401522],[-84.4463244,33.6404508],[-84.4463257,33.641136],[-84.443114,33.6411475],[-84.4429518,33.6411483],[-84.4429543,33.6415027],[-84.4425063,33.6417996],[-84.4425076,33.6431522],[-84.4426695,33.6431812],[-84.4431978,33.6437953],[-84.443336,33.643802],[-84.4436578,33.6441704],[-84.4437262,33.6442742],[-84.4437722,33.6443671],[-84.4437395,33.6444181],[-84.4437156,33.644475],[-84.4437051,33.644545],[-84.4437231,33.6455883],[-84.443687,33.6456204],[-84.4436887,33.6456559],[-84.4437249,33.6457579],[-84.4437284,33.6458148],[-84.4437407,33.6458867],[-84.443764,33.6459674],[-84.4437482,33.6459771],[-84.4437576,33.6460096],[-84.443809,33.6460991],[-84.4438597,33.6461647],[-84.443858,33.6462006],[-84.4438808,33.6462254],[-84.4439298,33.6462361],[-84.443939,33.6462451],[-84.4441294,33.6464315],[-84.4441306,33.6464937],[-84.4441545,33.6465199],[-84.4442065,33.6465194],[-84.4443161,33.6466374],[-84.4444179,33.6467665],[-84.4445073,33.646921],[-84.4445648,33.6470502],[-84.4446088,33.6471937],[-84.4446357,33.6473277],[-84.4446376,33.6474441],[-84.4446184,33.6476243],[-84.4445878,33.6477853],[-84.4445533,33.6479177],[-84.444492,33.6480883],[-84.4444249,33.648243],[-84.4443138,33.6484296],[-84.4441912,33.6486098],[-84.4440916,33.6487357],[-84.4439729,33.6488761],[-84.4438579,33.6489781],[-84.4436913,33.6491105],[-84.4435534,33.6492173],[-84.4434633,33.6492731],[-84.4432086,33.6494262],[-84.443007,33.6495259],[-84.4430105,33.6495501],[-84.4429791,33.6495636],[-84.44295,33.649552],[-84.4419906,33.6500138],[-84.4418336,33.6501028],[-84.4408986,33.6506372],[-84.4405869,33.6508163],[-84.4404218,33.6508996],[-84.4402834,33.6509654],[-84.4400485,33.6510709],[-84.439881,33.6511406],[-84.4397066,33.6512142],[-84.4395344,33.6512771],[-84.439296,33.6513449],[-84.4383366,33.6516101],[-84.4381424,33.6516702],[-84.4377924,33.6518338],[-84.4375319,33.6519819],[-84.4373667,33.6521019],[-84.4370783,33.6523836],[-84.4370143,33.6524611],[-84.4365329,33.6531677],[-84.435927,33.6540206],[-84.4358142,33.6542091],[-84.4357839,33.6542597],[-84.4356839,33.654401],[-84.4353827,33.6547911],[-84.4349687,33.6545617],[-84.4348798,33.6546053],[-84.4347909,33.6546489],[-84.4348041,33.6546692],[-84.4347038,33.6547199],[-84.4347259,33.6547569],[-84.4346542,33.6547887],[-84.4346572,33.6548102],[-84.4346636,33.6548094],[-84.43467,33.6548097],[-84.4346763,33.654811],[-84.434682,33.6548134],[-84.4346871,33.6548167],[-84.4346913,33.6548207],[-84.4346944,33.6548255],[-84.4346963,33.6548306],[-84.434697,33.654836],[-84.4346963,33.6548413],[-84.4346942,33.6548467],[-84.434633,33.6548908],[-84.4345647,33.654927],[-84.4344654,33.6549616],[-84.4343896,33.6549762],[-84.4343917,33.6549626],[-84.4342383,33.6550395],[-84.4342172,33.6550042],[-84.4341829,33.6550136],[-84.4341296,33.6549379],[-84.4340759,33.6549664],[-84.4345775,33.6556834],[-84.4343036,33.6559318],[-84.4339164,33.6562596],[-84.4332017,33.6568403],[-84.4326667,33.6572688],[-84.4325798,33.657164],[-84.4326017,33.6570711],[-84.4322939,33.6566494],[-84.4320739,33.656752],[-84.4320313,33.656752],[-84.4319997,33.6567402],[-84.4319768,33.6567159],[-84.4319421,33.656666],[-84.4317187,33.6567735],[-84.4316779,33.6567931],[-84.4319381,33.6571625],[-84.4315365,33.6573575],[-84.4314705,33.6572458],[-84.4312813,33.656918],[-84.4311531,33.6566834],[-84.4311144,33.6566126],[-84.4313438,33.6564964],[-84.4313465,33.6563524],[-84.4313116,33.6563021],[-84.4314282,33.6562362],[-84.4313029,33.6560565],[-84.4311802,33.6561213],[-84.4309304,33.6557852],[-84.4307981,33.6558519],[-84.4306054,33.6555724],[-84.4304404,33.6553332],[-84.4304385,33.6553006],[-84.4304068,33.6552858],[-84.4303311,33.6551758],[-84.430742,33.6549781],[-84.430227,33.6542197],[-84.4325923,33.6530885],[-84.4320528,33.6522958],[-84.4319876,33.6523308],[-84.4317911,33.6524255],[-84.4319912,33.6527158],[-84.4314061,33.6529977],[-84.4314293,33.6530313],[-84.4313735,33.6530582],[-84.4314514,33.6531712],[-84.431413,33.6531897],[-84.4315072,33.6533264],[-84.4312407,33.6534548],[-84.4308427,33.6528772],[-84.4307257,33.6529335],[-84.4307026,33.6529001],[-84.4306909,33.652848],[-84.4304324,33.6529453],[-84.4303436,33.6529631],[-84.4301031,33.6529631],[-84.4301071,33.6532683],[-84.4297371,33.6532683],[-84.4297371,33.6533511],[-84.4291914,33.65335],[-84.4291907,33.6533667],[-84.4290491,33.6534801],[-84.4290211,33.6534576],[-84.4289036,33.653556],[-84.4288667,33.6535242],[-84.4290269,33.6533886],[-84.4286517,33.6530815],[-84.4284639,33.6532405],[-84.4285656,33.6533237],[-84.4285214,33.6533621],[-84.4283912,33.6533482],[-84.4283113,33.6533397],[-84.4283083,33.6532738],[-84.428217,33.6532326],[-84.4281334,33.6532719],[-84.4278231,33.6531437],[-84.4273845,33.6530469],[-84.4269953,33.6530237],[-84.4258127,33.6530259],[-84.4258128,33.6529611],[-84.4258043,33.6524833],[-84.4253189,33.6524831],[-84.4250634,33.6524831],[-84.4250642,33.6525936],[-84.4247709,33.6525947],[-84.4247292,33.6525949],[-84.4246428,33.652606],[-84.4246424,33.6526514],[-84.4245091,33.6526508],[-84.4245091,33.652604],[-84.4244498,33.6526046],[-84.4244483,33.6528329],[-84.424278,33.6528316],[-84.4242811,33.6526251],[-84.4242457,33.6526258],[-84.4242442,33.6526643],[-84.4241086,33.6526611],[-84.4241097,33.6525055],[-84.4239342,33.6525038],[-84.4239329,33.6525764],[-84.4238805,33.6525747],[-84.4238807,33.6526367],[-84.4236369,33.6526374],[-84.4236365,33.6527749],[-84.4235213,33.6527752],[-84.4235225,33.6526377],[-84.4234439,33.6526374],[-84.4234443,33.6526303],[-84.423256,33.65263],[-84.4230497,33.6526227],[-84.4224566,33.6526132],[-84.422456,33.6524774],[-84.4222,33.6524782],[-84.4221997,33.6523468],[-84.4214026,33.6523481],[-84.4214028,33.6524168],[-84.4214109,33.6524168],[-84.4214112,33.6525491],[-84.4212116,33.6525494],[-84.4212114,33.6524564],[-84.4206842,33.6524572],[-84.4205251,33.6524631],[-84.420442,33.6524653],[-84.4206633,33.6530693],[-84.4204688,33.6533539],[-84.4203401,33.6534265],[-84.4202199,33.6533665],[-84.4200772,33.6533059],[-84.4200202,33.6533947],[-84.4199628,33.6533662],[-84.4196903,33.6532344],[-84.419662,33.6532787],[-84.4196293,33.6533389],[-84.4197548,33.6534039],[-84.4197858,33.6534208],[-84.4197646,33.6534315],[-84.4197403,33.6534659],[-84.4200564,33.6536217],[-84.4199275,33.6538044],[-84.4201361,33.6539073],[-84.4201282,33.6539186],[-84.4201719,33.6539401],[-84.4200546,33.6541064],[-84.4200123,33.6540855],[-84.4200046,33.6540965],[-84.4197837,33.6539875],[-84.4196555,33.6541693],[-84.4192604,33.6539744],[-84.4190693,33.6542441],[-84.4190306,33.6542237],[-84.4188735,33.6544325],[-84.4188909,33.6544416],[-84.4185604,33.6548911],[-84.4187361,33.6549776],[-84.4188461,33.6551187],[-84.4189145,33.6555475],[-84.4188944,33.655667],[-84.4184276,33.6562988],[-84.4185658,33.6563736],[-84.4184035,33.6565946],[-84.4181944,33.6564775],[-84.4179603,33.6567851],[-84.4134851,33.654467],[-84.4113283,33.6531623],[-84.4112581,33.6531206],[-84.4113748,33.6529855],[-84.4106137,33.6525077],[-84.4102362,33.6529214],[-84.4096515,33.6525636],[-84.4099847,33.6521952],[-84.4099416,33.6521672],[-84.4098821,33.6521321],[-84.4098761,33.6521617],[-84.4097192,33.6521622],[-84.4097064,33.6522946],[-84.4085249,33.6520567],[-84.4084525,33.6520188],[-84.4074199,33.6513802],[-84.406921,33.6511257],[-84.4065911,33.6509292],[-84.4063228,33.6507316],[-84.4061659,33.6505775],[-84.406005,33.6504101],[-84.4058883,33.6502549],[-84.4057797,33.6500942],[-84.4056067,33.6497693],[-84.405541,33.6496465],[-84.4054954,33.6495315],[-84.4054511,33.6493908],[-84.4053747,33.6492033],[-84.4051923,33.6487958],[-84.4050354,33.6485524],[-84.4049174,33.6484218],[-84.4047283,33.6482365],[-84.4044359,33.6480333],[-84.4041449,33.6478948],[-84.4038673,33.6478022],[-84.4035642,33.6477319],[-84.4031551,33.6477051],[-84.402895,33.6477051],[-84.4025463,33.6477051],[-84.4023478,33.6476872],[-84.402144,33.6476448],[-84.4018865,33.6475622],[-84.4016907,33.6474516],[-84.4015056,33.6473087],[-84.4013876,33.6471971],[-84.4012856,33.647072],[-84.4011676,33.6468756],[-84.4010885,33.6466679],[-84.4010684,33.6465306],[-84.4010523,33.6463386],[-84.4010818,33.6461666],[-84.4011676,33.64595],[-84.4012535,33.6457937],[-84.401346,33.6458451],[-84.4014198,33.6457725],[-84.4015364,33.6456921],[-84.4016773,33.6456073],[-84.401865,33.6455347],[-84.4020796,33.6454867],[-84.4024792,33.6454197],[-84.4025986,33.6453427],[-84.4026335,33.6453695],[-84.4026898,33.6453885],[-84.4027649,33.6453851],[-84.4030653,33.6453405],[-84.4031082,33.645307],[-84.4031283,33.645269],[-84.4031592,33.645221],[-84.4032115,33.6451741],[-84.4033054,33.6451384],[-84.4034033,33.6451294],[-84.4034971,33.6451462],[-84.4035696,33.6451853],[-84.4036178,33.6452165],[-84.4036661,33.6452344],[-84.4037479,33.6452422],[-84.4038016,33.6452389],[-84.4042455,33.6451775],[-84.4044292,33.645116],[-84.4045593,33.6450591],[-84.4058172,33.6444462],[-84.4059151,33.644358],[-84.4059661,33.6442754],[-84.4059835,33.6441782],[-84.4059795,33.6414384],[-84.4059976,33.6413418],[-84.4059735,33.6412508],[-84.4061116,33.6412525],[-84.4061163,33.6414919],[-84.4061176,33.6418917],[-84.4061391,33.6419497],[-84.4061914,33.6419911],[-84.4062437,33.6420156],[-84.4062746,33.6429267],[-84.4065094,33.642943],[-84.4065119,33.6419754],[-84.4062799,33.641971],[-84.4062772,33.6418225],[-84.4062987,33.6418057],[-84.4062893,33.641435],[-84.4075412,33.6414272],[-84.4075446,33.6427648],[-84.4083479,33.6427659],[-84.4083472,33.6424488],[-84.4083479,33.6421742],[-84.4080918,33.6421742],[-84.4080877,33.6420011],[-84.408128,33.642],[-84.4081266,33.6418928],[-84.4087368,33.6418727],[-84.4087784,33.6418939],[-84.4136526,33.6418844],[-84.4136526,33.6418582],[-84.4141723,33.6418671],[-84.4141777,33.6423483],[-84.416125,33.6423439],[-84.4161263,33.6417231],[-84.4162041,33.6417242],[-84.4162282,33.6416885],[-84.4190808,33.6416662],[-84.4190875,33.641741],[-84.4196413,33.6417387],[-84.4196413,33.6417991],[-84.4196413,33.6418582],[-84.4196984,33.6418582],[-84.4196973,33.6430342],[-84.4197249,33.643769],[-84.4197339,33.6440096],[-84.4197057,33.6440175],[-84.419703,33.6440521],[-84.4197419,33.6440833],[-84.41975,33.6441246],[-84.4197446,33.6441771],[-84.4197071,33.6442207],[-84.4197076,33.6443494],[-84.4197097,33.6449609],[-84.4197406,33.6449653],[-84.4197406,33.6450033],[-84.419758,33.6450379],[-84.419809,33.6450658],[-84.4199833,33.6450703],[-84.4199793,33.6450379],[-84.41999,33.6449955],[-84.4203722,33.6449977],[-84.4204299,33.6449932],[-84.4205801,33.6449318],[-84.4206432,33.6449229],[-84.4208524,33.6449263],[-84.4208832,33.6448481],[-84.4208913,33.6446058],[-84.420839,33.6446058],[-84.4208457,33.6431678],[-84.4208497,33.6428418],[-84.4209851,33.6426989],[-84.4204474,33.6420714],[-84.4204608,33.6420123],[-84.4204764,33.6419403],[-84.4204728,33.641904],[-84.4206204,33.641904],[-84.4206219,33.6418646],[-84.4206244,33.641818],[-84.4205466,33.641818],[-84.4205405,33.6417555],[-84.4205406,33.6417254],[-84.4205408,33.6416451],[-84.4205399,33.6415668],[-84.4202314,33.641569],[-84.4201952,33.6415433],[-84.4201966,33.6414473],[-84.4201429,33.6414451],[-84.4201389,33.6414015],[-84.4201198,33.6414021],[-84.4199773,33.6413987],[-84.4199773,33.6414244],[-84.4199163,33.6414261],[-84.4199136,33.6414501],[-84.4198881,33.6414646],[-84.4198184,33.6414646],[-84.419818,33.641449],[-84.4197966,33.6414487],[-84.4197956,33.6411671],[-84.4197607,33.6410186],[-84.4196843,33.6409036],[-84.4193074,33.6406222],[-84.4193034,33.6405266],[-84.4190382,33.6405266],[-84.4189897,33.6405268],[-84.4189232,33.6405271],[-84.4187182,33.6405263],[-84.4187007,33.6405262],[-84.4181899,33.6405244],[-84.4181738,33.6405243],[-84.4181579,33.6405242],[-84.4176788,33.6405225],[-84.4176537,33.6405238],[-84.4172922,33.6405211],[-84.4173431,33.6404728],[-84.4173416,33.6404386],[-84.4173013,33.6403992],[-84.4175417,33.640197],[-84.417541,33.6401645],[-84.4171678,33.6401674],[-84.4171572,33.6392186],[-84.4170965,33.6389473],[-84.4170902,33.6377846],[-84.4170984,33.6373883],[-84.4170368,33.6373883],[-84.4170159,33.6373844],[-84.4170066,33.6373632],[-84.417002,33.6373187],[-84.4159745,33.6373148],[-84.4159652,33.6374134],[-84.4159728,33.6378431],[-84.4159733,33.6378697],[-84.4162276,33.6378697],[-84.4165219,33.6378733],[-84.4169846,33.6382061],[-84.4169886,33.6388615],[-84.4169283,33.6388615],[-84.4169303,33.639029],[-84.4170021,33.6390301],[-84.4170483,33.6392104],[-84.417049,33.6393176],[-84.4169548,33.6393181],[-84.416956,33.6395943],[-84.4166677,33.6395951],[-84.416559,33.6396852],[-84.4164665,33.6396085],[-84.4164804,33.6395968],[-84.4164793,33.6395714],[-84.4159795,33.6395728],[-84.415765,33.6395748],[-84.4156878,33.6395744],[-84.4156788,33.6395738],[-84.4156803,33.6401289],[-84.4120811,33.6401356],[-84.4120775,33.6401351],[-84.4120771,33.640385],[-84.4096552,33.6403782],[-84.4096551,33.640122],[-84.4086175,33.6401231],[-84.4086161,33.6393539],[-84.4086349,33.639317],[-84.4086644,33.6393025],[-84.4120158,33.639307],[-84.4120158,33.6392115],[-84.4120199,33.639183],[-84.4118482,33.639183],[-84.4118066,33.6391428],[-84.4117741,33.6391465],[-84.4117073,33.6391468],[-84.4116738,33.6391451],[-84.4116095,33.6391708],[-84.4115666,33.6391708],[-84.4114425,33.6390662],[-84.411441,33.6387727],[-84.4107883,33.6387798],[-84.4107856,33.6386047],[-84.4106546,33.6386024],[-84.4106553,33.639135],[-84.4104782,33.6391356],[-84.4104776,33.6391127],[-84.4103997,33.6391112],[-84.4097046,33.6391112],[-84.4097046,33.6387878],[-84.4091878,33.6387867],[-84.4091888,33.6378845],[-84.4085585,33.6378879],[-84.4085585,33.6384171],[-84.4084922,33.6384169],[-84.4083814,33.6384171],[-84.408376,33.6384416],[-84.4083466,33.6384059],[-84.406921,33.6384204],[-84.4069156,33.6382016],[-84.4064704,33.6382005],[-84.4064677,33.6382608],[-84.4062236,33.6382608],[-84.4062247,33.6382784],[-84.4062274,33.6388539],[-84.4067124,33.6388523],[-84.4068682,33.6387124],[-84.4073958,33.6387148],[-84.4074158,33.638924],[-84.4073823,33.638924],[-84.407384,33.6390207],[-84.4073917,33.6393025],[-84.406239,33.6393025],[-84.4062316,33.6408377],[-84.4061311,33.640908],[-84.4060962,33.6409103],[-84.4059755,33.6409002],[-84.405958,33.6408188],[-84.4059274,33.6403029],[-84.4059519,33.6379426],[-84.4059507,33.6376389],[-84.4058911,33.6375389],[-84.4058575,33.6374937],[-84.4058146,33.6374401],[-84.405773,33.6374613],[-84.4056778,33.6374223],[-84.4056724,33.637305],[-84.4055517,33.6372726],[-84.4047926,33.6375652],[-84.4047873,33.6380531],[-84.4042937,33.6380542],[-84.4042133,33.6380084],[-84.4041798,33.6374993],[-84.4047631,33.6375194],[-84.4050218,33.6374154],[-84.4052325,33.6373307],[-84.4052366,33.6372559],[-84.4053251,33.6372514],[-84.4053224,33.6371565],[-84.4051977,33.6371576],[-84.4051847,33.6371402],[-84.4051708,33.6371197],[-84.4033349,33.6371063],[-84.4030036,33.6371018],[-84.4029312,33.6370672],[-84.4028896,33.6370169],[-84.4029057,33.6367635],[-84.4030076,33.6367702],[-84.4030371,33.6365737],[-84.4031739,33.636194],[-84.403351,33.6357965],[-84.4035065,33.635542],[-84.4037372,33.6352383],[-84.4040349,33.6349479],[-84.4041985,33.6349591],[-84.4042817,33.6348653],[-84.4042629,33.634738],[-84.4048771,33.6344053],[-84.4051266,33.6342088],[-84.4055128,33.6340591],[-84.4060546,33.6339162],[-84.4065911,33.6338269],[-84.4072402,33.6337912],[-84.4078839,33.63378],[-84.4103086,33.6337331],[-84.4108397,33.6335723],[-84.411191,33.6334003],[-84.4114593,33.6332351],[-84.4133542,33.6318762],[-84.4133154,33.6318751],[-84.4133529,33.6318237],[-84.4134092,33.6317846],[-84.4134817,33.6317824],[-84.4141884,33.6312698],[-84.414399,33.6314664],[-84.4148791,33.6311448],[-84.415095,33.6310454],[-84.4153927,33.630965],[-84.4155537,33.6309416],[-84.4159184,33.6309393],[-84.4171201,33.6309326],[-84.4173749,33.6308935],[-84.4176163,33.630821],[-84.418421,33.6302645],[-84.418425,33.6300661],[-84.4185014,33.629912],[-84.4186127,33.6298104],[-84.4187978,33.6297356],[-84.4189681,33.6297199],[-84.4201282,33.6297132],[-84.4201255,33.6294542],[-84.4200464,33.6294553],[-84.4200423,33.6294039],[-84.4201241,33.6294039],[-84.4201255,33.6293582],[-84.4200611,33.6293593],[-84.4200625,33.6293269],[-84.4201215,33.6293269],[-84.4201241,33.6290969],[-84.4203816,33.6290957],[-84.4203964,33.6292923],[-84.4209677,33.6292934],[-84.4209637,33.6281399],[-84.4221707,33.628139],[-84.4221824,33.6281723],[-84.4227876,33.6281656],[-84.4231921,33.6281097],[-84.4231914,33.6277232],[-84.4230696,33.6277233],[-84.4230685,33.6270779],[-84.4247845,33.6270759],[-84.4247831,33.6269808],[-84.4249763,33.6269819],[-84.424983,33.6270835],[-84.4253008,33.6270824],[-84.4253048,33.6272901],[-84.4253786,33.6272901],[-84.4253773,33.627452],[-84.4253558,33.6274509],[-84.4253558,33.6277044],[-84.4255811,33.6279065],[-84.4255811,33.6280472],[-84.4256428,33.6280606],[-84.4256455,33.6284872],[-84.4257286,33.6285638],[-84.4269303,33.628567],[-84.4269303,33.6285428],[-84.4269307,33.6284857],[-84.4268675,33.6284846],[-84.426867,33.6284577],[-84.4264762,33.6284582],[-84.4264762,33.6284851],[-84.4263795,33.6284845],[-84.4263738,33.6278657],[-84.4262183,33.6278648],[-84.4262133,33.6278516],[-84.4262068,33.6278391],[-84.4261991,33.6278205],[-84.4261941,33.6278009],[-84.4261933,33.6277811],[-84.426196,33.6277631],[-84.4262018,33.6277435],[-84.4262098,33.6277275],[-84.4262214,33.6277107],[-84.4262928,33.6277107],[-84.4263797,33.6277107],[-84.426378,33.6269792],[-84.4263776,33.6269119],[-84.4263711,33.6262851],[-84.4262082,33.6262861],[-84.426189,33.6262473],[-84.4261883,33.6262059],[-84.4262131,33.6261355],[-84.426389,33.6261345],[-84.4263835,33.6254478],[-84.4263831,33.6254213],[-84.4264816,33.6254207],[-84.4264816,33.6253828],[-84.4265782,33.6253817],[-84.4265816,33.6254403],[-84.4270369,33.625438],[-84.4270382,33.625423],[-84.4300108,33.625423],[-84.43001,33.6254404],[-84.4306996,33.6254423],[-84.4306982,33.6260604],[-84.4308342,33.6260618],[-84.4308554,33.6260986],[-84.4308593,33.6261483],[-84.4308503,33.6261854],[-84.4308317,33.6262177],[-84.4306788,33.6262196],[-84.430676,33.6269063],[-84.4306809,33.6269914],[-84.4306785,33.6276129],[-84.4308256,33.6276135],[-84.4308504,33.627652],[-84.4308616,33.627699],[-84.4308532,33.6277378],[-84.430836,33.6277692],[-84.4306601,33.6277687],[-84.4306573,33.6284554],[-84.4305888,33.6285821],[-84.4305539,33.628706],[-84.4305593,33.629213],[-84.4310726,33.6292091],[-84.431074,33.6293847],[-84.4312526,33.6293843],[-84.4313489,33.6293847],[-84.4314212,33.6290553],[-84.4314223,33.6289132],[-84.4314903,33.6289134],[-84.4314957,33.6286789],[-84.4319983,33.6286795],[-84.4319986,33.6287099],[-84.4320828,33.6287903],[-84.4321612,33.628823],[-84.4324291,33.6288241],[-84.4324626,33.6287968],[-84.432455,33.6281239],[-84.432465,33.627512],[-84.4324636,33.6273662],[-84.432459,33.6273387],[-84.432467,33.6272979],[-84.4324767,33.626495],[-84.4323704,33.6264643],[-84.4323691,33.6263885],[-84.4323691,33.6263398],[-84.4324734,33.6263389],[-84.4324935,33.6263068],[-84.4325102,33.6262638],[-84.4325153,33.6257747],[-84.4325052,33.625562],[-84.4324677,33.6254911],[-84.43241,33.6254375],[-84.4322933,33.6254029],[-84.4322893,33.6252432],[-84.432233,33.6251717],[-84.4317596,33.6251259],[-84.4316335,33.6250969],[-84.4315651,33.6250522],[-84.4314806,33.6249584],[-84.4314417,33.6248579],[-84.4314525,33.6247596],[-84.4315074,33.6246681],[-84.431596,33.6246134],[-84.4317006,33.6245743],[-84.431781,33.6245732],[-84.4327292,33.6247123],[-84.43275,33.6246089],[-84.4322383,33.6245352],[-84.4323114,33.6239707],[-84.4323101,33.6238205],[-84.4317502,33.623821],[-84.4317462,33.6235751],[-84.4315949,33.6235571],[-84.4315953,33.6235916],[-84.4313666,33.6235927],[-84.4313655,33.6234265],[-84.4313639,33.6231873],[-84.430747,33.6231806],[-84.4307537,33.6227652],[-84.4301878,33.6227678],[-84.4297962,33.6227696],[-84.4291726,33.6227629],[-84.4285825,33.6227172],[-84.4283746,33.6226948],[-84.4281976,33.622668],[-84.428101,33.6225954],[-84.4275384,33.6225368],[-84.4278517,33.6223644],[-84.4277013,33.6221791],[-84.4273534,33.6223749],[-84.4271314,33.6221029],[-84.4268049,33.6222855],[-84.4265836,33.622013],[-84.4262805,33.622185],[-84.4261161,33.6219814],[-84.4256625,33.6222095],[-84.4254494,33.6223221],[-84.4254443,33.622438],[-84.4254926,33.622496],[-84.4252822,33.6226559],[-84.4252378,33.6225954],[-84.4250916,33.622677],[-84.4250903,33.6227596],[-84.4241904,33.6232688],[-84.4240952,33.6233057],[-84.4239919,33.623309],[-84.4234166,33.6233146],[-84.4222793,33.6237859],[-84.4216114,33.6240896],[-84.4205117,33.624093],[-84.420324,33.623998],[-84.4201858,33.6238171],[-84.4173132,33.6238418]]]},"properties":{"addr:city":"Atlanta","addr:housenumber":"6000","addr:postcode":"30320","addr:state":"GA","addr:street":"North Terminal Parkway","aerodrome":"international","aerodrome:type":"international","aeroway":"aerodrome","alt_name":"Atlanta Airport","alt_name:en":"Atlanta Airport","alt_name:ja":"\u30a2\u30c8\u30e9\u30f3\u30bf\u7a7a\u6e2f","city_served":"Atlanta, Georgia","contact:facebook":"https://www.facebook.com/ATLairport","contact:instagram":"https://www.instagram.com/ATLairport/","contact:yelp":"https://www.yelp.com/biz/hartsfield-jackson-atlanta-international-airport-atlanta-5","contact:youtube":"https://youtube.com/channel/UCX6CWqEb_MOKlI7L12LlB1A","ele":"313","faa":"ATL","gnis:feature_id":"351665","iata":"ATL","icao":"KATL","internet_access":"wlan","internet_access:fee":"no","internet_access:ssid":"ATL Free Wi-Fi","name":"Hartsfield\u2013Jackson Atlanta International Airport","name:de":"Flughaben Hartsfield\u2013Jackson Atlanta","name:en":"Hartsfield\u2013Jackson Atlanta International Airport","name:es":"Aeropuerto Internacional Hartsfield\u2013Jackson","name:fr":"A\u00e9roport international Hartsfield\u2013Jackson d'Atlanta","name:hr":"Me\u0111unarodna zra\u010dna luka Hartsfield\u2013Jackson Atlanta","name:ja":"\u30cf\u30fc\u30c4\u30d5\u30a3\u30fc\u30eb\u30c9\u30fb\u30b8\u30e3\u30af\u30bd\u30f3\u30fb\u30a2\u30c8\u30e9\u30f3\u30bf\u56fd\u969b\u7a7a\u6e2f","name:ru":"\u041c\u0435\u0436\u0434\u0443\u043d\u0430\u0440\u043e\u0434\u043d\u044b\u0439 \u0430\u044d\u0440\u043e\u043f\u043e\u0440\u0442 \u0425\u0430\u0440\u0442\u0441\u0444\u0438\u043b\u0434\u2013\u0414\u0436\u0435\u043a\u0441\u043e\u043d \u0410\u0442\u043b\u0430\u043d\u0442\u0430","operator":"Department of Aviation","owner":"City of Atlanta","passengers":"104171935","passengers:year":"2016","rank_aci:2016":"1","short_name":"Hartsfield-Jackson","website":"https://www.atl.com","wikidata":"Q214861","wikipedia":"en:Hartsfield\u2013Jackson Atlanta International Airport","osm_id":208889095,"osm_type":"way"}},{"type":"Feature","geometry":{"type":"Polygon","coordinates":[[[-84.6561016,33.6616241],[-84.6570734,33.6603024],[-84.6576721,33.6602447],[-84.6588392,33.6590891],[-84.6602579,33.6582621],[-84.6604748,33.6580021],[-84.6618371,33.6575904],[-84.6642667,33.6576554],[-84.667026,33.6575182],[-84.6671475,33.6579877],[-84.6671866,33.6580816],[-84.6670998,33.6603422],[-84.6664707,33.6600172],[-84.6654555,33.6600785],[-84.6640107,33.6606599],[-84.6641583,33.6609849],[-84.6623491,33.661783],[-84.6561016,33.6616241]]]},"properties":{"addr:state":"GA","aeroway":"aerodrome","ele":"225","gnis:feature_id":"351752","name":"Miller Farm Airport","wikidata":"Q35280780","osm_id":234670454,"osm_type":"way"}},{"type":"Feature","geometry":{"type":"LineString","coordinates":[[-84.7234624,34.0136446],[-84.7237959,34.0137034],[-84.7239415,34.0137291],[-84.7241851,34.013772],[-84.7243299,34.0137975],[-84.7247499,34.0138716]]},"properties":{"aeroway":"runway","length":"403","sport":"model_aerodrome","surface":"asphalt","osm_id":242743959,"osm_type":"way"}},{"type":"Feature","geometry":{"type":"Polygon","coordinates":[[[-84.0006623,33.8032854],[-84.0000619,33.8023529],[-83.9924599,33.8057607],[-83.992774,33.8062328],[-83.9955127,33.8049472],[-83.9958868,33.805446],[-83.9974525,33.8047438],[-83.9976326,33.8050508],[-83.9993969,33.8041988],[-83.9991705,33.8038074],[-83.9995493,33.8036347],[-83.9999695,33.8041067],[-84.00069,33.8037498],[-84.0004591,33.8033622],[-84.0006623,33.8032854]]]},"properties":{"addr:state":"GA","aeroway":"aerodrome","ele":"281","gnis:feature_id":"351903","name":"Lenora Airport","wikidata":"Q35274418","osm_id":247703250,"osm_type":"way"}},{"type":"Feature","geometry":{"type":"Polygon","coordinates":[[[-84.443114,33.6411475],[-84.4463257,33.641136],[-84.4463244,33.6404508],[-84.4431055,33.6404431],[-84.4431063,33.6405767],[-84.4433548,33.6405722],[-84.443355,33.6406351],[-84.4433552,33.6407517],[-84.4430752,33.6407515],[-84.4430762,33.640912],[-84.443357,33.6409137],[-84.4433561,33.6409588],[-84.4433568,33.6410267],[-84.4432165,33.6410156],[-84.4432169,33.6410876],[-84.4431136,33.6410881],[-84.443114,33.6411475]]]},"properties":{"aeroway":"terminal","name":"Domestic Terminal","osm_id":264678569,"osm_type":"way"}},{"type":"Feature","geometry":{"type":"Polygon","coordinates":[[[-84.4134851,33.654467],[-84.4137553,33.6541286],[-84.4138387,33.6539983],[-84.4160703,33.6551627],[-84.4159738,33.6552908],[-84.4182145,33.656451],[-84.4181944,33.6564775],[-84.4179603,33.6567851],[-84.4134851,33.654467]]]},"properties":{"aeroway":"terminal","building":"yes","name":"FedEx","osm_id":278561239,"osm_type":"way"}},{"type":"Feature","geometry":{"type":"Polygon","coordinates":[[[-84.4213446,33.6526866],[-84.4212106,33.6526868],[-84.4212105,33.6526173],[-84.4206846,33.6526181],[-84.4206842,33.6524572],[-84.4212114,33.6524564],[-84.4212116,33.6525494],[-84.4214112,33.6525491],[-84.4214109,33.6524168],[-84.4214028,33.6524168],[-84.4214026,33.6523481],[-84.4221997,33.6523468],[-84.4222,33.6524782],[-84.4222003,33.6526174],[-84.421414,33.6526187],[-84.4214142,33.6526865],[-84.4213446,33.6526866]]]},"properties":{"aeroway":"terminal","building":"yes","osm_id":279406193,"osm_type":"way"}},{"type":"Feature","geometry":{"type":"Polygon","coordinates":[[[-84.4196555,33.6541693],[-84.4192604,33.6539744],[-84.4192255,33.6539572],[-84.4192365,33.6539417],[-84.4191953,33.6539214],[-84.4195643,33.6533983],[-84.4196052,33.6534185],[-84.4196395,33.6533698],[-84.4197646,33.6534315],[-84.4197403,33.6534659],[-84.4200564,33.6536217],[-84.4199275,33.6538044],[-84.4201361,33.6539073],[-84.4201282,33.6539186],[-84.4201719,33.6539401],[-84.4200546,33.6541064],[-84.4200123,33.6540855],[-84.4200046,33.6540965],[-84.4197837,33.6539875],[-84.4196555,33.6541693]]]},"properties":{"aeroway":"terminal","building":"yes","name":"UPS","osm_id":279406194,"osm_type":"way"}},{"type":"Feature","geometry":{"type":"Polygon","coordinates":[[[-84.4172922,33.6405211],[-84.4173431,33.6404728],[-84.4173416,33.6404386],[-84.4173013,33.6403992],[-84.4175417,33.640197],[-84.417541,33.6401645],[-84.4175406,33.6401481],[-84.4175724,33.6401482],[-84.4175723,33.6401086],[-84.4177925,33.6401123],[-84.4180062,33.6401125],[-84.4180056,33.6401675],[-84.4187394,33.6401644],[-84.4194467,33.6401581],[-84.4194478,33.640283],[-84.4194481,33.6403144],[-84.4194499,33.6405266],[-84.4193034,33.6405266],[-84.4190382,33.6405266],[-84.4189897,33.6405268],[-84.4189232,33.6405271],[-84.4187182,33.6405263],[-84.4187007,33.6405262],[-84.4181899,33.6405244],[-84.4181738,33.6405243],[-84.4181579,33.6405242],[-84.4176788,33.6405225],[-84.4176537,33.6405238],[-84.4172922,33.6405211]]]},"properties":{"aeroway":"terminal","building":"yes","name":"Maynard H. Jackson Junior International Terminal","operator":"Hartsfield-Jackson Atlanta International Airport","short_name":"International Terminal","osm_id":328278997,"osm_type":"way"}},{"type":"Feature","geometry":{"type":"Polygon","coordinates":[[[-84.3028135,33.8815114],[-84.3027894,33.8815116],[-84.302581,33.8815135],[-84.3025514,33.8815138],[-84.3025494,33.8813651],[-84.3024517,33.881366],[-84.302449,33.8811652],[-84.3025467,33.8811643],[-84.3025417,33.8807875],[-84.3028039,33.8807851],[-84.3028089,33.8811659],[-84.3029199,33.8811649],[-84.3029224,33.8813562],[-84.3028115,33.8813572],[-84.3028135,33.8815114]]]},"properties":{"aeroway":"terminal","building":"yes","name":"Signature","osm_id":390840806,"osm_type":"way"}},{"type":"Feature","geometry":{"type":"Polygon","coordinates":[[[-84.30847,33.8775072],[-84.3081961,33.8775061],[-84.3081955,33.8776125],[-84.308152,33.8776123],[-84.3081526,33.8775059],[-84.3078695,33.8775047],[-84.3078724,33.8770066],[-84.3084729,33.877009],[-84.30847,33.8775072]]]},"properties":{"aeroway":"terminal","building":"yes","name":"The Globe Building","osm_id":390840861,"osm_type":"way"}},{"type":"Feature","geometry":{"type":"Polygon","coordinates":[[[-84.4270672,33.626908],[-84.4263776,33.6269119],[-84.4263711,33.6262851],[-84.4262082,33.6262861],[-84.426189,33.6262473],[-84.4261883,33.6262059],[-84.4262131,33.6261355],[-84.426389,33.6261345],[-84.4263835,33.6254478],[-84.4270553,33.6254441],[-84.4270672,33.626908]]]},"properties":{"aeroway":"terminal","building":"yes","name":"Cargo Building D","osm_id":449678067,"osm_type":"way"}},{"type":"Feature","geometry":{"type":"Polygon","coordinates":[[[-84.4299913,33.6269895],[-84.4306809,33.6269914],[-84.4306785,33.6276129],[-84.4308256,33.6276135],[-84.4308504,33.627652],[-84.4308616,33.627699],[-84.4308532,33.6277378],[-84.430836,33.6277692],[-84.4306601,33.6277687],[-84.4306573,33.6284554],[-84.4299854,33.6284534],[-84.4299913,33.6269895]]]},"properties":{"aeroway":"terminal","building":"yes","name":"Cargo Building B","osm_id":449678340,"osm_type":"way"}},{"type":"Feature","geometry":{"type":"Polygon","coordinates":[[[-84.43001,33.6254404],[-84.4306996,33.6254423],[-84.4306982,33.6260604],[-84.4308342,33.6260618],[-84.4308554,33.6260986],[-84.4308593,33.6261483],[-84.4308503,33.6261854],[-84.4308317,33.6262177],[-84.4306788,33.6262196],[-84.430676,33.6269063],[-84.4300042,33.6269044],[-84.43001,33.6254404]]]},"properties":{"aeroway":"terminal","building":"yes","name":"Cargo Building A","osm_id":449678341,"osm_type":"way"}},{"type":"Feature","geometry":{"type":"Polygon","coordinates":[[[-84.1837692,33.5371552],[-84.1838819,33.5370933],[-84.1839235,33.5370218],[-84.1831859,33.5364405],[-84.1830893,33.5364919],[-84.1824,33.5360291],[-84.1812171,33.5351013],[-84.1804634,33.5345289],[-84.1800664,33.5342159],[-84.1799618,33.5340013],[-84.1799685,33.5338258],[-84.179522,33.5334837],[-84.1789453,33.533828],[-84.1786583,33.5340046],[-84.1772045,33.5332892],[-84.1769497,33.533629],[-84.1770275,33.5340248],[-84.1773708,33.5342305],[-84.1777785,33.5345323],[-84.1773547,33.5347447],[-84.1771402,33.5347357],[-84.1743936,33.533913],[-84.1743909,33.5343892],[-84.1771482,33.5351493],[-84.1793262,33.5357932],[-84.1790472,33.5363857],[-84.1786261,33.5367188],[-84.180219,33.5368765],[-84.1802653,33.5367585],[-84.1803615,33.5367064],[-84.1806243,33.5364573],[-84.1813485,33.5365512],[-84.1812037,33.5369446],[-84.1818421,33.5370318],[-84.1823275,33.5368261],[-84.1830973,33.5369759],[-84.1837692,33.5371552]]]},"properties":{"addr:state":"GA","aeroway":"aerodrome","ele":"227","gnis:feature_id":"351915","name":"Berry Hill Airport","wikidata":"Q35246767","osm_id":481081018,"osm_type":"way"}},{"type":"Feature","geometry":{"type":"LineString","coordinates":[[-84.1837223,33.5369882],[-84.1744955,33.5341421]]},"properties":{"aeroway":"runway","ref":"11 / 29","osm_id":481082265,"osm_type":"way"}},{"type":"Feature","geometry":{"type":"LineString","coordinates":[[-84.4072565,33.6347098],[-84.4079698,33.6347099],[-84.4089297,33.6347099]]},"properties":{"aeroway":"runway","ref":"09L/27R","runway":"displaced_threshold","width":"45.72","osm_id":510400302,"osm_type":"way"}},{"type":"Feature","geometry":{"type":"LineString","coordinates":[[-84.676254,33.6581082],[-84.6824932,33.6649577]]},"properties":{"aeroway":"runway","surface":"grass","osm_id":531307930,"osm_type":"way"}},{"type":"Feature","geometry":{"type":"Polygon","coordinates":[[[-84.6654511,33.4733234],[-84.6657394,33.4724821],[-84.6714592,33.4660942],[-84.6719098,33.466403],[-84.6701932,33.4682735],[-84.6703246,33.4685633],[-84.6702938,33.4688676],[-84.6696889,33.4687971],[-84.6658802,33.4731645],[-84.6654511,33.4733234]]]},"properties":{"aeroway":"aerodrome","faa":"GA31","name":"Two Rocks Airport","wikidata":"Q35313867","osm_id":533211507,"osm_type":"way"}},{"type":"Feature","geometry":{"type":"LineString","coordinates":[[-84.6716416,33.4662195],[-84.665553,33.4731914]]},"properties":{"aeroway":"runway","ref":"04/22","surface":"grass","osm_id":533211509,"osm_type":"way"}},{"type":"Feature","geometry":{"type":"LineString","coordinates":[[-84.650085,33.728502],[-84.6491831,33.7292809],[-84.6489404,33.7294905],[-84.6477976,33.7304774]]},"properties":{"aeroway":"runway","length":"1000'","surface":"asphalt","width":"50'","osm_id":550922066,"osm_type":"way"}},{"type":"Feature","geometry":{"type":"LineString","coordinates":[[-84.2753978,33.477248],[-84.2773611,33.4712968]]},"properties":{"aeroway":"runway","surface":"unpaved","osm_id":581016411,"osm_type":"way"}},{"type":"Feature","geometry":{"type":"LineString","coordinates":[[-84.1572112,33.5246769],[-84.157142,33.5308271]]},"properties":{"aeroway":"runway","surface":"grass","osm_id":893420593,"osm_type":"way"}},{"type":"Feature","geometry":{"type":"LineString","coordinates":[[-84.0715604,33.7676213],[-84.0647183,33.7673896]]},"properties":{"aeroway":"runway","surface":"grass","osm_id":893433371,"osm_type":"way"}},{"type":"Feature","geometry":{"type":"LineString","coordinates":[[-84.4894393,33.4929509],[-84.4895207,33.4884595]]},"properties":{"aeroway":"runway","surface":"grass","osm_id":893434239,"osm_type":"way"}},{"type":"Feature","geometry":{"type":"Polygon","coordinates":[[[-84.5298045,33.7774363],[-84.5309554,33.7781881],[-84.5311825,33.7790594],[-84.5293664,33.7793293],[-84.529217,33.7797623],[-84.529715,33.7802803],[-84.5289086,33.7811062],[-84.5276118,33.7799754],[-84.5268136,33.7800316],[-84.5261773,33.7802299],[-84.5257967,33.7799264],[-84.523922,33.7802165],[-84.5230023,33.7805589],[-84.5228756,33.7806678],[-84.5231545,33.7807035],[-84.523223,33.7810888],[-84.5133269,33.7825939],[-84.5131713,33.7818672],[-84.5095986,33.7823978],[-84.5094166,33.7814741],[-84.5111386,33.7796789],[-84.5111859,33.7795969],[-84.5112066,33.7795058],[-84.5111741,33.7794441],[-84.5121038,33.7780103],[-84.5133537,33.7778275],[-84.5131604,33.7770595],[-84.5145722,33.7768976],[-84.5149909,33.7779424],[-84.5157328,33.777813],[-84.5158106,33.7782076],[-84.5181886,33.7778684],[-84.5184687,33.7777383],[-84.5185626,33.7775956],[-84.5189542,33.7760439],[-84.5192546,33.7757162],[-84.5177847,33.7743138],[-84.5173422,33.7739861],[-84.5169532,33.7737921],[-84.5154901,33.7732213],[-84.5155129,33.7730463],[-84.5175084,33.7716651],[-84.5196757,33.7703318],[-84.5201853,33.7703897],[-84.5248014,33.7739303],[-84.5292994,33.7769424],[-84.5291948,33.7770539],[-84.5298045,33.7774363]]]},"properties":{"addr:state":"GA","aeroway":"aerodrome","ele":"248","gnis:feature_id":"326789","iata":"FTY","icao":"KFTY","name":"Fulton County Airport-Brown Field","wikidata":"Q3274683","wikipedia":"en:Fulton County Airport (Georgia)","osm_id":1008838834,"osm_type":"way"}},{"type":"Feature","geometry":{"type":"LineString","coordinates":[[-84.5036526,33.5253872],[-84.5029175,33.525816],[-84.5005939,33.5271715]]},"properties":{"aeroway":"runway","osm_id":1068340422,"osm_type":"way"}},{"type":"Feature","geometry":{"type":"LineString","coordinates":[[-84.5082651,33.5223198],[-84.5098865,33.5214744],[-84.5120903,33.5203253]]},"properties":{"aeroway":"runway","osm_id":1068340424,"osm_type":"way"}},{"type":"Feature","geometry":{"type":"Polygon","coordinates":[[[-84.4137553,33.6541286],[-84.4134851,33.654467],[-84.411333,33.65316],[-84.4113283,33.6531623],[-84.4116062,33.6528441],[-84.4137553,33.6541286]]]},"properties":{"aeroway":"terminal","building":"yes","name":"Delta Cargo","osm_id":1282655744,"osm_type":"way"}},{"type":"Feature","geometry":{"type":"Polygon","coordinates":[[[-84.4270578,33.6285673],[-84.4270667,33.6270055],[-84.4264766,33.6270036],[-84.4264751,33.6269779],[-84.426378,33.6269792],[-84.4263797,33.6277107],[-84.4262928,33.6277107],[-84.4262214,33.6277107],[-84.4262098,33.6277275],[-84.4262018,33.6277435],[-84.426196,33.6277631],[-84.4261933,33.6277811],[-84.4261941,33.6278009],[-84.4261991,33.6278205],[-84.4262068,33.6278391],[-84.4262133,33.6278516],[-84.4262183,33.6278648],[-84.4263738,33.6278657],[-84.4263795,33.6284845],[-84.4264762,33.6284851],[-84.4264762,33.6284582],[-84.426867,33.6284577],[-84.4268675,33.6284846],[-84.4269307,33.6284857],[-84.4269303,33.6285428],[-84.4269303,33.628567],[-84.4270578,33.6285673]]]},"properties":{"aeroway":"terminal","building":"yes","name":"Cargo Building C","osm_id":1283062656,"osm_type":"way"}},{"type":"Feature","geometry":{"type":"Polygon","coordinates":[[[-84.4242927,33.6523924],[-84.424439,33.6523943],[-84.424446,33.6525335],[-84.4245122,33.6525335],[-84.4245137,33.6524988],[-84.4246439,33.6524982],[-84.4246428,33.652606],[-84.4246424,33.6526514],[-84.4245091,33.6526508],[-84.4245091,33.652604],[-84.4244498,33.6526046],[-84.4244483,33.6528329],[-84.424278,33.6528316],[-84.4242811,33.6526251],[-84.4242457,33.6526258],[-84.4242442,33.6526643],[-84.4241086,33.6526611],[-84.4241097,33.6525055],[-84.4241099,33.6524703],[-84.4242094,33.6524703],[-84.4242099,33.6524353],[-84.4242917,33.6524364],[-84.4242927,33.6523924]]]},"properties":{"aeroway":"terminal","building":"yes","layer":"1","name":"Signature","operator":"Signature Flight Support","operator:wikidata":"Q77789963","osm_id":1283063182,"osm_type":"way"}},{"type":"Feature","geometry":{"type":"Polygon","coordinates":[[[-84.3052528,33.8755312],[-84.3051488,33.8755888],[-84.305041,33.8754602],[-84.3049378,33.875521],[-84.3048808,33.87545],[-84.3047244,33.875255],[-84.3048361,33.8751948],[-84.3048238,33.8751808],[-84.3049162,33.8751277],[-84.3049809,33.8752012],[-84.3050217,33.8751769],[-84.3050402,33.8751974],[-84.3050949,33.8751648],[-84.3052621,33.8753701],[-84.3051642,33.8754251],[-84.3052528,33.8755312]]]},"properties":{"aeroway":"terminal","building":"yes","name":"Atlantic","osm_id":1283100571,"osm_type":"way"}},{"type":"Feature","geometry":{"type":"Polygon","coordinates":[[[-84.4238441,33.6524995],[-84.4238803,33.6525005],[-84.4238805,33.6525747],[-84.4238807,33.6526367],[-84.4236369,33.6526374],[-84.4236365,33.6527749],[-84.4235213,33.6527752],[-84.4235225,33.6526377],[-84.4234439,33.6526374],[-84.4234443,33.6526303],[-84.423256,33.65263],[-84.4232574,33.6525029],[-84.4235206,33.6525045],[-84.4235213,33.6524682],[-84.4236346,33.6524694],[-84.4236349,33.6525073],[-84.42365,33.652507],[-84.4236507,33.6524317],[-84.4238438,33.6524306],[-84.4238441,33.6524995]]]},"properties":{"addr:city":"Atlanta","addr:housenumber":"1210","addr:postcode":"30354","addr:state":"GA","addr:street":"Toffie Terrace","aeroway":"terminal","branch":"ATL","brand":"PS","brand:wikidata":"Q130739367","building":"airport_terminal","disused:operator":"Signature Flight Support","disused:operator:wikidata":"Q77789963","fee":"yes","layer":"1","membership":"yes","name":"PS ATL","old_name":"Signature Elite Class","operator":"PS","operator:wikidata":"Q130739367","website":"https://reserveps.com/atl","osm_id":1283805800,"osm_type":"way"}},{"type":"Feature","geometry":{"type":"LineString","coordinates":[[-84.4063759,33.4510849],[-84.4102426,33.4515117]]},"properties":{"aeroway":"runway","surface":"dirt","osm_id":1306267217,"osm_type":"way"}},{"type":"Feature","geometry":{"type":"Polygon","coordinates":[[[-84.4253719,33.6441648],[-84.4245632,33.6441632],[-84.4245634,33.6441078],[-84.4245636,33.6440337],[-84.4245638,33.6439713],[-84.4248213,33.6439718],[-84.4250763,33.6439724],[-84.4250762,33.6440223],[-84.4252505,33.6440227],[-84.4252505,33.6440157],[-84.4253723,33.644016],[-84.4253722,33.644075],[-84.4253719,33.6441648]]]},"properties":{"aeroway":"terminal","building":"yes","name":"Concourse E","operator":"Hartfield Jackson International Airport","wheelchair":"yes","osm_id":1375871784,"osm_type":"way"}},{"type":"Feature","geometry":{"type":"Polygon","coordinates":[[[-84.4257581,33.6437846],[-84.4257293,33.6438374],[-84.4255228,33.6440766],[-84.4253722,33.644075],[-84.4253723,33.644016],[-84.4254855,33.6440177],[-84.4256549,33.6438249],[-84.4256569,33.6437844],[-84.4256648,33.6437844],[-84.4257331,33.6437845],[-84.4257581,33.6437846]]]},"properties":{"aeroway":"terminal","building":"yes","name":"Concourse E Bridgeway","operator":"Hartsfield Jackson International Airport","wheelchair":"yes","osm_id":1375871788,"osm_type":"way"}},{"type":"Feature","geometry":{"type":"LineString","coordinates":[[-84.6039008,34.0130377],[-84.6053961,34.0130112],[-84.6071851,34.012982]]},"properties":{"aeroway":"runway","lit":"yes","ref":"09/27","runway":"displaced_threshold","source":"Yahoo aerial photos","surface":"concrete","osm_id":1409772190,"osm_type":"way"}},{"type":"Feature","geometry":{"type":"LineString","coordinates":[[-84.2970872,33.8840163],[-84.2971076,33.8839707],[-84.2982581,33.8814019]]},"properties":{"aeroway":"runway","ref":"03R/21L","runway":"displaced_threshold","surface":"paved","width":"30.48","osm_id":1413166997,"osm_type":"way"}}],"_source":"OpenStreetMap via Overpass API \u00b7 2026-05-05"}